<?xml version='1.0' encoding='utf-8'?>
<q:quakeml xmlns="http://quakeml.org/xmlns/bed/1.2" xmlns:q="http://quakeml.org/xmlns/quakeml/1.2">
  <eventParameters publicID="smi:local/d5cfbac4-2ec2-4c70-855b-cc886de8be27">
    <event publicID="smi:local/9d0ce83a-5459-4242-bdfd-02db2e2629e4">
      <preferredOriginID>smi:local/922ab46d-4d1d-4d32-bf20-91cc263c9693</preferredOriginID>
      <comment>
        <text>CaMI.FRS microseismicity</text>
      </comment>
      <comment id="smi:local/8cec1cfd-62db-488a-872d-8d064dbd4ce4">
        <text>eqcorrscan_template_2020_03_18t03_00_12</text>
      </comment>
      <creationInfo>
        <author>Genevieve Savard   obs:./obs_picked5/merged.obs   NLLoc:v7.00.00(27Oct2017)</author>
        <creationTime>2020-09-18T19:57:12.000000Z</creationTime>
      </creationInfo>
      <origin publicID="smi:local/922ab46d-4d1d-4d32-bf20-91cc263c9693">
        <time>
          <value>2020-03-18T03:00:11.728291Z</value>
        </time>
        <latitude>
          <value>50.463781</value>
          <uncertainty>0.011153219627574163</uncertainty>
        </latitude>
        <longitude>
          <value>-112.105752</value>
          <uncertainty>0.01116217167761592</uncertainty>
        </longitude>
        <depth>
          <value>3.125</value>
          <uncertainty>18.657438194993436</uncertainty>
          <confidenceLevel>68.0</confidenceLevel>
        </depth>
        <depthType>from location</depthType>
        <quality>
          <associatedPhaseCount>15</associatedPhaseCount>
          <usedPhaseCount>15</usedPhaseCount>
          <associatedStationCount>-1</associatedStationCount>
          <usedStationCount>15</usedStationCount>
          <depthPhaseCount>-1</depthPhaseCount>
          <standardError>0.0228325</standardError>
          <azimuthalGap>360.0</azimuthalGap>
          <secondaryAzimuthalGap>360.0</secondaryAzimuthalGap>
          <groundTruthLevel>-</groundTruthLevel>
          <minimumDistance>0.01654257128007209</minimumDistance>
          <maximumDistance>0.01654257128007209</maximumDistance>
          <medianDistance>0.01654257128007209</medianDistance>
        </quality>
        <comment>
          <text>Note: Depth/Latitude/Longitude errors are calculated from covariance matrix as 1D marginal (Lon/Lat errors as great circle degrees) while OriginUncertainty min/max horizontal errors are calculated from 2D error ellipsoid and are therefore seemingly higher compared to 1D errors. Error estimates can be reconstructed from the following original NonLinLoc error statistics line:
STATISTICS ExpectX 0.0720924 Y 0.0650133 Z 0.0191223  CovXX 1.54052 XY 0.00253057 XZ 0.000253752 YY 1.53805 YZ 0.000212879 ZZ 0.0003481 EllAz1  229.977 Dip1  89.9877 Len1  0.0350505 Az2  327.998 Dip2  0.00171768 Len2  2.32889 Len3  2.333154e+00</text>
        </comment>
        <creationInfo>
          <author>Genevieve Savard   obs:./obs_picked5/merged.obs   NLLoc:v7.00.00(27Oct2017)</author>
          <creationTime>2020-09-18T19:57:12.000000Z</creationTime>
        </creationInfo>
        <originUncertainty>
          <preferredDescription>uncertainty ellipse</preferredDescription>
          <minHorizontalUncertainty>1879.8600000000001</minHorizontalUncertainty>
          <maxHorizontalUncertainty>1883.3</maxHorizontalUncertainty>
          <azimuthMaxHorizontalUncertainty>57.9981</azimuthMaxHorizontalUncertainty>
          <confidenceLevel>68.0</confidenceLevel>
        </originUncertainty>
        <arrival publicID="smi:local/d26ab16b-d076-40ad-8315-93d51e4b2d95">
          <pickID>smi:local/060dc746-ae91-44c8-b3c8-8e632461d48d</pickID>
          <phase>P</phase>
          <azimuth>359.0</azimuth>
          <distance>0.016543020940875047</distance>
          <takeoffAngle>
            <value>-1.0</value>
          </takeoffAngle>
          <timeResidual>-0.0394</timeResidual>
          <timeWeight>1.0</timeWeight>
        </arrival>
        <arrival publicID="smi:local/162cd514-7222-4700-beac-e0ee684ecc41">
          <pickID>smi:local/8ca4a342-e1cf-44e5-b013-6540624e9044</pickID>
          <phase>P</phase>
          <azimuth>359.0</azimuth>
          <distance>0.016543020940875047</distance>
          <takeoffAngle>
            <value>-1.0</value>
          </takeoffAngle>
          <timeResidual>-0.0193</timeResidual>
          <timeWeight>1.0</timeWeight>
        </arrival>
        <arrival publicID="smi:local/b42a10f1-0f29-4a63-9d46-bcd1d35e31f4">
          <pickID>smi:local/5274aa98-3693-4eb2-8b1d-53904158dc5e</pickID>
          <phase>P</phase>
          <azimuth>359.0</azimuth>
          <distance>0.016543020940875047</distance>
          <takeoffAngle>
            <value>-1.0</value>
          </takeoffAngle>
          <timeResidual>-0.0037</timeResidual>
          <timeWeight>1.0</timeWeight>
        </arrival>
        <arrival publicID="smi:local/a5b6b20c-efe7-489d-bd1e-6933c10d53b3">
          <pickID>smi:local/6f9abfdf-45e5-45bf-8bbe-df514388af0c</pickID>
          <phase>P</phase>
          <azimuth>359.0</azimuth>
          <distance>0.016543020940875047</distance>
          <takeoffAngle>
            <value>-1.0</value>
          </takeoffAngle>
          <timeResidual>0.0634</timeResidual>
          <timeWeight>1.0</timeWeight>
        </arrival>
        <arrival publicID="smi:local/0b32c6cb-22e3-4234-a194-ada439746195">
          <pickID>smi:local/6424544b-6977-452f-921d-4a9e6018609b</pickID>
          <phase>S</phase>
          <azimuth>359.0</azimuth>
          <distance>0.016543020940875047</distance>
          <takeoffAngle>
            <value>-1.0</value>
          </takeoffAngle>
          <timeResidual>-0.0159</timeResidual>
          <timeWeight>1.0</timeWeight>
        </arrival>
        <arrival publicID="smi:local/408b33f7-d8df-4828-a636-7a492f5de029">
          <pickID>smi:local/ded2d1f0-d16f-40cb-9210-a343502a7c96</pickID>
          <phase>S</phase>
          <azimuth>359.0</azimuth>
          <distance>0.016543020940875047</distance>
          <takeoffAngle>
            <value>-1.0</value>
          </takeoffAngle>
          <timeResidual>-0.0174</timeResidual>
          <timeWeight>1.0</timeWeight>
        </arrival>
        <arrival publicID="smi:local/c845bbec-26c5-49a6-a2b3-b5003bb8cce7">
          <pickID>smi:local/d0378a5b-2182-4673-b0e0-6728b2aad6c7</pickID>
          <phase>S</phase>
          <azimuth>359.0</azimuth>
          <distance>0.016543020940875047</distance>
          <takeoffAngle>
            <value>-1.0</value>
          </takeoffAngle>
          <timeResidual>-0.0042</timeResidual>
          <timeWeight>1.0</timeWeight>
        </arrival>
        <arrival publicID="smi:local/b4973cf6-60ea-4a5a-ae35-5b5ebee37c9e">
          <pickID>smi:local/4f0c7e0a-80ce-4fd5-971d-9ed9d2d0e1a7</pickID>
          <phase>S</phase>
          <azimuth>359.0</azimuth>
          <distance>0.016543020940875047</distance>
          <takeoffAngle>
            <value>-1.0</value>
          </takeoffAngle>
          <timeResidual>0.0138</timeResidual>
          <timeWeight>1.0</timeWeight>
        </arrival>
        <arrival publicID="smi:local/f79e2d45-a8c3-40bd-b131-151c45c2d811">
          <pickID>smi:local/3be3df6a-2359-41ce-90f8-b2f53cef81d1</pickID>
          <phase>S</phase>
          <azimuth>359.0</azimuth>
          <distance>0.016543020940875047</distance>
          <takeoffAngle>
            <value>-1.0</value>
          </takeoffAngle>
          <timeResidual>0.0061</timeResidual>
          <timeWeight>1.0</timeWeight>
        </arrival>
        <arrival publicID="smi:local/cc3f4376-45cd-455d-8c1a-c6f03d830b99">
          <pickID>smi:local/bdad857d-a0ea-40bc-a1f9-de79256b3c29</pickID>
          <phase>S</phase>
          <azimuth>359.0</azimuth>
          <distance>0.016543020940875047</distance>
          <takeoffAngle>
            <value>-1.0</value>
          </takeoffAngle>
          <timeResidual>-0.0099</timeResidual>
          <timeWeight>1.0</timeWeight>
        </arrival>
        <arrival publicID="smi:local/91e82137-1b48-447b-b3b9-0d98cd4eee69">
          <pickID>smi:local/9e740a1e-2d65-4c6c-8481-a95a117f99e1</pickID>
          <phase>S</phase>
          <azimuth>359.0</azimuth>
          <distance>0.016543020940875047</distance>
          <takeoffAngle>
            <value>-1.0</value>
          </takeoffAngle>
          <timeResidual>0.0304</timeResidual>
          <timeWeight>1.0</timeWeight>
        </arrival>
        <arrival publicID="smi:local/ffb402a4-f456-463d-8e85-4984116be0e9">
          <pickID>smi:local/68bae1fc-96d0-4464-a218-5f0d5d58f8e7</pickID>
          <phase>S</phase>
          <azimuth>359.0</azimuth>
          <distance>0.016543020940875047</distance>
          <takeoffAngle>
            <value>-1.0</value>
          </takeoffAngle>
          <timeResidual>0.0011</timeResidual>
          <timeWeight>1.0</timeWeight>
        </arrival>
        <arrival publicID="smi:local/1fbb8379-6168-4558-8c6e-bc52d0f10691">
          <pickID>smi:local/eb81649c-71bc-4cd7-af54-8861157601ca</pickID>
          <phase>S</phase>
          <azimuth>359.0</azimuth>
          <distance>0.016543020940875047</distance>
          <takeoffAngle>
            <value>-1.0</value>
          </takeoffAngle>
          <timeResidual>0.0003</timeResidual>
          <timeWeight>1.0</timeWeight>
        </arrival>
        <arrival publicID="smi:local/01cf12d3-74c3-45ce-92a6-4e14afc01b57">
          <pickID>smi:local/b5538719-5fb4-4d3c-a7a9-05470c08ed21</pickID>
          <phase>S</phase>
          <azimuth>359.0</azimuth>
          <distance>0.016543020940875047</distance>
          <takeoffAngle>
            <value>-1.0</value>
          </takeoffAngle>
          <timeResidual>-0.0062</timeResidual>
          <timeWeight>1.0</timeWeight>
        </arrival>
        <arrival publicID="smi:local/0d54bac8-90cd-45a4-b5bf-ec5e2e488348">
          <pickID>smi:local/337e62f0-e941-44e0-937a-18a340f44813</pickID>
          <phase>S</phase>
          <azimuth>359.0</azimuth>
          <distance>0.016543020940875047</distance>
          <takeoffAngle>
            <value>-1.0</value>
          </takeoffAngle>
          <timeResidual>0.0009</timeResidual>
          <timeWeight>1.0</timeWeight>
        </arrival>
      </origin>
      <pick publicID="smi:local/5274aa98-3693-4eb2-8b1d-53904158dc5e">
        <time>
          <value>2020-03-18T03:00:12.459400Z</value>
          <uncertainty>0.05</uncertainty>
        </time>
        <waveformID networkCode="XX" stationCode="G6" channelCode="DPN"></waveformID>
        <phaseHint>P</phaseHint>
      </pick>
      <pick publicID="smi:local/eb81649c-71bc-4cd7-af54-8861157601ca">
        <time>
          <value>2020-03-18T03:00:13.274500Z</value>
          <uncertainty>0.05</uncertainty>
        </time>
        <waveformID networkCode="XX" stationCode="G6" channelCode="DPZ"></waveformID>
        <phaseHint>S</phaseHint>
      </pick>
      <pick publicID="smi:local/4f0c7e0a-80ce-4fd5-971d-9ed9d2d0e1a7">
        <time>
          <value>2020-03-18T03:00:13.256100Z</value>
          <uncertainty>0.05</uncertainty>
        </time>
        <waveformID networkCode="XX" stationCode="G17" channelCode="DPZ"></waveformID>
        <phaseHint>S</phaseHint>
      </pick>
      <pick publicID="smi:local/3be3df6a-2359-41ce-90f8-b2f53cef81d1">
        <time>
          <value>2020-03-18T03:00:13.259800Z</value>
          <uncertainty>0.05</uncertainty>
        </time>
        <waveformID networkCode="XX" stationCode="G13" channelCode="DPZ"></waveformID>
        <phaseHint>S</phaseHint>
      </pick>
      <pick publicID="smi:local/6424544b-6977-452f-921d-4a9e6018609b">
        <time>
          <value>2020-03-18T03:00:13.240700Z</value>
          <uncertainty>0.05</uncertainty>
        </time>
        <waveformID networkCode="XX" stationCode="G12" channelCode="DPZ"></waveformID>
        <phaseHint>S</phaseHint>
      </pick>
      <pick publicID="smi:local/8ca4a342-e1cf-44e5-b013-6540624e9044">
        <time>
          <value>2020-03-18T03:00:12.447600Z</value>
          <uncertainty>0.05</uncertainty>
        </time>
        <waveformID networkCode="XX" stationCode="G2" channelCode="DPN"></waveformID>
        <phaseHint>P</phaseHint>
      </pick>
      <pick publicID="smi:local/b5538719-5fb4-4d3c-a7a9-05470c08ed21">
        <time>
          <value>2020-03-18T03:00:13.279100Z</value>
          <uncertainty>0.05</uncertainty>
        </time>
        <waveformID networkCode="XX" stationCode="G2" channelCode="DPE"></waveformID>
        <phaseHint>S</phaseHint>
      </pick>
      <pick publicID="smi:local/d0378a5b-2182-4673-b0e0-6728b2aad6c7">
        <time>
          <value>2020-03-18T03:00:13.246600Z</value>
          <uncertainty>0.05</uncertainty>
        </time>
        <waveformID networkCode="XX" stationCode="G14" channelCode="DPZ"></waveformID>
        <phaseHint>S</phaseHint>
      </pick>
      <pick publicID="smi:local/060dc746-ae91-44c8-b3c8-8e632461d48d">
        <time>
          <value>2020-03-18T03:00:12.424600Z</value>
          <uncertainty>0.05</uncertainty>
        </time>
        <waveformID networkCode="XX" stationCode="G5" channelCode="DPZ"></waveformID>
        <phaseHint>P</phaseHint>
      </pick>
      <pick publicID="smi:local/bdad857d-a0ea-40bc-a1f9-de79256b3c29">
        <time>
          <value>2020-03-18T03:00:13.267600Z</value>
          <uncertainty>0.05</uncertainty>
        </time>
        <waveformID networkCode="XX" stationCode="G5" channelCode="DPE"></waveformID>
        <phaseHint>S</phaseHint>
      </pick>
      <pick publicID="smi:local/68bae1fc-96d0-4464-a218-5f0d5d58f8e7">
        <time>
          <value>2020-03-18T03:00:13.270100Z</value>
          <uncertainty>0.05</uncertainty>
        </time>
        <waveformID networkCode="XX" stationCode="G8" channelCode="DPE"></waveformID>
        <phaseHint>S</phaseHint>
      </pick>
      <pick publicID="smi:local/ded2d1f0-d16f-40cb-9210-a343502a7c96">
        <time>
          <value>2020-03-18T03:00:13.242400Z</value>
          <uncertainty>0.05</uncertainty>
        </time>
        <waveformID networkCode="XX" stationCode="G11" channelCode="DPN"></waveformID>
        <phaseHint>S</phaseHint>
      </pick>
      <pick publicID="smi:local/6f9abfdf-45e5-45bf-8bbe-df514388af0c">
        <time>
          <value>2020-03-18T03:00:12.528400Z</value>
          <uncertainty>0.05</uncertainty>
        </time>
        <waveformID networkCode="XX" stationCode="G4" channelCode="DPN"></waveformID>
        <phaseHint>P</phaseHint>
      </pick>
      <pick publicID="smi:local/337e62f0-e941-44e0-937a-18a340f44813">
        <time>
          <value>2020-03-18T03:00:13.281000Z</value>
          <uncertainty>0.05</uncertainty>
        </time>
        <waveformID networkCode="XX" stationCode="G4" channelCode="DPZ"></waveformID>
        <phaseHint>S</phaseHint>
      </pick>
      <pick publicID="smi:local/9e740a1e-2d65-4c6c-8481-a95a117f99e1">
        <time>
          <value>2020-03-18T03:00:13.270000Z</value>
          <uncertainty>0.05</uncertainty>
        </time>
        <waveformID networkCode="XX" stationCode="G18" channelCode="DPZ"></waveformID>
        <phaseHint>S</phaseHint>
      </pick>
    </event>
  </eventParameters>
</q:quakeml>
