<?xml version='1.0' encoding='utf-8'?>
<q:quakeml xmlns="http://quakeml.org/xmlns/bed/1.2" xmlns:q="http://quakeml.org/xmlns/quakeml/1.2">
  <eventParameters publicID="smi:local/9accb832-7f91-43cf-9258-586833c5335e">
    <event publicID="smi:local/5a599b12-55e2-471c-a7f1-4f2baa94c87e">
      <preferredOriginID>smi:local/260ed313-e516-4406-bc5f-03e6b9f4a1da</preferredOriginID>
      <comment>
        <text>CaMI.FRS microseismicity</text>
      </comment>
      <comment id="smi:local/69a10801-e9e8-4fde-8000-830d5fe66f45">
        <text>eqcorrscan_template_2020_03_18t03_14_51</text>
      </comment>
      <creationInfo>
        <author>Genevieve Savard   obs:./obs_picked5/merged.obs   NLLoc:v7.00.00(27Oct2017)</author>
        <creationTime>2020-09-18T19:57:15.000000Z</creationTime>
      </creationInfo>
      <origin publicID="smi:local/260ed313-e516-4406-bc5f-03e6b9f4a1da">
        <time>
          <value>2020-03-18T03:14:51.778601Z</value>
        </time>
        <latitude>
          <value>50.450556</value>
          <uncertainty>0.0025891701751171842</uncertainty>
        </latitude>
        <longitude>
          <value>-112.11462</value>
          <uncertainty>0.0023906701958419075</uncertainty>
        </longitude>
        <depth>
          <value>218.75</value>
          <uncertainty>224.36488138743997</uncertainty>
          <confidenceLevel>68.0</confidenceLevel>
        </depth>
        <depthType>from location</depthType>
        <quality>
          <associatedPhaseCount>20</associatedPhaseCount>
          <usedPhaseCount>20</usedPhaseCount>
          <associatedStationCount>-1</associatedStationCount>
          <usedStationCount>20</usedStationCount>
          <depthPhaseCount>-1</depthPhaseCount>
          <standardError>0.164985</standardError>
          <azimuthalGap>360.0</azimuthalGap>
          <secondaryAzimuthalGap>360.0</secondaryAzimuthalGap>
          <groundTruthLevel>-</groundTruthLevel>
          <minimumDistance>0.003984219544621456</minimumDistance>
          <maximumDistance>0.003984219544621456</maximumDistance>
          <medianDistance>0.003984219544621456</medianDistance>
        </quality>
        <comment>
          <text>Note: Depth/Latitude/Longitude errors are calculated from covariance matrix as 1D marginal (Lon/Lat errors as great circle degrees) while OriginUncertainty min/max horizontal errors are calculated from 2D error ellipsoid and are therefore seemingly higher compared to 1D errors. Error estimates can be reconstructed from the following original NonLinLoc error statistics line:
STATISTICS ExpectX 0.108537 Y 0.0546105 Z 0.367481  CovXX 0.0706658 XY -0.00274513 XZ -0.00535661 YY 0.0828879 YZ -0.00300501 ZZ 0.0503396 EllAz1  67.1216 Dip1  74.432 Len1  0.414362 Az2  80.2965 Dip2  -15.1774 Len2  0.502988 Len3  5.431852e-01</text>
        </comment>
        <creationInfo>
          <author>Genevieve Savard   obs:./obs_picked5/merged.obs   NLLoc:v7.00.00(27Oct2017)</author>
          <creationTime>2020-09-18T19:57:15.000000Z</creationTime>
        </creationInfo>
        <originUncertainty>
          <preferredDescription>uncertainty ellipse</preferredDescription>
          <minHorizontalUncertainty>401.46999999999997</minHorizontalUncertainty>
          <maxHorizontalUncertainty>438.173</maxHorizontalUncertainty>
          <azimuthMaxHorizontalUncertainty>167.905</azimuthMaxHorizontalUncertainty>
          <confidenceLevel>68.0</confidenceLevel>
        </originUncertainty>
        <arrival publicID="smi:local/9536ac30-d742-476b-8530-46e93e270eaf">
          <pickID>smi:local/66c33ffa-1115-465a-9062-d655646e22fb</pickID>
          <phase>S</phase>
          <azimuth>359.0</azimuth>
          <distance>0.003983994714219976</distance>
          <takeoffAngle>
            <value>-1.0</value>
          </takeoffAngle>
          <timeResidual>-0.233</timeResidual>
          <timeWeight>1.0</timeWeight>
        </arrival>
        <arrival publicID="smi:local/d0603810-d024-4856-8f88-70575fb26f2e">
          <pickID>smi:local/48c4f3bb-2d42-4de3-b690-bb39ef0ecea5</pickID>
          <phase>S</phase>
          <azimuth>359.0</azimuth>
          <distance>0.003983994714219976</distance>
          <takeoffAngle>
            <value>-1.0</value>
          </takeoffAngle>
          <timeResidual>-0.226</timeResidual>
          <timeWeight>1.0</timeWeight>
        </arrival>
        <arrival publicID="smi:local/e75b05b3-b757-449a-b75d-cb9f6422372b">
          <pickID>smi:local/34f3c6f0-c4fe-4940-8a4d-0dd0b285a3d1</pickID>
          <phase>S</phase>
          <azimuth>359.0</azimuth>
          <distance>0.003983994714219976</distance>
          <takeoffAngle>
            <value>-1.0</value>
          </takeoffAngle>
          <timeResidual>-0.2222</timeResidual>
          <timeWeight>1.0</timeWeight>
        </arrival>
        <arrival publicID="smi:local/49835f78-31a7-45af-9bba-4120d6b99da1">
          <pickID>smi:local/838c3dfe-cd6b-4f24-af79-08fef2c4cc8d</pickID>
          <phase>S</phase>
          <azimuth>359.0</azimuth>
          <distance>0.003983994714219976</distance>
          <takeoffAngle>
            <value>-1.0</value>
          </takeoffAngle>
          <timeResidual>-0.205</timeResidual>
          <timeWeight>1.0</timeWeight>
        </arrival>
        <arrival publicID="smi:local/d76f3195-e5a7-402b-ba3a-4228f26d5d1d">
          <pickID>smi:local/91c2eff8-61ef-47b3-a349-d084ce68a3d2</pickID>
          <phase>S</phase>
          <azimuth>359.0</azimuth>
          <distance>0.003983994714219976</distance>
          <takeoffAngle>
            <value>-1.0</value>
          </takeoffAngle>
          <timeResidual>-0.2048</timeResidual>
          <timeWeight>1.0</timeWeight>
        </arrival>
        <arrival publicID="smi:local/df56f94a-3d2c-45f0-b040-09bd76d0e297">
          <pickID>smi:local/9f6195ad-b8f9-4e4a-84bd-0a959624d8a2</pickID>
          <phase>S</phase>
          <azimuth>359.0</azimuth>
          <distance>0.003983994714219976</distance>
          <takeoffAngle>
            <value>-1.0</value>
          </takeoffAngle>
          <timeResidual>-0.2042</timeResidual>
          <timeWeight>1.0</timeWeight>
        </arrival>
        <arrival publicID="smi:local/4f705cac-0de5-42d0-80aa-6606b8e99f24">
          <pickID>smi:local/a7e5a6f4-bc7e-4621-b779-eabe32b4836c</pickID>
          <phase>P</phase>
          <azimuth>359.0</azimuth>
          <distance>0.003983994714219976</distance>
          <takeoffAngle>
            <value>-1.0</value>
          </takeoffAngle>
          <timeResidual>-0.0107</timeResidual>
          <timeWeight>1.0</timeWeight>
        </arrival>
        <arrival publicID="smi:local/6a12b822-eb0c-44c8-a58e-c92bc1b13a44">
          <pickID>smi:local/fada4fb1-8d9a-4f33-b718-004971601b73</pickID>
          <phase>P</phase>
          <azimuth>359.0</azimuth>
          <distance>0.003983994714219976</distance>
          <takeoffAngle>
            <value>-1.0</value>
          </takeoffAngle>
          <timeResidual>-0.0088</timeResidual>
          <timeWeight>1.0</timeWeight>
        </arrival>
        <arrival publicID="smi:local/1c99fff5-e93e-4c3f-9b42-435cdb0887a0">
          <pickID>smi:local/77effb28-e2f7-4ae5-a96f-61a54abdf375</pickID>
          <phase>P</phase>
          <azimuth>359.0</azimuth>
          <distance>0.003983994714219976</distance>
          <takeoffAngle>
            <value>-1.0</value>
          </takeoffAngle>
          <timeResidual>-0.0008</timeResidual>
          <timeWeight>1.0</timeWeight>
        </arrival>
        <arrival publicID="smi:local/dc3139c8-0ea9-4e32-9b5d-84dc881d15ce">
          <pickID>smi:local/ecab24ab-10a4-4e16-a945-30eec9cb4208</pickID>
          <phase>P</phase>
          <azimuth>359.0</azimuth>
          <distance>0.003983994714219976</distance>
          <takeoffAngle>
            <value>-1.0</value>
          </takeoffAngle>
          <timeResidual>-0.0002</timeResidual>
          <timeWeight>1.0</timeWeight>
        </arrival>
        <arrival publicID="smi:local/78fc8398-c0a2-4280-b37e-647f07ccb566">
          <pickID>smi:local/c99fdf27-c1a4-4bd0-9092-471b27ca61d1</pickID>
          <phase>P</phase>
          <azimuth>359.0</azimuth>
          <distance>0.003983994714219976</distance>
          <takeoffAngle>
            <value>-1.0</value>
          </takeoffAngle>
          <timeResidual>0.0032</timeResidual>
          <timeWeight>1.0</timeWeight>
        </arrival>
        <arrival publicID="smi:local/7961af1f-456f-4d55-8995-ba629ad6a0db">
          <pickID>smi:local/85e7e509-284d-469a-98ab-5d65ebaf4a39</pickID>
          <phase>P</phase>
          <azimuth>359.0</azimuth>
          <distance>0.003983994714219976</distance>
          <takeoffAngle>
            <value>-1.0</value>
          </takeoffAngle>
          <timeResidual>0.002</timeResidual>
          <timeWeight>1.0</timeWeight>
        </arrival>
        <arrival publicID="smi:local/ee942cd6-c281-4ac1-8125-a4ea2420f8c1">
          <pickID>smi:local/03d3ce4a-6f5e-450f-b504-e7744fd3395e</pickID>
          <phase>P</phase>
          <azimuth>359.0</azimuth>
          <distance>0.003983994714219976</distance>
          <takeoffAngle>
            <value>-1.0</value>
          </takeoffAngle>
          <timeResidual>0.009</timeResidual>
          <timeWeight>1.0</timeWeight>
        </arrival>
        <arrival publicID="smi:local/361d1972-e000-47a7-a443-3b4d71090188">
          <pickID>smi:local/c9a6a846-1124-4af8-b257-7f3becbb6900</pickID>
          <phase>S</phase>
          <azimuth>359.0</azimuth>
          <distance>0.003983994714219976</distance>
          <takeoffAngle>
            <value>-1.0</value>
          </takeoffAngle>
          <timeResidual>0.0584</timeResidual>
          <timeWeight>1.0</timeWeight>
        </arrival>
        <arrival publicID="smi:local/05c21eaa-4d68-4efc-9478-5675a8556786">
          <pickID>smi:local/4f3ada52-5f3f-4c4b-abb1-ea2a9b709f14</pickID>
          <phase>S</phase>
          <azimuth>359.0</azimuth>
          <distance>0.003983994714219976</distance>
          <takeoffAngle>
            <value>-1.0</value>
          </takeoffAngle>
          <timeResidual>0.1786</timeResidual>
          <timeWeight>1.0</timeWeight>
        </arrival>
        <arrival publicID="smi:local/8b37c12a-d8c8-4c21-9ec9-dbaa888970d1">
          <pickID>smi:local/51f6dbab-94a6-45c0-9d6e-28d3f267a235</pickID>
          <phase>S</phase>
          <azimuth>359.0</azimuth>
          <distance>0.003983994714219976</distance>
          <takeoffAngle>
            <value>-1.0</value>
          </takeoffAngle>
          <timeResidual>0.1861</timeResidual>
          <timeWeight>1.0</timeWeight>
        </arrival>
        <arrival publicID="smi:local/0b50cc6e-49ef-4387-8ee4-fb7e7765464f">
          <pickID>smi:local/05ca39c5-c53c-47b9-8850-6ec31c57c909</pickID>
          <phase>S</phase>
          <azimuth>359.0</azimuth>
          <distance>0.003983994714219976</distance>
          <takeoffAngle>
            <value>-1.0</value>
          </takeoffAngle>
          <timeResidual>0.1961</timeResidual>
          <timeWeight>1.0</timeWeight>
        </arrival>
        <arrival publicID="smi:local/0d49d286-315f-44d8-9f24-f779ef51731b">
          <pickID>smi:local/c085aaf4-db22-47c9-a890-e4880c43b8e9</pickID>
          <phase>S</phase>
          <azimuth>359.0</azimuth>
          <distance>0.003983994714219976</distance>
          <takeoffAngle>
            <value>-1.0</value>
          </takeoffAngle>
          <timeResidual>0.2182</timeResidual>
          <timeWeight>1.0</timeWeight>
        </arrival>
        <arrival publicID="smi:local/ae1667f9-7a0f-47a5-8827-0f9a33480938">
          <pickID>smi:local/ddd53e57-35ff-4d90-bf42-27b1575baec4</pickID>
          <phase>S</phase>
          <azimuth>359.0</azimuth>
          <distance>0.003983994714219976</distance>
          <takeoffAngle>
            <value>-1.0</value>
          </takeoffAngle>
          <timeResidual>0.2274</timeResidual>
          <timeWeight>1.0</timeWeight>
        </arrival>
        <arrival publicID="smi:local/684c0798-34f0-49d7-896d-675d9ccf4356">
          <pickID>smi:local/26ca5a66-c16f-493a-81e5-b6efb744cd39</pickID>
          <phase>S</phase>
          <azimuth>359.0</azimuth>
          <distance>0.003983994714219976</distance>
          <takeoffAngle>
            <value>-1.0</value>
          </takeoffAngle>
          <timeResidual>0.2366</timeResidual>
          <timeWeight>1.0</timeWeight>
        </arrival>
      </origin>
      <pick publicID="smi:local/9f6195ad-b8f9-4e4a-84bd-0a959624d8a2">
        <time>
          <value>2020-03-18T03:14:51.929200Z</value>
          <uncertainty>0.05</uncertainty>
        </time>
        <waveformID networkCode="XX" stationCode="G4" channelCode="DPN"></waveformID>
        <phaseHint>S</phaseHint>
      </pick>
      <pick publicID="smi:local/a7e5a6f4-bc7e-4621-b779-eabe32b4836c">
        <time>
          <value>2020-03-18T03:14:51.934700Z</value>
          <uncertainty>0.05</uncertainty>
        </time>
        <waveformID networkCode="XX" stationCode="G18" channelCode="DPZ"></waveformID>
        <phaseHint>P</phaseHint>
      </pick>
      <pick publicID="smi:local/c9a6a846-1124-4af8-b257-7f3becbb6900">
        <time>
          <value>2020-03-18T03:14:52.206000Z</value>
          <uncertainty>0.05</uncertainty>
        </time>
        <waveformID networkCode="XX" stationCode="G18" channelCode="DPZ"></waveformID>
        <phaseHint>S</phaseHint>
      </pick>
      <pick publicID="smi:local/ecab24ab-10a4-4e16-a945-30eec9cb4208">
        <time>
          <value>2020-03-18T03:14:51.943600Z</value>
          <uncertainty>0.05</uncertainty>
        </time>
        <waveformID networkCode="XX" stationCode="G11" channelCode="DPZ"></waveformID>
        <phaseHint>P</phaseHint>
      </pick>
      <pick publicID="smi:local/ddd53e57-35ff-4d90-bf42-27b1575baec4">
        <time>
          <value>2020-03-18T03:14:52.365500Z</value>
          <uncertainty>0.05</uncertainty>
        </time>
        <waveformID networkCode="XX" stationCode="G11" channelCode="DPZ"></waveformID>
        <phaseHint>S</phaseHint>
      </pick>
      <pick publicID="smi:local/48c4f3bb-2d42-4de3-b690-bb39ef0ecea5">
        <time>
          <value>2020-03-18T03:14:51.916900Z</value>
          <uncertainty>0.05</uncertainty>
        </time>
        <waveformID networkCode="XX" stationCode="G15" channelCode="DPZ"></waveformID>
        <phaseHint>S</phaseHint>
      </pick>
      <pick publicID="smi:local/77effb28-e2f7-4ae5-a96f-61a54abdf375">
        <time>
          <value>2020-03-18T03:14:51.943100Z</value>
          <uncertainty>0.05</uncertainty>
        </time>
        <waveformID networkCode="XX" stationCode="G12" channelCode="DPZ"></waveformID>
        <phaseHint>P</phaseHint>
      </pick>
      <pick publicID="smi:local/c085aaf4-db22-47c9-a890-e4880c43b8e9">
        <time>
          <value>2020-03-18T03:14:52.357300Z</value>
          <uncertainty>0.05</uncertainty>
        </time>
        <waveformID networkCode="XX" stationCode="G12" channelCode="DPZ"></waveformID>
        <phaseHint>S</phaseHint>
      </pick>
      <pick publicID="smi:local/34f3c6f0-c4fe-4940-8a4d-0dd0b285a3d1">
        <time>
          <value>2020-03-18T03:14:51.918300Z</value>
          <uncertainty>0.05</uncertainty>
        </time>
        <waveformID networkCode="XX" stationCode="G13" channelCode="DPZ"></waveformID>
        <phaseHint>S</phaseHint>
      </pick>
      <pick publicID="smi:local/03d3ce4a-6f5e-450f-b504-e7744fd3395e">
        <time>
          <value>2020-03-18T03:14:51.954600Z</value>
          <uncertainty>0.05</uncertainty>
        </time>
        <waveformID networkCode="XX" stationCode="G2" channelCode="DPZ"></waveformID>
        <phaseHint>P</phaseHint>
      </pick>
      <pick publicID="smi:local/51f6dbab-94a6-45c0-9d6e-28d3f267a235">
        <time>
          <value>2020-03-18T03:14:52.319500Z</value>
          <uncertainty>0.05</uncertainty>
        </time>
        <waveformID networkCode="XX" stationCode="G2" channelCode="DPZ"></waveformID>
        <phaseHint>S</phaseHint>
      </pick>
      <pick publicID="smi:local/91c2eff8-61ef-47b3-a349-d084ce68a3d2">
        <time>
          <value>2020-03-18T03:14:51.928200Z</value>
          <uncertainty>0.05</uncertainty>
        </time>
        <waveformID networkCode="XX" stationCode="G5" channelCode="DPZ"></waveformID>
        <phaseHint>S</phaseHint>
      </pick>
      <pick publicID="smi:local/c99fdf27-c1a4-4bd0-9092-471b27ca61d1">
        <time>
          <value>2020-03-18T03:14:51.946900Z</value>
          <uncertainty>0.05</uncertainty>
        </time>
        <waveformID networkCode="XX" stationCode="G8" channelCode="DPZ"></waveformID>
        <phaseHint>P</phaseHint>
      </pick>
      <pick publicID="smi:local/05ca39c5-c53c-47b9-8850-6ec31c57c909">
        <time>
          <value>2020-03-18T03:14:52.329800Z</value>
          <uncertainty>0.05</uncertainty>
        </time>
        <waveformID networkCode="XX" stationCode="G8" channelCode="DPZ"></waveformID>
        <phaseHint>S</phaseHint>
      </pick>
      <pick publicID="smi:local/85e7e509-284d-469a-98ab-5d65ebaf4a39">
        <time>
          <value>2020-03-18T03:14:51.947900Z</value>
          <uncertainty>0.05</uncertainty>
        </time>
        <waveformID networkCode="XX" stationCode="G1" channelCode="DPZ"></waveformID>
        <phaseHint>P</phaseHint>
      </pick>
      <pick publicID="smi:local/4f3ada52-5f3f-4c4b-abb1-ea2a9b709f14">
        <time>
          <value>2020-03-18T03:14:52.312300Z</value>
          <uncertainty>0.05</uncertainty>
        </time>
        <waveformID networkCode="XX" stationCode="G1" channelCode="DPZ"></waveformID>
        <phaseHint>S</phaseHint>
      </pick>
      <pick publicID="smi:local/fada4fb1-8d9a-4f33-b718-004971601b73">
        <time>
          <value>2020-03-18T03:14:51.936200Z</value>
          <uncertainty>0.05</uncertainty>
        </time>
        <waveformID networkCode="XX" stationCode="G17" channelCode="DPZ"></waveformID>
        <phaseHint>P</phaseHint>
      </pick>
      <pick publicID="smi:local/26ca5a66-c16f-493a-81e5-b6efb744cd39">
        <time>
          <value>2020-03-18T03:14:52.382500Z</value>
          <uncertainty>0.05</uncertainty>
        </time>
        <waveformID networkCode="XX" stationCode="G17" channelCode="DPZ"></waveformID>
        <phaseHint>S</phaseHint>
      </pick>
      <pick publicID="smi:local/838c3dfe-cd6b-4f24-af79-08fef2c4cc8d">
        <time>
          <value>2020-03-18T03:14:51.927800Z</value>
          <uncertainty>0.05</uncertainty>
        </time>
        <waveformID networkCode="XX" stationCode="G6" channelCode="DPZ"></waveformID>
        <phaseHint>S</phaseHint>
      </pick>
      <pick publicID="smi:local/66c33ffa-1115-465a-9062-d655646e22fb">
        <time>
          <value>2020-03-18T03:14:51.908600Z</value>
          <uncertainty>0.05</uncertainty>
        </time>
        <waveformID networkCode="XX" stationCode="G14" channelCode="DPZ"></waveformID>
        <phaseHint>S</phaseHint>
      </pick>
    </event>
  </eventParameters>
</q:quakeml>
