<?xml version='1.0' encoding='utf-8'?>
<q:quakeml xmlns="http://quakeml.org/xmlns/bed/1.2" xmlns:q="http://quakeml.org/xmlns/quakeml/1.2">
  <eventParameters publicID="smi:local/da30c360-dede-4c19-bbab-89589f9c4723">
    <event publicID="smi:local/377295e9-d339-4fae-98e9-47f38953cef3">
      <preferredOriginID>smi:local/8713627e-282a-482f-ad8d-59c8b1914b03</preferredOriginID>
      <comment>
        <text>CaMI.FRS microseismicity</text>
      </comment>
      <comment id="smi:local/86540ed7-9fee-48f9-aebe-84b48f9bb7cd">
        <text>eqcorrscan_template_2020_04_03t10_27_20</text>
      </comment>
      <creationInfo>
        <author>Genevieve Savard   obs:./obs_picked5/merged.obs   NLLoc:v7.00.00(27Oct2017)</author>
        <creationTime>2020-09-18T19:58:05.000000Z</creationTime>
      </creationInfo>
      <origin publicID="smi:local/8713627e-282a-482f-ad8d-59c8b1914b03">
        <time>
          <value>2020-04-03T10:27:20.582800Z</value>
        </time>
        <latitude>
          <value>50.45023</value>
          <uncertainty>3.869246946137046e-05</uncertainty>
        </latitude>
        <longitude>
          <value>-112.121516</value>
          <uncertainty>4.603411117611514e-05</uncertainty>
        </longitude>
        <depth>
          <value>11.328</value>
          <uncertainty>5.069141939224034</uncertainty>
          <confidenceLevel>68.0</confidenceLevel>
        </depth>
        <depthType>from location</depthType>
        <quality>
          <associatedPhaseCount>45</associatedPhaseCount>
          <usedPhaseCount>45</usedPhaseCount>
          <associatedStationCount>-1</associatedStationCount>
          <usedStationCount>36</usedStationCount>
          <depthPhaseCount>-1</depthPhaseCount>
          <standardError>0.304265</standardError>
          <azimuthalGap>198.129</azimuthalGap>
          <secondaryAzimuthalGap>198.129</secondaryAzimuthalGap>
          <groundTruthLevel>-</groundTruthLevel>
          <minimumDistance>0.00025157442739649386</minimumDistance>
          <maximumDistance>0.006218089447643287</maximumDistance>
          <medianDistance>0.0004185658591131192</medianDistance>
        </quality>
        <comment>
          <text>Note: Depth/Latitude/Longitude errors are calculated from covariance matrix as 1D marginal (Lon/Lat errors as great circle degrees) while OriginUncertainty min/max horizontal errors are calculated from 2D error ellipsoid and are therefore seemingly higher compared to 1D errors. Error estimates can be reconstructed from the following original NonLinLoc error statistics line:
STATISTICS ExpectX -0.0600424 Y -0.0175678 Z 0.0106594  CovXX 2.62017e-05 XY 7.01372e-06 XZ -1.53745e-05 YY 1.85107e-05 YZ -9.83451e-06 ZZ 2.56962e-05 EllAz1  50.8324 Dip1  48.3862 Len1  0.00581854 Az2  325.067 Dip2  -3.75294 Len2  0.00712936 Len3  1.280076e-02</text>
        </comment>
        <creationInfo>
          <author>Genevieve Savard   obs:./obs_picked5/merged.obs   NLLoc:v7.00.00(27Oct2017)</author>
          <creationTime>2020-09-18T19:58:05.000000Z</creationTime>
        </creationInfo>
        <originUncertainty>
          <preferredDescription>uncertainty ellipse</preferredDescription>
          <minHorizontalUncertainty>5.74649</minHorizontalUncertainty>
          <maxHorizontalUncertainty>8.35562</maxHorizontalUncertainty>
          <azimuthMaxHorizontalUncertainty>59.3676</azimuthMaxHorizontalUncertainty>
          <confidenceLevel>68.0</confidenceLevel>
        </originUncertainty>
        <arrival publicID="smi:local/f004f862-c2fb-4c4e-bcfb-949c8b7cbc16">
          <pickID>smi:local/097c00bd-9fa0-4e72-bf86-8eb2451fe059</pickID>
          <phase>S</phase>
          <azimuth>359.0</azimuth>
          <distance>0.00025181004965724456</distance>
          <takeoffAngle>
            <value>-1.0</value>
          </takeoffAngle>
          <timeResidual>-0.251</timeResidual>
          <timeWeight>0.1886</timeWeight>
        </arrival>
        <arrival publicID="smi:local/f205dfb4-aab3-4394-beec-403f76bd7f3e">
          <pickID>smi:local/582c66fa-492f-4da5-bda6-b6cfb360b7e8</pickID>
          <phase>S</phase>
          <azimuth>359.0</azimuth>
          <distance>0.0004019967578456725</distance>
          <takeoffAngle>
            <value>-1.0</value>
          </takeoffAngle>
          <timeResidual>-0.1216</timeResidual>
          <timeWeight>2.1973</timeWeight>
        </arrival>
        <arrival publicID="smi:local/ca393f9b-37c0-402f-95b7-74cf28eb4c5a">
          <pickID>smi:local/16b567f4-e37e-47b3-8e15-ca27edfbcba6</pickID>
          <phase>P</phase>
          <azimuth>359.0</azimuth>
          <distance>0.0004181845467522097</distance>
          <takeoffAngle>
            <value>-1.0</value>
          </takeoffAngle>
          <timeResidual>-0.0967</timeResidual>
          <timeWeight>1.5231</timeWeight>
        </arrival>
        <arrival publicID="smi:local/ced5ca51-288c-4992-80b4-0fa98d5ab0f0">
          <pickID>smi:local/c5a80dbf-6e5c-4671-9c60-89f2be19e146</pickID>
          <phase>P</phase>
          <azimuth>359.0</azimuth>
          <distance>0.0004181845467522097</distance>
          <takeoffAngle>
            <value>-1.0</value>
          </takeoffAngle>
          <timeResidual>-0.0984</timeResidual>
          <timeWeight>0.1886</timeWeight>
        </arrival>
        <arrival publicID="smi:local/8cafe237-7f65-4203-8b5e-cd2c03eb596b">
          <pickID>smi:local/bad4003e-aada-428b-93ed-60639a091c52</pickID>
          <phase>P</phase>
          <azimuth>359.0</azimuth>
          <distance>0.0004181845467522097</distance>
          <takeoffAngle>
            <value>-1.0</value>
          </takeoffAngle>
          <timeResidual>-0.1001</timeResidual>
          <timeWeight>0.1886</timeWeight>
        </arrival>
        <arrival publicID="smi:local/065913b5-c67d-4667-bb50-d3071ab95eab">
          <pickID>smi:local/347e8be7-a3b2-4163-a824-6fd0e09b68fc</pickID>
          <phase>P</phase>
          <azimuth>359.0</azimuth>
          <distance>0.0004181845467522097</distance>
          <takeoffAngle>
            <value>-1.0</value>
          </takeoffAngle>
          <timeResidual>-0.0999</timeResidual>
          <timeWeight>0.1886</timeWeight>
        </arrival>
        <arrival publicID="smi:local/912dcb03-d8c7-44e0-9fe4-3c3a7fca2c65">
          <pickID>smi:local/a8f4e7ec-40ba-407a-8a82-19ff81e869aa</pickID>
          <phase>P</phase>
          <azimuth>359.0</azimuth>
          <distance>0.0004181845467522097</distance>
          <takeoffAngle>
            <value>-1.0</value>
          </takeoffAngle>
          <timeResidual>-0.0993</timeResidual>
          <timeWeight>0.1886</timeWeight>
        </arrival>
        <arrival publicID="smi:local/48851f36-3f49-4a41-8350-aa9da775aacc">
          <pickID>smi:local/4f757726-fdd7-4498-811d-bc46b7a65203</pickID>
          <phase>P</phase>
          <azimuth>359.0</azimuth>
          <distance>0.0004181845467522097</distance>
          <takeoffAngle>
            <value>-1.0</value>
          </takeoffAngle>
          <timeResidual>-0.0986</timeResidual>
          <timeWeight>0.1886</timeWeight>
        </arrival>
        <arrival publicID="smi:local/48ad1443-2026-41d7-9cc3-c33ec2c61195">
          <pickID>smi:local/2c383e9e-b415-46b2-932d-b6dc7fb7e1f8</pickID>
          <phase>P</phase>
          <azimuth>359.0</azimuth>
          <distance>0.0004181845467522097</distance>
          <takeoffAngle>
            <value>-1.0</value>
          </takeoffAngle>
          <timeResidual>-0.0982</timeResidual>
          <timeWeight>0.1886</timeWeight>
        </arrival>
        <arrival publicID="smi:local/f2b8d746-214f-4a16-8d6d-eefa6627e7bd">
          <pickID>smi:local/41979ebd-e86c-41ac-ade6-07b2c1bb271b</pickID>
          <phase>P</phase>
          <azimuth>359.0</azimuth>
          <distance>0.0004181845467522097</distance>
          <takeoffAngle>
            <value>-1.0</value>
          </takeoffAngle>
          <timeResidual>-0.0984</timeResidual>
          <timeWeight>0.1886</timeWeight>
        </arrival>
        <arrival publicID="smi:local/f1e0349d-73f8-46a4-9181-bd3b453ead63">
          <pickID>smi:local/c9efc3d1-b62d-4e7e-9f8e-d219e8ee074a</pickID>
          <phase>P</phase>
          <azimuth>359.0</azimuth>
          <distance>0.0004181845467522097</distance>
          <takeoffAngle>
            <value>-1.0</value>
          </takeoffAngle>
          <timeResidual>-0.0979</timeResidual>
          <timeWeight>0.1886</timeWeight>
        </arrival>
        <arrival publicID="smi:local/a65b2fc7-325f-4b42-b696-1321e0731c1d">
          <pickID>smi:local/66589558-8a36-43fc-b44a-29cd7d8d13e6</pickID>
          <phase>P</phase>
          <azimuth>359.0</azimuth>
          <distance>0.0004181845467522097</distance>
          <takeoffAngle>
            <value>-1.0</value>
          </takeoffAngle>
          <timeResidual>-0.0984</timeResidual>
          <timeWeight>0.1886</timeWeight>
        </arrival>
        <arrival publicID="smi:local/90d3af30-74b2-4fbb-9276-05b66b4ef951">
          <pickID>smi:local/b343f07c-3e33-4bb6-aec0-ddb1ebd484ad</pickID>
          <phase>P</phase>
          <azimuth>359.0</azimuth>
          <distance>0.0004181845467522097</distance>
          <takeoffAngle>
            <value>-1.0</value>
          </takeoffAngle>
          <timeResidual>-0.0999</timeResidual>
          <timeWeight>0.1886</timeWeight>
        </arrival>
        <arrival publicID="smi:local/c40cad65-93f5-403c-b574-2986c1c4248a">
          <pickID>smi:local/501b052e-387e-4efd-b8a7-6578672284b3</pickID>
          <phase>P</phase>
          <azimuth>359.0</azimuth>
          <distance>0.0004181845467522097</distance>
          <takeoffAngle>
            <value>-1.0</value>
          </takeoffAngle>
          <timeResidual>-0.1002</timeResidual>
          <timeWeight>0.1886</timeWeight>
        </arrival>
        <arrival publicID="smi:local/c0e53e0e-23a1-42a0-9536-721972665cc8">
          <pickID>smi:local/0b736d44-8ce2-4f42-9de1-cfc898431203</pickID>
          <phase>S</phase>
          <azimuth>359.0</azimuth>
          <distance>0.0004181845467522097</distance>
          <takeoffAngle>
            <value>-1.0</value>
          </takeoffAngle>
          <timeResidual>-0.0475</timeResidual>
          <timeWeight>2.9154</timeWeight>
        </arrival>
        <arrival publicID="smi:local/668b3973-bba1-4ee7-87dc-7a88e3dcf300">
          <pickID>smi:local/ad5ad457-04f8-47fa-aa79-1cb7d6be256d</pickID>
          <phase>S</phase>
          <azimuth>359.0</azimuth>
          <distance>0.0004181845467522097</distance>
          <takeoffAngle>
            <value>-1.0</value>
          </takeoffAngle>
          <timeResidual>-0.0438</timeResidual>
          <timeWeight>2.9011</timeWeight>
        </arrival>
        <arrival publicID="smi:local/af59d348-fdd3-4d82-9783-f48272a435d2">
          <pickID>smi:local/06a122e5-3006-4530-8699-0e1272c23c0e</pickID>
          <phase>S</phase>
          <azimuth>359.0</azimuth>
          <distance>0.0004181845467522097</distance>
          <takeoffAngle>
            <value>-1.0</value>
          </takeoffAngle>
          <timeResidual>-0.0573</timeResidual>
          <timeWeight>4.181</timeWeight>
        </arrival>
        <arrival publicID="smi:local/a44881d7-2367-496c-ad07-dfd4c188105e">
          <pickID>smi:local/9690b07e-4b9c-4d17-9153-ccdf41a3c8e9</pickID>
          <phase>S</phase>
          <azimuth>359.0</azimuth>
          <distance>0.0004181845467522097</distance>
          <takeoffAngle>
            <value>-1.0</value>
          </takeoffAngle>
          <timeResidual>-0.0355</timeResidual>
          <timeWeight>0.1886</timeWeight>
        </arrival>
        <arrival publicID="smi:local/12b0915a-7195-4acd-b4a0-0065242f7b4d">
          <pickID>smi:local/539a605f-bc95-46dc-8515-107e76deafe7</pickID>
          <phase>S</phase>
          <azimuth>359.0</azimuth>
          <distance>0.0004181845467522097</distance>
          <takeoffAngle>
            <value>-1.0</value>
          </takeoffAngle>
          <timeResidual>-0.0357</timeResidual>
          <timeWeight>0.1886</timeWeight>
        </arrival>
        <arrival publicID="smi:local/dcfeb565-44ce-4fd1-976c-21c7f9e47d1f">
          <pickID>smi:local/d1a62ce7-17a1-4b19-9f2d-42ae28f989b4</pickID>
          <phase>S</phase>
          <azimuth>359.0</azimuth>
          <distance>0.0004181845467522097</distance>
          <takeoffAngle>
            <value>-1.0</value>
          </takeoffAngle>
          <timeResidual>-0.0485</timeResidual>
          <timeWeight>2.9011</timeWeight>
        </arrival>
        <arrival publicID="smi:local/13c6c799-e332-4746-8a81-f8c63c1cfa00">
          <pickID>smi:local/04b062cd-45c3-4d0c-baed-e43589a0fcff</pickID>
          <phase>S</phase>
          <azimuth>359.0</azimuth>
          <distance>0.0004181845467522097</distance>
          <takeoffAngle>
            <value>-1.0</value>
          </takeoffAngle>
          <timeResidual>-0.0475</timeResidual>
          <timeWeight>1.7713</timeWeight>
        </arrival>
        <arrival publicID="smi:local/9cc279d9-e8d8-4dd0-bb3c-5cdac3dab50e">
          <pickID>smi:local/cb8e9137-79fc-4569-8501-a0db045b62a9</pickID>
          <phase>S</phase>
          <azimuth>359.0</azimuth>
          <distance>0.0004181845467522097</distance>
          <takeoffAngle>
            <value>-1.0</value>
          </takeoffAngle>
          <timeResidual>-0.0294</timeResidual>
          <timeWeight>0.1886</timeWeight>
        </arrival>
        <arrival publicID="smi:local/4d0eca64-451c-406d-ad0f-25e653956616">
          <pickID>smi:local/70193e3e-eccb-4b0c-90a4-831f63bad661</pickID>
          <phase>S</phase>
          <azimuth>359.0</azimuth>
          <distance>0.0004181845467522097</distance>
          <takeoffAngle>
            <value>-1.0</value>
          </takeoffAngle>
          <timeResidual>-0.03</timeResidual>
          <timeWeight>0.1886</timeWeight>
        </arrival>
        <arrival publicID="smi:local/ac158269-a440-43c3-99ef-051bf24c590a">
          <pickID>smi:local/641569bb-a554-40fb-9c7f-556c3e20cb80</pickID>
          <phase>S</phase>
          <azimuth>359.0</azimuth>
          <distance>0.0004181845467522097</distance>
          <takeoffAngle>
            <value>-1.0</value>
          </takeoffAngle>
          <timeResidual>-0.0287</timeResidual>
          <timeWeight>0.1886</timeWeight>
        </arrival>
        <arrival publicID="smi:local/e2445710-1518-4aa5-bd5b-9d22f88212a4">
          <pickID>smi:local/fc70ea82-dc4a-4aec-9848-4f97e114e6f8</pickID>
          <phase>S</phase>
          <azimuth>359.0</azimuth>
          <distance>0.0004181845467522097</distance>
          <takeoffAngle>
            <value>-1.0</value>
          </takeoffAngle>
          <timeResidual>-0.0269</timeResidual>
          <timeWeight>0.1886</timeWeight>
        </arrival>
        <arrival publicID="smi:local/3e4c7533-893d-4e8f-a648-1e955afb438c">
          <pickID>smi:local/57d59a33-baa6-4825-8468-9287d1e9f0f8</pickID>
          <phase>S</phase>
          <azimuth>359.0</azimuth>
          <distance>0.0004181845467522097</distance>
          <takeoffAngle>
            <value>-1.0</value>
          </takeoffAngle>
          <timeResidual>-0.0275</timeResidual>
          <timeWeight>0.1886</timeWeight>
        </arrival>
        <arrival publicID="smi:local/4c81cd0e-0c6e-4a99-9377-c59bd390da0c">
          <pickID>smi:local/f7fc065a-0c85-48e0-8d21-b1e0190c3754</pickID>
          <phase>P</phase>
          <azimuth>359.0</azimuth>
          <distance>0.0005135126369795951</distance>
          <takeoffAngle>
            <value>-1.0</value>
          </takeoffAngle>
          <timeResidual>-0.178</timeResidual>
          <timeWeight>2.6247</timeWeight>
        </arrival>
        <arrival publicID="smi:local/6d3d5802-b907-4ac4-9fb1-cc37656e5566">
          <pickID>smi:local/f120771e-5cdc-4a1e-9232-2926830b7ae1</pickID>
          <phase>S</phase>
          <azimuth>359.0</azimuth>
          <distance>0.0005135126369795951</distance>
          <takeoffAngle>
            <value>-1.0</value>
          </takeoffAngle>
          <timeResidual>-0.0765</timeResidual>
          <timeWeight>1.6413</timeWeight>
        </arrival>
        <arrival publicID="smi:local/783f8f16-99c0-41e4-888d-a226799d1429">
          <pickID>smi:local/aa42cf5e-7ea6-471a-ae95-a55c9ccea8a7</pickID>
          <phase>P</phase>
          <azimuth>359.0</azimuth>
          <distance>0.0005494855012163444</distance>
          <takeoffAngle>
            <value>-1.0</value>
          </takeoffAngle>
          <timeResidual>-0.1755</timeResidual>
          <timeWeight>3.2885</timeWeight>
        </arrival>
        <arrival publicID="smi:local/4f2439f9-31b1-4176-b4e9-bce2bf1f7239">
          <pickID>smi:local/36bfa5be-ae60-47d1-b4f6-a65796a53fe3</pickID>
          <phase>S</phase>
          <azimuth>359.0</azimuth>
          <distance>0.0005494855012163444</distance>
          <takeoffAngle>
            <value>-1.0</value>
          </takeoffAngle>
          <timeResidual>-0.0788</timeResidual>
          <timeWeight>0.5548</timeWeight>
        </arrival>
        <arrival publicID="smi:local/94bedfda-23e3-4942-9c72-4ca58eb7de17">
          <pickID>smi:local/8936396e-556b-4184-910f-3d6cab703432</pickID>
          <phase>P</phase>
          <azimuth>359.0</azimuth>
          <distance>0.0017338920562113124</distance>
          <takeoffAngle>
            <value>-1.0</value>
          </takeoffAngle>
          <timeResidual>-0.2227</timeResidual>
          <timeWeight>2.2414</timeWeight>
        </arrival>
        <arrival publicID="smi:local/19631cf6-0f50-4498-b03b-bc50086faec1">
          <pickID>smi:local/a1ccc262-d79c-48ca-86c7-1befa1a36396</pickID>
          <phase>S</phase>
          <azimuth>359.0</azimuth>
          <distance>0.0017338920562113124</distance>
          <takeoffAngle>
            <value>-1.0</value>
          </takeoffAngle>
          <timeResidual>-0.0964</timeResidual>
          <timeWeight>0.1886</timeWeight>
        </arrival>
        <arrival publicID="smi:local/c11f10bc-5a5f-4045-9de1-0d6c8a23c7f5">
          <pickID>smi:local/1a128031-9920-42c7-a4cc-84104c12b025</pickID>
          <phase>P</phase>
          <azimuth>359.0</azimuth>
          <distance>0.002206035899318646</distance>
          <takeoffAngle>
            <value>-1.0</value>
          </takeoffAngle>
          <timeResidual>-0.2595</timeResidual>
          <timeWeight>0.1886</timeWeight>
        </arrival>
        <arrival publicID="smi:local/b2caadd3-db65-4c7f-896b-bb39ed41560e">
          <pickID>smi:local/47a3c0bb-c982-4489-86a4-113cb8ae681c</pickID>
          <phase>S</phase>
          <azimuth>359.0</azimuth>
          <distance>0.002206035899318646</distance>
          <takeoffAngle>
            <value>-1.0</value>
          </takeoffAngle>
          <timeResidual>-0.2793</timeResidual>
          <timeWeight>0.1886</timeWeight>
        </arrival>
        <arrival publicID="smi:local/564d0d64-76cb-4430-894a-999ba329288a">
          <pickID>smi:local/bca3efa8-f788-462b-9b23-b8ba5f92809e</pickID>
          <phase>P</phase>
          <azimuth>359.0</azimuth>
          <distance>0.0024191751199213853</distance>
          <takeoffAngle>
            <value>-1.0</value>
          </takeoffAngle>
          <timeResidual>-0.2173</timeResidual>
          <timeWeight>1.6107</timeWeight>
        </arrival>
        <arrival publicID="smi:local/a654da0d-3663-4a8b-89b6-b7153c50a08c">
          <pickID>smi:local/3cf5c7a3-16a1-4c9f-aff7-2884566d7708</pickID>
          <phase>S</phase>
          <azimuth>359.0</azimuth>
          <distance>0.0024191751199213853</distance>
          <takeoffAngle>
            <value>-1.0</value>
          </takeoffAngle>
          <timeResidual>-0.2087</timeResidual>
          <timeWeight>0.1886</timeWeight>
        </arrival>
        <arrival publicID="smi:local/9c032496-2768-4b52-92f2-39f10dbafe16">
