<?xml version='1.0' encoding='utf-8'?>
<q:quakeml xmlns="http://quakeml.org/xmlns/bed/1.2" xmlns:q="http://quakeml.org/xmlns/quakeml/1.2">
  <eventParameters publicID="smi:local/50b85376-8d4c-44c3-98b5-026ef81d1272">
    <event publicID="smi:local/00c0b81d-b142-43a4-843b-b31bfd99c3b2">
      <preferredOriginID>smi:local/60c485c4-d65e-4f35-a765-56d8ebdc5be7</preferredOriginID>
      <comment>
        <text>CaMI.FRS microseismicity</text>
      </comment>
      <comment id="smi:local/e1b121ef-6f94-4898-9d5f-1a139f2103e5">
        <text>eqcorrscan_template_2020_03_18t02_41_38</text>
      </comment>
      <creationInfo>
        <author>Genevieve Savard   obs:./obs_picked5/merged.obs   NLLoc:v7.00.00(27Oct2017)</author>
        <creationTime>2020-09-18T19:57:10.000000Z</creationTime>
      </creationInfo>
      <origin publicID="smi:local/60c485c4-d65e-4f35-a765-56d8ebdc5be7">
        <time>
          <value>2020-03-18T02:41:37.810227Z</value>
        </time>
        <latitude>
          <value>50.44466</value>
          <uncertainty>0.004108925522500756</uncertainty>
        </latitude>
        <longitude>
          <value>-112.119118</value>
          <uncertainty>0.004139830455568565</uncertainty>
        </longitude>
        <depth>
          <value>287.5</value>
          <uncertainty>263.53348933294984</uncertainty>
          <confidenceLevel>68.0</confidenceLevel>
        </depth>
        <depthType>from location</depthType>
        <quality>
          <associatedPhaseCount>13</associatedPhaseCount>
          <usedPhaseCount>13</usedPhaseCount>
          <associatedStationCount>-1</associatedStationCount>
          <usedStationCount>13</usedStationCount>
          <depthPhaseCount>-1</depthPhaseCount>
          <standardError>0.00316935</standardError>
          <azimuthalGap>360.0</azimuthalGap>
          <secondaryAzimuthalGap>360.0</secondaryAzimuthalGap>
          <groundTruthLevel>-</groundTruthLevel>
          <minimumDistance>0.005755190630644797</minimumDistance>
          <maximumDistance>0.005755190630644797</maximumDistance>
          <medianDistance>0.005755190630644797</medianDistance>
        </quality>
        <comment>
          <text>Note: Depth/Latitude/Longitude errors are calculated from covariance matrix as 1D marginal (Lon/Lat errors as great circle degrees) while OriginUncertainty min/max horizontal errors are calculated from 2D error ellipsoid and are therefore seemingly higher compared to 1D errors. Error estimates can be reconstructed from the following original NonLinLoc error statistics line:
STATISTICS ExpectX -0.0110647 Y -0.0097019 Z 0.45257  CovXX 0.211902 XY -0.00263585 XZ 0.00201787 YY 0.20875 YZ -0.000577102 ZZ 0.0694499 EllAz1  105.378 Dip1  -89.1628 Len1  0.495025 Az2  209.494 Dip2  -0.204201 Len2  0.855345 Len3  8.679820e-01</text>
        </comment>
        <creationInfo>
          <author>Genevieve Savard   obs:./obs_picked5/merged.obs   NLLoc:v7.00.00(27Oct2017)</author>
          <creationTime>2020-09-18T19:57:10.000000Z</creationTime>
        </creationInfo>
        <originUncertainty>
          <preferredDescription>uncertainty ellipse</preferredDescription>
          <minHorizontalUncertainty>690.4240000000001</minHorizontalUncertainty>
          <maxHorizontalUncertainty>700.5799999999999</maxHorizontalUncertainty>
          <azimuthMaxHorizontalUncertainty>119.562</azimuthMaxHorizontalUncertainty>
          <confidenceLevel>68.0</confidenceLevel>
        </originUncertainty>
        <arrival publicID="smi:local/64995300-10aa-4260-ac23-015254019f60">
          <pickID>smi:local/c02d36cc-f219-442c-8c34-06438545ab0c</pickID>
          <phase>P</phase>
          <azimuth>359.0</azimuth>
          <distance>0.005754758956273957</distance>
          <takeoffAngle>
            <value>-1.0</value>
          </takeoffAngle>
          <timeResidual>-0.0015</timeResidual>
          <timeWeight>1.0</timeWeight>
        </arrival>
        <arrival publicID="smi:local/cf92d6ed-cf74-4c9f-998b-3f420e09e8a3">
          <pickID>smi:local/b3141b46-90df-4a64-8003-f1e0709abae5</pickID>
          <phase>S</phase>
          <azimuth>359.0</azimuth>
          <distance>0.005754758956273957</distance>
          <takeoffAngle>
            <value>-1.0</value>
          </takeoffAngle>
          <timeResidual>-0.0063</timeResidual>
          <timeWeight>1.0</timeWeight>
        </arrival>
        <arrival publicID="smi:local/ce82de8c-0236-47f2-a6e0-3c36d5256346">
          <pickID>smi:local/40f0fbb7-8fc2-49f1-aae7-658da67a4b49</pickID>
          <phase>S</phase>
          <azimuth>359.0</azimuth>
          <distance>0.005754758956273957</distance>
          <takeoffAngle>
            <value>-1.0</value>
          </takeoffAngle>
          <timeResidual>0.005</timeResidual>
          <timeWeight>1.0</timeWeight>
        </arrival>
        <arrival publicID="smi:local/308ff799-88d3-428a-b821-77a4fa9e2032">
          <pickID>smi:local/995129fc-b7a7-4fa7-8bd1-08af75a5b920</pickID>
          <phase>S</phase>
          <azimuth>359.0</azimuth>
          <distance>0.005754758956273957</distance>
          <takeoffAngle>
            <value>-1.0</value>
          </takeoffAngle>
          <timeResidual>0.0039</timeResidual>
          <timeWeight>1.0</timeWeight>
        </arrival>
        <arrival publicID="smi:local/b0cb73e1-b1d9-4281-aedc-8db786e2378d">
          <pickID>smi:local/4c99d0cd-1068-49e4-8986-dbadd063ebbd</pickID>
          <phase>S</phase>
          <azimuth>359.0</azimuth>
          <distance>0.005754758956273957</distance>
          <takeoffAngle>
            <value>-1.0</value>
          </takeoffAngle>
          <timeResidual>0.0028</timeResidual>
          <timeWeight>1.0</timeWeight>
        </arrival>
        <arrival publicID="smi:local/8ff94b11-4b85-419d-bfaa-7730fd9ae900">
          <pickID>smi:local/feddf1f7-dada-42ef-a882-f1c5fdac9b46</pickID>
          <phase>S</phase>
          <azimuth>359.0</azimuth>
          <distance>0.005754758956273957</distance>
          <takeoffAngle>
            <value>-1.0</value>
          </takeoffAngle>
          <timeResidual>-0.0007</timeResidual>
          <timeWeight>1.0</timeWeight>
        </arrival>
        <arrival publicID="smi:local/7cbd0fc5-4230-456d-b4af-a58dbb8ed0e2">
          <pickID>smi:local/dffcf8a1-c96f-464f-a5d3-70b6c2a6b6cf</pickID>
          <phase>S</phase>
          <azimuth>359.0</azimuth>
          <distance>0.005754758956273957</distance>
          <takeoffAngle>
            <value>-1.0</value>
          </takeoffAngle>
          <timeResidual>-0.0012</timeResidual>
          <timeWeight>1.0</timeWeight>
        </arrival>
        <arrival publicID="smi:local/06ce5331-9f56-46c1-a5f0-8fe5cefb39fe">
          <pickID>smi:local/219dae6b-6f7f-4e1d-9e7f-4ab8c331e33b</pickID>
          <phase>S</phase>
          <azimuth>359.0</azimuth>
          <distance>0.005754758956273957</distance>
          <takeoffAngle>
            <value>-1.0</value>
          </takeoffAngle>
          <timeResidual>-0.0027</timeResidual>
          <timeWeight>1.0</timeWeight>
        </arrival>
        <arrival publicID="smi:local/cd3de4fc-4fc5-4516-9787-a5be72d5ac9a">
          <pickID>smi:local/c8487914-8fd0-4f92-b2c6-8f0e76287913</pickID>
          <phase>S</phase>
          <azimuth>359.0</azimuth>
          <distance>0.005754758956273957</distance>
          <takeoffAngle>
            <value>-1.0</value>
          </takeoffAngle>
          <timeResidual>-0.0014</timeResidual>
          <timeWeight>1.0</timeWeight>
        </arrival>
        <arrival publicID="smi:local/ed3f2c1f-dce2-4615-9f22-642dcd859959">
          <pickID>smi:local/ae1afc1c-b816-4673-9377-2a2266c5200f</pickID>
          <phase>S</phase>
          <azimuth>359.0</azimuth>
          <distance>0.005754758956273957</distance>
          <takeoffAngle>
            <value>-1.0</value>
          </takeoffAngle>
          <timeResidual>-0.0012</timeResidual>
          <timeWeight>1.0</timeWeight>
        </arrival>
        <arrival publicID="smi:local/f30397ce-930f-40a3-87d1-23bac2d0069f">
          <pickID>smi:local/cfe0d45b-91dd-48dd-af72-56aae2fff156</pickID>
          <phase>S</phase>
          <azimuth>359.0</azimuth>
          <distance>0.005754758956273957</distance>
          <takeoffAngle>
            <value>-1.0</value>
          </takeoffAngle>
          <timeResidual>-0.0013</timeResidual>
          <timeWeight>1.0</timeWeight>
        </arrival>
        <arrival publicID="smi:local/651d31ed-5ba7-4e52-9313-59740698ffa4">
          <pickID>smi:local/29231855-9e47-4e6e-81a2-68bab9cec6d3</pickID>
          <phase>S</phase>
          <azimuth>359.0</azimuth>
          <distance>0.005754758956273957</distance>
          <takeoffAngle>
            <value>-1.0</value>
          </takeoffAngle>
          <timeResidual>-0.0006</timeResidual>
          <timeWeight>1.0</timeWeight>
        </arrival>
        <arrival publicID="smi:local/5cfc657d-4b6c-4d3b-aa94-a0152259a09f">
          <pickID>smi:local/86c25371-2dfa-49d5-b43c-514c2487f5e5</pickID>
          <phase>S</phase>
          <azimuth>359.0</azimuth>
          <distance>0.005754758956273957</distance>
          <takeoffAngle>
            <value>-1.0</value>
          </takeoffAngle>
          <timeResidual>0.0051</timeResidual>
          <timeWeight>1.0</timeWeight>
        </arrival>
      </origin>
      <pick publicID="smi:local/219dae6b-6f7f-4e1d-9e7f-4ab8c331e33b">
        <time>
          <value>2020-03-18T02:41:38.334800Z</value>
          <uncertainty>0.05</uncertainty>
        </time>
        <waveformID networkCode="XX" stationCode="G11" channelCode="DPZ"></waveformID>
        <phaseHint>S</phaseHint>
      </pick>
      <pick publicID="smi:local/29231855-9e47-4e6e-81a2-68bab9cec6d3">
        <time>
          <value>2020-03-18T02:41:38.344100Z</value>
          <uncertainty>0.05</uncertainty>
        </time>
        <waveformID networkCode="XX" stationCode="G4" channelCode="DPN"></waveformID>
        <phaseHint>S</phaseHint>
      </pick>
      <pick publicID="smi:local/c02d36cc-f219-442c-8c34-06438545ab0c">
        <time>
          <value>2020-03-18T02:41:38.047700Z</value>
          <uncertainty>0.05</uncertainty>
        </time>
        <waveformID networkCode="XX" stationCode="G12" channelCode="DPE"></waveformID>
        <phaseHint>P</phaseHint>
      </pick>
      <pick publicID="smi:local/dffcf8a1-c96f-464f-a5d3-70b6c2a6b6cf">
        <time>
          <value>2020-03-18T02:41:38.333900Z</value>
          <uncertainty>0.05</uncertainty>
        </time>
        <waveformID networkCode="XX" stationCode="G12" channelCode="DPZ"></waveformID>
        <phaseHint>S</phaseHint>
      </pick>
      <pick publicID="smi:local/40f0fbb7-8fc2-49f1-aae7-658da67a4b49">
        <time>
          <value>2020-03-18T02:41:38.325700Z</value>
          <uncertainty>0.05</uncertainty>
        </time>
        <waveformID networkCode="XX" stationCode="G18" channelCode="DPZ"></waveformID>
        <phaseHint>S</phaseHint>
      </pick>
      <pick publicID="smi:local/c8487914-8fd0-4f92-b2c6-8f0e76287913">
        <time>
          <value>2020-03-18T02:41:38.337800Z</value>
          <uncertainty>0.05</uncertainty>
        </time>
        <waveformID networkCode="XX" stationCode="G8" channelCode="DPZ"></waveformID>
        <phaseHint>S</phaseHint>
      </pick>
      <pick publicID="smi:local/86c25371-2dfa-49d5-b43c-514c2487f5e5">
        <time>
          <value>2020-03-18T02:41:38.346100Z</value>
          <uncertainty>0.05</uncertainty>
        </time>
        <waveformID networkCode="XX" stationCode="G2" channelCode="DPZ"></waveformID>
        <phaseHint>S</phaseHint>
      </pick>
      <pick publicID="smi:local/ae1afc1c-b816-4673-9377-2a2266c5200f">
        <time>
          <value>2020-03-18T02:41:38.339500Z</value>
          <uncertainty>0.05</uncertainty>
        </time>
        <waveformID networkCode="XX" stationCode="G1" channelCode="DPZ"></waveformID>
        <phaseHint>S</phaseHint>
      </pick>
      <pick publicID="smi:local/995129fc-b7a7-4fa7-8bd1-08af75a5b920">
        <time>
          <value>2020-03-18T02:41:38.326600Z</value>
          <uncertainty>0.05</uncertainty>
        </time>
        <waveformID networkCode="XX" stationCode="G17" channelCode="DPZ"></waveformID>
        <phaseHint>S</phaseHint>
      </pick>
      <pick publicID="smi:local/4c99d0cd-1068-49e4-8986-dbadd063ebbd">
        <time>
          <value>2020-03-18T02:41:38.330400Z</value>
          <uncertainty>0.05</uncertainty>
        </time>
        <waveformID networkCode="XX" stationCode="G15" channelCode="DPZ"></waveformID>
        <phaseHint>S</phaseHint>
      </pick>
      <pick publicID="smi:local/b3141b46-90df-4a64-8003-f1e0709abae5">
        <time>
          <value>2020-03-18T02:41:38.323800Z</value>
          <uncertainty>0.05</uncertainty>
        </time>
        <waveformID networkCode="XX" stationCode="G14" channelCode="DPZ"></waveformID>
        <phaseHint>S</phaseHint>
      </pick>
      <pick publicID="smi:local/cfe0d45b-91dd-48dd-af72-56aae2fff156">
        <time>
          <value>2020-03-18T02:41:38.342400Z</value>
          <uncertainty>0.05</uncertainty>
        </time>
        <waveformID networkCode="XX" stationCode="G6" channelCode="DPZ"></waveformID>
        <phaseHint>S</phaseHint>
      </pick>
      <pick publicID="smi:local/feddf1f7-dada-42ef-a882-f1c5fdac9b46">
        <time>
          <value>2020-03-18T02:41:38.331900Z</value>
          <uncertainty>0.05</uncertainty>
        </time>
        <waveformID networkCode="XX" stationCode="G13" channelCode="DPZ"></waveformID>
        <phaseHint>S</phaseHint>
      </pick>
    </event>
  </eventParameters>
</q:quakeml>
