<?xml version='1.0' encoding='utf-8'?>
<q:quakeml xmlns="http://quakeml.org/xmlns/bed/1.2" xmlns:q="http://quakeml.org/xmlns/quakeml/1.2">
  <eventParameters publicID="smi:local/ca43fee7-4028-4546-b19e-45ba8df6be95">
    <event publicID="smi:local/066a4414-468f-40ae-ad36-629d3f55129f">
      <preferredOriginID>smi:local/a71de755-6997-422b-9dea-54721f21283d</preferredOriginID>
      <comment>
        <text>CaMI.FRS microseismicity</text>
      </comment>
      <comment id="smi:local/458bc118-afab-44de-a499-016eab218246">
        <text>eqcorrscan_template_2020_03_10t06_51_20</text>
      </comment>
      <creationInfo>
        <author>Genevieve Savard   obs:./obs_picked1/merged.obs   NLLoc:v7.00.00(27Oct2017)</author>
        <creationTime>2020-08-21T16:08:38.000000Z</creationTime>
      </creationInfo>
      <origin publicID="smi:local/a71de755-6997-422b-9dea-54721f21283d">
        <time>
          <value>2020-03-10T06:51:20.160006Z</value>
        </time>
        <latitude>
          <value>50.448977</value>
          <uncertainty>0.00017285864307048636</uncertainty>
        </latitude>
        <longitude>
          <value>-112.120738</value>
          <uncertainty>0.00019187696146957245</uncertainty>
        </longitude>
        <depth>
          <value>80.469</value>
          <uncertainty>11.511255361601531</uncertainty>
          <confidenceLevel>68.0</confidenceLevel>
        </depth>
        <depthType>from location</depthType>
        <quality>
          <associatedPhaseCount>14</associatedPhaseCount>
          <usedPhaseCount>14</usedPhaseCount>
          <associatedStationCount>-1</associatedStationCount>
          <usedStationCount>14</usedStationCount>
          <depthPhaseCount>-1</depthPhaseCount>
          <standardError>0.203204</standardError>
          <azimuthalGap>163.674</azimuthalGap>
          <secondaryAzimuthalGap>217.937</secondaryAzimuthalGap>
          <groundTruthLevel>-</groundTruthLevel>
          <minimumDistance>0.0011608353357038382</minimumDistance>
          <maximumDistance>0.004343507519402048</maximumDistance>
          <medianDistance>0.0016789794789539149</medianDistance>
        </quality>
        <comment>
          <text>Note: Depth/Latitude/Longitude errors are calculated from covariance matrix as 1D marginal (Lon/Lat errors as great circle degrees) while OriginUncertainty min/max horizontal errors are calculated from 2D error ellipsoid and are therefore seemingly higher compared to 1D errors. Error estimates can be reconstructed from the following original NonLinLoc error statistics line:
STATISTICS ExpectX -0.00526427 Y -0.157367 Z 0.0785687  CovXX 0.000455214 XY -0.000144328 XZ -5.02054e-05 YY 0.000369447 YZ 9.6319e-05 ZZ 0.000132509 EllAz1  0.608185 Dip1  -70.3405 Len1  0.018627 Az2  221.947 Dip2  -15.0152 Len2  0.031127 Len3  4.541973e-02</text>
        </comment>
        <creationInfo>
          <author>Genevieve Savard   obs:./obs_picked1/merged.obs   NLLoc:v7.00.00(27Oct2017)</author>
          <creationTime>2020-08-21T16:08:38.000000Z</creationTime>
        </creationInfo>
        <originUncertainty>
          <preferredDescription>uncertainty ellipse</preferredDescription>
          <minHorizontalUncertainty>24.537</minHorizontalUncertainty>
          <maxHorizontalUncertainty>35.981399999999994</maxHorizontalUncertainty>
          <azimuthMaxHorizontalUncertainty>126.726</azimuthMaxHorizontalUncertainty>
          <confidenceLevel>68.0</confidenceLevel>
        </originUncertainty>
        <arrival publicID="smi:local/e1279fe0-e497-4fb8-93ab-0ff5371c2218">
          <pickID>smi:local/aef59d6f-5e84-4512-a51e-e786174754ef</pickID>
          <phase>S</phase>
          <azimuth>359.0</azimuth>
          <distance>0.001161024193241081</distance>
          <takeoffAngle>
            <value>-1.0</value>
          </takeoffAngle>
          <timeResidual>-0.0692</timeResidual>
          <timeWeight>6.1979</timeWeight>
        </arrival>
        <arrival publicID="smi:local/e0ff1cb3-9a7a-4182-9c76-0adbbf10dd92">
          <pickID>smi:local/d5243628-0d92-4cb2-ad10-d2d585e84689</pickID>
          <phase>S</phase>
          <azimuth>359.0</azimuth>
          <distance>0.0011844065549949682</distance>
          <takeoffAngle>
            <value>-1.0</value>
          </takeoffAngle>
          <timeResidual>-0.0693</timeResidual>
          <timeWeight>0.3812</timeWeight>
        </arrival>
        <arrival publicID="smi:local/ae23fce2-3f24-4861-a87d-2d9c9af04563">
          <pickID>smi:local/16489a02-7a1b-47a1-a5c9-7c87be744589</pickID>
          <phase>S</phase>
          <azimuth>359.0</azimuth>
          <distance>0.0012941237909170533</distance>
          <takeoffAngle>
            <value>-1.0</value>
          </takeoffAngle>
          <timeResidual>-0.004</timeResidual>
          <timeWeight>0.6309</timeWeight>
        </arrival>
        <arrival publicID="smi:local/56696343-6b9c-42da-a017-937897636b19">
          <pickID>smi:local/4766faa4-fcf5-46b9-8f5a-3668b3c08f0e</pickID>
          <phase>S</phase>
          <azimuth>359.0</azimuth>
          <distance>0.0013202041174886965</distance>
          <takeoffAngle>
            <value>-1.0</value>
          </takeoffAngle>
          <timeResidual>-0.0822</timeResidual>
          <timeWeight>0.2705</timeWeight>
        </arrival>
        <arrival publicID="smi:local/9c2e8ce6-b7f8-494b-9e28-b82405e95ca4">
          <pickID>smi:local/9d4bc6a9-7f42-4957-86b0-879d5f8f51bf</pickID>
          <phase>S</phase>
          <azimuth>359.0</azimuth>
          <distance>0.0013229020823064526</distance>
          <takeoffAngle>
            <value>-1.0</value>
          </takeoffAngle>
          <timeResidual>-0.0942</timeResidual>
          <timeWeight>0.2017</timeWeight>
        </arrival>
        <arrival publicID="smi:local/90bc493f-3c84-4d1b-be41-27c965b77f88">
          <pickID>smi:local/b6531998-fda0-4803-b25f-c8067d933278</pickID>
          <phase>S</phase>
          <azimuth>359.0</azimuth>
          <distance>0.0014002437404154635</distance>
          <takeoffAngle>
            <value>-1.0</value>
          </takeoffAngle>
          <timeResidual>0.0069</timeResidual>
          <timeWeight>0.6309</timeWeight>
        </arrival>
        <arrival publicID="smi:local/5c777291-8675-499d-a1e6-ec5c5630f59d">
          <pickID>smi:local/5a3143c2-2289-4625-9871-41d97844dfcb</pickID>
          <phase>S</phase>
          <azimuth>359.0</azimuth>
          <distance>0.0015801080615992094</distance>
          <takeoffAngle>
            <value>-1.0</value>
          </takeoffAngle>
          <timeResidual>0.9432</timeResidual>
          <timeWeight>0.597</timeWeight>
        </arrival>
        <arrival publicID="smi:local/02e6012d-f51f-45db-8706-c9bd27a6ef8d">
          <pickID>smi:local/fc4465e6-a9ad-4151-9e18-a1d12a0199c5</pickID>
          <phase>S</phase>
          <azimuth>359.0</azimuth>
          <distance>0.00177795881490133</distance>
          <takeoffAngle>
            <value>-1.0</value>
          </takeoffAngle>
          <timeResidual>-0.1055</timeResidual>
          <timeWeight>0.2887</timeWeight>
        </arrival>
        <arrival publicID="smi:local/4098ac68-f834-490a-86f4-ab3c5ac1aa77">
          <pickID>smi:local/11bf57e7-902d-4eff-98f6-6994ea38e558</pickID>
          <phase>S</phase>
          <azimuth>359.0</azimuth>
          <distance>0.0017932472822019486</distance>
          <takeoffAngle>
            <value>-1.0</value>
          </takeoffAngle>
          <timeResidual>-0.0499</timeResidual>
          <timeWeight>0.3812</timeWeight>
        </arrival>
        <arrival publicID="smi:local/fb543802-b423-45a5-a685-c87d67f4ac37">
          <pickID>smi:local/41c40d1a-3cef-473b-b99a-6e19cc64abe1</pickID>
          <phase>S</phase>
          <azimuth>359.0</azimuth>
          <distance>0.0023301422809354306</distance>
          <takeoffAngle>
            <value>-1.0</value>
          </takeoffAngle>
          <timeResidual>0.0518</timeResidual>
          <timeWeight>1.2794</timeWeight>
        </arrival>
        <arrival publicID="smi:local/1a950b5e-894e-4fa2-8001-294553c9484f">
          <pickID>smi:local/5b4d7785-e433-479c-9ede-939e5a270fb4</pickID>
          <phase>S</phase>
          <azimuth>359.0</azimuth>
          <distance>0.003073881249030221</distance>
          <takeoffAngle>
            <value>-1.0</value>
          </takeoffAngle>
          <timeResidual>-0.0213</timeResidual>
          <timeWeight>1.5301</timeWeight>
        </arrival>
        <arrival publicID="smi:local/4057adb6-9009-4fbf-8fae-c94d08fb6a47">
          <pickID>smi:local/d738e600-f372-4bf3-a95c-984b3952689a</pickID>
          <phase>S</phase>
          <azimuth>359.0</azimuth>
          <distance>0.003119746650932076</distance>
          <takeoffAngle>
            <value>-1.0</value>
          </takeoffAngle>
          <timeResidual>-0.0583</timeResidual>
          <timeWeight>0.7134</timeWeight>
        </arrival>
        <arrival publicID="smi:local/a9e6f772-8468-40cf-8666-a5617f50add1">
          <pickID>smi:local/95ed3a7d-49ba-47cf-b2b2-2f331482c2ed</pickID>
          <phase>S</phase>
          <azimuth>359.0</azimuth>
          <distance>0.004287965417020507</distance>
          <takeoffAngle>
            <value>-1.0</value>
          </takeoffAngle>
          <timeResidual>0.013</timeResidual>
          <timeWeight>0.5598</timeWeight>
        </arrival>
        <arrival publicID="smi:local/782d6345-5efa-457f-882c-661dc57d5ffe">
          <pickID>smi:local/0cf65fdb-9ddc-4e67-a20c-5459ba3a27a7</pickID>
          <phase>S</phase>
          <azimuth>359.0</azimuth>
          <distance>0.004343723356587469</distance>
          <takeoffAngle>
            <value>-1.0</value>
          </takeoffAngle>
          <timeResidual>-0.0534</timeResidual>
          <timeWeight>0.3375</timeWeight>
        </arrival>
      </origin>
      <pick publicID="smi:local/d738e600-f372-4bf3-a95c-984b3952689a">
        <time>
          <value>2020-03-10T06:51:20.619400Z</value>
          <uncertainty>0.0485</uncertainty>
        </time>
        <waveformID networkCode="XX" stationCode="F0607" channelCode="DPN"></waveformID>
        <phaseHint>S</phaseHint>
      </pick>
      <pick publicID="smi:local/aef59d6f-5e84-4512-a51e-e786174754ef">
        <time>
          <value>2020-03-10T06:51:20.357600Z</value>
          <uncertainty>0.0135</uncertainty>
        </time>
        <waveformID networkCode="XX" stationCode="C0202" channelCode="DPZ"></waveformID>
        <phaseHint>S</phaseHint>
      </pick>
      <pick publicID="smi:local/5a3143c2-2289-4625-9871-41d97844dfcb">
        <time>
          <value>2020-03-10T06:51:21.438100Z</value>
          <uncertainty>0.0532</uncertainty>
        </time>
        <waveformID networkCode="XX" stationCode="C0407" channelCode="DPN"></waveformID>
        <phaseHint>S</phaseHint>
      </pick>
      <pick publicID="smi:local/95ed3a7d-49ba-47cf-b2b2-2f331482c2ed">
        <time>
          <value>2020-03-10T06:51:20.794000Z</value>
          <uncertainty>0.055</uncertainty>
        </time>
        <waveformID networkCode="XX" stationCode="F0208" channelCode="DPN"></waveformID>
        <phaseHint>S</phaseHint>
      </pick>
      <pick publicID="smi:local/11bf57e7-902d-4eff-98f6-6994ea38e558">
        <time>
          <value>2020-03-10T06:51:20.480900Z</value>
          <uncertainty>0.067</uncertainty>
        </time>
        <waveformID networkCode="XX" stationCode="C0909" channelCode="DPN"></waveformID>
        <phaseHint>S</phaseHint>
      </pick>
      <pick publicID="smi:local/5b4d7785-e433-479c-9ede-939e5a270fb4">
        <time>
          <value>2020-03-10T06:51:20.651700Z</value>
          <uncertainty>0.0323</uncertainty>
        </time>
        <waveformID networkCode="XX" stationCode="F0307" channelCode="DPN"></waveformID>
        <phaseHint>S</phaseHint>
      </pick>
      <pick publicID="smi:local/4766faa4-fcf5-46b9-8f5a-3668b3c08f0e">
        <time>
          <value>2020-03-10T06:51:20.369600Z</value>
          <uncertainty>0.0798</uncertainty>
        </time>
        <waveformID networkCode="XX" stationCode="C0704" channelCode="DPN"></waveformID>
        <phaseHint>S</phaseHint>
      </pick>
      <pick publicID="smi:local/9d4bc6a9-7f42-4957-86b0-879d5f8f51bf">
        <time>
          <value>2020-03-10T06:51:20.357600Z</value>
          <uncertainty>0.0926</uncertainty>
        </time>
        <waveformID networkCode="XX" stationCode="C0404" channelCode="DPN"></waveformID>
        <phaseHint>S</phaseHint>
      </pick>
      <pick publicID="smi:local/41c40d1a-3cef-473b-b99a-6e19cc64abe1">
        <time>
          <value>2020-03-10T06:51:20.658200Z</value>
          <uncertainty>0.0356</uncertainty>
        </time>
        <waveformID networkCode="XX" stationCode="F0203" channelCode="DPN"></waveformID>
        <phaseHint>S</phaseHint>
      </pick>
      <pick publicID="smi:local/b6531998-fda0-4803-b25f-c8067d933278">
        <time>
          <value>2020-03-10T06:51:20.470600Z</value>
          <uncertainty>0.0517</uncertainty>
        </time>
        <waveformID networkCode="XX" stationCode="F0604" channelCode="DPE"></waveformID>
        <phaseHint>S</phaseHint>
      </pick>
      <pick publicID="smi:local/d5243628-0d92-4cb2-ad10-d2d585e84689">
        <time>
          <value>2020-03-10T06:51:20.360700Z</value>
          <uncertainty>0.067</uncertainty>
        </time>
        <waveformID networkCode="XX" stationCode="C0902" channelCode="DPE"></waveformID>
        <phaseHint>S</phaseHint>
      </pick>
      <pick publicID="smi:local/0cf65fdb-9ddc-4e67-a20c-5459ba3a27a7">
        <time>
          <value>2020-03-10T06:51:20.732200Z</value>
          <uncertainty>0.0713</uncertainty>
        </time>
        <waveformID networkCode="XX" stationCode="F0708" channelCode="DPN"></waveformID>
        <phaseHint>S</phaseHint>
      </pick>
      <pick publicID="smi:local/fc4465e6-a9ad-4151-9e18-a1d12a0199c5">
        <time>
          <value>2020-03-10T06:51:20.423200Z</value>
          <uncertainty>0.0772</uncertainty>
        </time>
        <waveformID networkCode="XX" stationCode="C0209" channelCode="DPN"></waveformID>
        <phaseHint>S</phaseHint>
      </pick>
      <pick publicID="smi:local/16489a02-7a1b-47a1-a5c9-7c87be744589">
        <time>
          <value>2020-03-10T06:51:20.441500Z</value>
          <uncertainty>0.0517</uncertainty>
        </time>
        <waveformID networkCode="XX" stationCode="F0304" channelCode="DPE"></waveformID>
        <phaseHint>S</phaseHint>
      </pick>
    </event>
  </eventParameters>
</q:quakeml>
