<?xml version='1.0' encoding='utf-8'?>
<q:quakeml xmlns="http://quakeml.org/xmlns/bed/1.2" xmlns:q="http://quakeml.org/xmlns/quakeml/1.2">
  <eventParameters publicID="smi:local/d707f55a-8e04-4dfd-80d3-7cfb584ba210">
    <event publicID="smi:local/cab3485e-26bb-4279-ae59-249c5c031957">
      <preferredOriginID>smi:local/77dba37c-675d-47ff-b2e0-5aa240592ee1</preferredOriginID>
      <comment>
        <text>CaMI.FRS microseismicity</text>
      </comment>
      <comment id="smi:local/553a9624-ade2-4698-b590-862f58534b5b">
        <text>eqcorrscan_template_2020_02_18t14_14_17</text>
      </comment>
      <creationInfo>
        <author>Genevieve Savard   obs:./obs_picked5/merged.obs   NLLoc:v7.00.00(27Oct2017)</author>
        <creationTime>2020-09-18T19:53:08.000000Z</creationTime>
      </creationInfo>
      <origin publicID="smi:local/77dba37c-675d-47ff-b2e0-5aa240592ee1">
        <time>
          <value>2020-02-18T14:14:17.116341Z</value>
        </time>
        <latitude>
          <value>50.450145</value>
          <uncertainty>0.0005707030005449943</uncertainty>
        </latitude>
        <longitude>
          <value>-112.11672</value>
          <uncertainty>0.002097001241923209</uncertainty>
        </longitude>
        <depth>
          <value>0.391</value>
          <uncertainty>32.83900120283806</uncertainty>
          <confidenceLevel>68.0</confidenceLevel>
        </depth>
        <depthType>from location</depthType>
        <quality>
          <associatedPhaseCount>16</associatedPhaseCount>
          <usedPhaseCount>16</usedPhaseCount>
          <associatedStationCount>-1</associatedStationCount>
          <usedStationCount>16</usedStationCount>
          <depthPhaseCount>-1</depthPhaseCount>
          <standardError>0.0298132</standardError>
          <azimuthalGap>223.565</azimuthalGap>
          <secondaryAzimuthalGap>309.448</secondaryAzimuthalGap>
          <groundTruthLevel>-</groundTruthLevel>
          <minimumDistance>0.0019540729649883955</minimumDistance>
          <maximumDistance>0.002659374927646219</maximumDistance>
          <medianDistance>0.002645543361347189</medianDistance>
        </quality>
        <comment>
          <text>Note: Depth/Latitude/Longitude errors are calculated from covariance matrix as 1D marginal (Lon/Lat errors as great circle degrees) while OriginUncertainty min/max horizontal errors are calculated from 2D error ellipsoid and are therefore seemingly higher compared to 1D errors. Error estimates can be reconstructed from the following original NonLinLoc error statistics line:
STATISTICS ExpectX 0.382048 Y -0.0269564 Z 0.022323  CovXX 0.054371 XY 0.00113583 XZ 0.00529544 YY 0.00402708 YZ 6.96774e-05 ZZ 0.0010784 EllAz1  277.057 Dip1  84.3227 Len1  0.044334 Az2  358.794 Dip2  -0.818513 Len2  0.11886 Len3  4.402941e-01</text>
        </comment>
        <creationInfo>
          <author>Genevieve Savard   obs:./obs_picked5/merged.obs   NLLoc:v7.00.00(27Oct2017)</author>
          <creationTime>2020-09-18T19:53:08.000000Z</creationTime>
        </creationInfo>
        <originUncertainty>
          <preferredDescription>uncertainty ellipse</preferredDescription>
          <minHorizontalUncertainty>95.9343</minHorizontalUncertainty>
          <maxHorizontalUncertainty>353.71200000000005</maxHorizontalUncertainty>
          <azimuthMaxHorizontalUncertainty>88.7082</azimuthMaxHorizontalUncertainty>
          <confidenceLevel>68.0</confidenceLevel>
        </originUncertainty>
        <arrival publicID="smi:local/30440cb0-54d3-439d-9eea-ef428d55f20c">
          <pickID>smi:local/64f00a17-672d-47f6-824f-0fe881a73b20</pickID>
          <phase>S</phase>
          <azimuth>359.0</azimuth>
          <distance>0.0019542258496614015</distance>
          <takeoffAngle>
            <value>-1.0</value>
          </takeoffAngle>
          <timeResidual>-0.0712</timeResidual>
          <timeWeight>0.1657</timeWeight>
        </arrival>
        <arrival publicID="smi:local/3ef8d6dd-eb84-42bd-83b5-50477d65b4ce">
          <pickID>smi:local/0a57ffed-3024-4ae0-87bf-ad0271a32f04</pickID>
          <phase>S</phase>
          <azimuth>359.0</azimuth>
          <distance>0.002035164794194087</distance>
          <takeoffAngle>
            <value>-1.0</value>
          </takeoffAngle>
          <timeResidual>-0.0978</timeResidual>
          <timeWeight>0.1657</timeWeight>
        </arrival>
        <arrival publicID="smi:local/be740186-8549-446f-ab49-39ce1b61f184">
          <pickID>smi:local/f28620e1-d10a-49b0-857d-7869728d7854</pickID>
          <phase>S</phase>
          <azimuth>359.0</azimuth>
          <distance>0.002645804164612905</distance>
          <takeoffAngle>
            <value>-1.0</value>
          </takeoffAngle>
          <timeResidual>-0.0156</timeResidual>
          <timeWeight>0.9118</timeWeight>
        </arrival>
        <arrival publicID="smi:local/24a2d359-ca6e-4b88-9f10-821d7dfbb09c">
          <pickID>smi:local/ae390bea-b8ce-4010-a287-64e885071ca5</pickID>
          <phase>S</phase>
          <azimuth>359.0</azimuth>
          <distance>0.002645804164612905</distance>
          <takeoffAngle>
            <value>-1.0</value>
          </takeoffAngle>
          <timeResidual>-0.001</timeResidual>
          <timeWeight>1.3014</timeWeight>
        </arrival>
        <arrival publicID="smi:local/eb30a5ae-7988-4654-8e07-ab9301032b92">
          <pickID>smi:local/428cead2-034a-4886-9feb-815be707746f</pickID>
          <phase>S</phase>
          <azimuth>359.0</azimuth>
          <distance>0.002645804164612905</distance>
          <takeoffAngle>
            <value>-1.0</value>
          </takeoffAngle>
          <timeResidual>0.0106</timeResidual>
          <timeWeight>1.079</timeWeight>
        </arrival>
        <arrival publicID="smi:local/15a1e089-acfb-4f66-9ac7-0ed68f425794">
          <pickID>smi:local/ba05bc4d-d53e-4cc7-8098-48f8b5863b4e</pickID>
          <phase>S</phase>
          <azimuth>359.0</azimuth>
          <distance>0.002645804164612905</distance>
          <takeoffAngle>
            <value>-1.0</value>
          </takeoffAngle>
          <timeResidual>0.0051</timeResidual>
          <timeWeight>1.9494</timeWeight>
        </arrival>
        <arrival publicID="smi:local/3baa28e4-aa66-42fc-a106-bd8cc4644dc9">
          <pickID>smi:local/9274184e-ebd7-425d-8fcb-0a6ac2d39302</pickID>
          <phase>S</phase>
          <azimuth>359.0</azimuth>
          <distance>0.002645804164612905</distance>
          <takeoffAngle>
            <value>-1.0</value>
          </takeoffAngle>
          <timeResidual>-0.0127</timeResidual>
          <timeWeight>1.5411</timeWeight>
        </arrival>
        <arrival publicID="smi:local/04de672e-533b-48bb-bd5f-c457f7b3c226">
          <pickID>smi:local/14423bf6-3f48-487a-8a38-a137244a716b</pickID>
          <phase>S</phase>
          <azimuth>359.0</azimuth>
          <distance>0.002645804164612905</distance>
          <takeoffAngle>
            <value>-1.0</value>
          </takeoffAngle>
          <timeResidual>-0.0066</timeResidual>
          <timeWeight>0.5742</timeWeight>
        </arrival>
        <arrival publicID="smi:local/050f0180-ee9a-47e7-aaea-27a1e834937b">
          <pickID>smi:local/8cb58108-9a51-4eaa-a937-b04ec6641fdd</pickID>
          <phase>S</phase>
          <azimuth>359.0</azimuth>
          <distance>0.002645804164612905</distance>
          <takeoffAngle>
            <value>-1.0</value>
          </takeoffAngle>
          <timeResidual>-0.0136</timeResidual>
          <timeWeight>1.4833</timeWeight>
        </arrival>
        <arrival publicID="smi:local/3d0d035f-455d-4141-80d5-3f0913f998e1">
          <pickID>smi:local/87f34ceb-a239-49ae-adf9-5e62c82fee7c</pickID>
          <phase>S</phase>
          <azimuth>359.0</azimuth>
          <distance>0.002645804164612905</distance>
          <takeoffAngle>
            <value>-1.0</value>
          </takeoffAngle>
          <timeResidual>0.0029</timeResidual>
          <timeWeight>1.5559</timeWeight>
        </arrival>
        <arrival publicID="smi:local/5824ea9c-4e61-4fd1-be20-1669ad88e20e">
          <pickID>smi:local/4cf2a2b2-e90c-477c-bd35-e232e6210388</pickID>
          <phase>S</phase>
          <azimuth>359.0</azimuth>
          <distance>0.002645804164612905</distance>
          <takeoffAngle>
            <value>-1.0</value>
          </takeoffAngle>
          <timeResidual>0.001</timeResidual>
          <timeWeight>1.5559</timeWeight>
        </arrival>
        <arrival publicID="smi:local/0ee213ae-9eb6-40c0-ad9a-84511b79d123">
          <pickID>smi:local/50f2dc3f-31a9-405f-9f48-d4d9ed08231e</pickID>
          <phase>S</phase>
          <azimuth>359.0</azimuth>
          <distance>0.002645804164612905</distance>
          <takeoffAngle>
            <value>-1.0</value>
          </takeoffAngle>
          <timeResidual>-0.0004</timeResidual>
          <timeWeight>2.0086</timeWeight>
        </arrival>
        <arrival publicID="smi:local/ca8d15c9-2ff1-48f6-835a-ae6df5975a8d">
          <pickID>smi:local/5f5fc7ee-8d97-4c0a-ba05-bb872284fd3c</pickID>
          <phase>S</phase>
          <azimuth>359.0</azimuth>
          <distance>0.002645804164612905</distance>
          <takeoffAngle>
            <value>-1.0</value>
          </takeoffAngle>
          <timeResidual>0.0068</timeResidual>
          <timeWeight>1.2102</timeWeight>
        </arrival>
        <arrival publicID="smi:local/dbf85b50-9e50-40a5-8046-18d3ba834646">
          <pickID>smi:local/432709df-8478-4064-9f33-7b20f7492f6b</pickID>
          <phase>S</phase>
          <azimuth>359.0</azimuth>
          <distance>0.002645804164612905</distance>
          <takeoffAngle>
            <value>-1.0</value>
          </takeoffAngle>
          <timeResidual>0.1423</timeResidual>
          <timeWeight>0.1657</timeWeight>
        </arrival>
        <arrival publicID="smi:local/65bd8973-fbb4-49ce-ad13-cfec12158947">
          <pickID>smi:local/45cc0238-fb21-4836-9516-8d72b8e73666</pickID>
          <phase>S</phase>
          <azimuth>359.0</azimuth>
          <distance>0.002645804164612905</distance>
          <takeoffAngle>
            <value>-1.0</value>
          </takeoffAngle>
          <timeResidual>0.2086</timeResidual>
          <timeWeight>0.1657</timeWeight>
        </arrival>
        <arrival publicID="smi:local/c65619d8-11ae-44a5-8ebe-7287f004d031">
          <pickID>smi:local/b9cb0d51-ff6c-423a-adab-d42c444ba0fd</pickID>
          <phase>S</phase>
          <azimuth>359.0</azimuth>
          <distance>0.0026592939887016866</distance>
          <takeoffAngle>
            <value>-1.0</value>
          </takeoffAngle>
          <timeResidual>-0.0355</timeResidual>
          <timeWeight>0.1663</timeWeight>
        </arrival>
      </origin>
      <pick publicID="smi:local/428cead2-034a-4886-9feb-815be707746f">
        <time>
          <value>2020-02-18T14:14:17.549600Z</value>
          <uncertainty>0.0173</uncertainty>
        </time>
        <waveformID networkCode="XX" stationCode="G1" channelCode="DPE"></waveformID>
        <phaseHint>S</phaseHint>
      </pick>
      <pick publicID="smi:local/ae390bea-b8ce-4010-a287-64e885071ca5">
        <time>
          <value>2020-02-18T14:14:17.545600Z</value>
          <uncertainty>0.0152</uncertainty>
        </time>
        <waveformID networkCode="XX" stationCode="G6" channelCode="DPE"></waveformID>
        <phaseHint>S</phaseHint>
      </pick>
      <pick publicID="smi:local/5f5fc7ee-8d97-4c0a-ba05-bb872284fd3c">
        <time>
          <value>2020-02-18T14:14:17.566900Z</value>
          <uncertainty>0.016</uncertainty>
        </time>
        <waveformID networkCode="XX" stationCode="G13" channelCode="DPE"></waveformID>
        <phaseHint>S</phaseHint>
      </pick>
      <pick publicID="smi:local/9274184e-ebd7-425d-8fcb-0a6ac2d39302">
        <time>
          <value>2020-02-18T14:14:17.556300Z</value>
          <uncertainty>0.0134</uncertainty>
        </time>
        <waveformID networkCode="XX" stationCode="G17" channelCode="DPE"></waveformID>
        <phaseHint>S</phaseHint>
      </pick>
      <pick publicID="smi:local/0a57ffed-3024-4ae0-87bf-ad0271a32f04">
        <time>
          <value>2020-02-18T14:14:17.441500Z</value>
          <uncertainty>0.05</uncertainty>
        </time>
        <waveformID networkCode="XX" stationCode="F0607" channelCode="DPE"></waveformID>
        <phaseHint>S</phaseHint>
      </pick>
      <pick publicID="smi:local/87f34ceb-a239-49ae-adf9-5e62c82fee7c">
        <time>
          <value>2020-02-18T14:14:17.558900Z</value>
          <uncertainty>0.0133</uncertainty>
        </time>
        <waveformID networkCode="XX" stationCode="G11" channelCode="DPE"></waveformID>
        <phaseHint>S</phaseHint>
      </pick>
      <pick publicID="smi:local/ba05bc4d-d53e-4cc7-8098-48f8b5863b4e">
        <time>
          <value>2020-02-18T14:14:17.555200Z</value>
          <uncertainty>0.011</uncertainty>
        </time>
        <waveformID networkCode="XX" stationCode="G8" channelCode="DPE"></waveformID>
        <phaseHint>S</phaseHint>
      </pick>
      <pick publicID="smi:local/45cc0238-fb21-4836-9516-8d72b8e73666">
        <time>
          <value>2020-02-18T14:14:17.753700Z</value>
          <uncertainty>0.05</uncertainty>
        </time>
        <waveformID networkCode="XX" stationCode="G5" channelCode="DPZ"></waveformID>
        <phaseHint>S</phaseHint>
      </pick>
      <pick publicID="smi:local/432709df-8478-4064-9f33-7b20f7492f6b">
        <time>
          <value>2020-02-18T14:14:17.686100Z</value>
          <uncertainty>0.05</uncertainty>
        </time>
        <waveformID networkCode="XX" stationCode="G4" channelCode="DPZ"></waveformID>
        <phaseHint>S</phaseHint>
      </pick>
      <pick publicID="smi:local/64f00a17-672d-47f6-824f-0fe881a73b20">
        <time>
          <value>2020-02-18T14:14:17.453500Z</value>
          <uncertainty>0.05</uncertainty>
        </time>
        <waveformID networkCode="XX" stationCode="F0703" channelCode="DPE"></waveformID>
        <phaseHint>S</phaseHint>
      </pick>
      <pick publicID="smi:local/4cf2a2b2-e90c-477c-bd35-e232e6210388">
        <time>
          <value>2020-02-18T14:14:17.558900Z</value>
          <uncertainty>0.0133</uncertainty>
        </time>
        <waveformID networkCode="XX" stationCode="G12" channelCode="DPE"></waveformID>
        <phaseHint>S</phaseHint>
      </pick>
      <pick publicID="smi:local/b9cb0d51-ff6c-423a-adab-d42c444ba0fd">
        <time>
          <value>2020-02-18T14:14:17.613700Z</value>
          <uncertainty>0.0499</uncertainty>
        </time>
        <waveformID networkCode="XX" stationCode="C0404" channelCode="DPN"></waveformID>
        <phaseHint>S</phaseHint>
      </pick>
      <pick publicID="smi:local/14423bf6-3f48-487a-8a38-a137244a716b">
        <time>
          <value>2020-02-18T14:14:17.557700Z</value>
          <uncertainty>0.0255</uncertainty>
        </time>
        <waveformID networkCode="XX" stationCode="G15" channelCode="DPE"></waveformID>
        <phaseHint>S</phaseHint>
      </pick>
      <pick publicID="smi:local/50f2dc3f-31a9-405f-9f48-d4d9ed08231e">
        <time>
          <value>2020-02-18T14:14:17.561700Z</value>
          <uncertainty>0.0107</uncertainty>
        </time>
        <waveformID networkCode="XX" stationCode="G14" channelCode="DPE"></waveformID>
        <phaseHint>S</phaseHint>
      </pick>
      <pick publicID="smi:local/8cb58108-9a51-4eaa-a937-b04ec6641fdd">
        <time>
          <value>2020-02-18T14:14:17.558000Z</value>
          <uncertainty>0.0138</uncertainty>
        </time>
        <waveformID networkCode="XX" stationCode="G18" channelCode="DPE"></waveformID>
        <phaseHint>S</phaseHint>
      </pick>
      <pick publicID="smi:local/f28620e1-d10a-49b0-857d-7869728d7854">
        <time>
          <value>2020-02-18T14:14:17.524900Z</value>
          <uncertainty>0.0193</uncertainty>
        </time>
        <waveformID networkCode="XX" stationCode="G2" channelCode="DPE"></waveformID>
        <phaseHint>S</phaseHint>
      </pick>
    </event>
  </eventParameters>
</q:quakeml>
