<?xml version='1.0' encoding='utf-8'?>
<q:quakeml xmlns="http://quakeml.org/xmlns/bed/1.2" xmlns:q="http://quakeml.org/xmlns/quakeml/1.2">
  <eventParameters publicID="smi:local/3af44337-9740-423d-9142-ae7d3688cd68">
    <event publicID="smi:local/209400b2-afdb-40c3-b42a-7276568a4157">
      <preferredOriginID>smi:local/cce9564d-5d7d-46e8-9749-945732003376</preferredOriginID>
      <comment>
        <text>CaMI.FRS microseismicity</text>
      </comment>
      <comment id="smi:local/82275d8a-8f21-4d3a-a188-fc6eeae061e1">
        <text>eqcorrscan_template_2020_03_18t01_30_40</text>
      </comment>
      <creationInfo>
        <author>Genevieve Savard   obs:./obs_picked5/merged.obs   NLLoc:v7.00.00(27Oct2017)</author>
        <creationTime>2020-09-18T19:57:05.000000Z</creationTime>
      </creationInfo>
      <origin publicID="smi:local/cce9564d-5d7d-46e8-9749-945732003376">
        <time>
          <value>2020-03-18T01:30:40.216993Z</value>
        </time>
        <latitude>
          <value>50.45123</value>
          <uncertainty>0.0022696407984044505</uncertainty>
        </latitude>
        <longitude>
          <value>-112.116737</value>
          <uncertainty>0.002239959011056371</uncertainty>
        </longitude>
        <depth>
          <value>243.75</value>
          <uncertainty>193.16340233077278</uncertainty>
          <confidenceLevel>68.0</confidenceLevel>
        </depth>
        <depthType>from location</depthType>
        <quality>
          <associatedPhaseCount>13</associatedPhaseCount>
          <usedPhaseCount>13</usedPhaseCount>
          <associatedStationCount>-1</associatedStationCount>
          <usedStationCount>13</usedStationCount>
          <depthPhaseCount>-1</depthPhaseCount>
          <standardError>0.00535378</standardError>
          <azimuthalGap>360.0</azimuthalGap>
          <secondaryAzimuthalGap>360.0</secondaryAzimuthalGap>
          <groundTruthLevel>-</groundTruthLevel>
          <minimumDistance>0.0027858914911668663</minimumDistance>
          <maximumDistance>0.0027858914911668663</maximumDistance>
          <medianDistance>0.0027858914911668663</medianDistance>
        </quality>
        <comment>
          <text>Note: Depth/Latitude/Longitude errors are calculated from covariance matrix as 1D marginal (Lon/Lat errors as great circle degrees) while OriginUncertainty min/max horizontal errors are calculated from 2D error ellipsoid and are therefore seemingly higher compared to 1D errors. Error estimates can be reconstructed from the following original NonLinLoc error statistics line:
STATISTICS ExpectX -0.0108041 Y -0.00618132 Z 0.313355  CovXX 0.0620369 XY -0.000189666 XZ -3.86089e-05 YY 0.0636919 YZ -0.000161303 ZZ 0.0373121 EllAz1  194.712 Dip1  -89.6371 Len1  0.362916 Az2  263.557 Dip2  0.130961 Len2  0.467884 Len3  4.742483e-01</text>
        </comment>
        <creationInfo>
          <author>Genevieve Savard   obs:./obs_picked5/merged.obs   NLLoc:v7.00.00(27Oct2017)</author>
          <creationTime>2020-09-18T19:57:05.000000Z</creationTime>
        </creationInfo>
        <originUncertainty>
          <preferredDescription>uncertainty ellipse</preferredDescription>
          <minHorizontalUncertainty>377.671</minHorizontalUncertainty>
          <maxHorizontalUncertainty>382.806</maxHorizontalUncertainty>
          <azimuthMaxHorizontalUncertainty>173.545</azimuthMaxHorizontalUncertainty>
          <confidenceLevel>68.0</confidenceLevel>
        </originUncertainty>
        <arrival publicID="smi:local/3522f04f-e418-4cf8-8218-0c93a8bac3b6">
          <pickID>smi:local/6ec686e8-5ea2-4180-9273-5a61c99e2425</pickID>
          <phase>P</phase>
          <azimuth>359.0</azimuth>
          <distance>0.0027860983351362272</distance>
          <takeoffAngle>
            <value>-1.0</value>
          </takeoffAngle>
          <timeResidual>-0.0006</timeResidual>
          <timeWeight>1.0</timeWeight>
        </arrival>
        <arrival publicID="smi:local/ab9cf5f6-145d-41a2-8316-9d0114ddceae">
          <pickID>smi:local/596fb5f3-a915-4b2e-9e27-f188eaa83134</pickID>
          <phase>S</phase>
          <azimuth>359.0</azimuth>
          <distance>0.0027860983351362272</distance>
          <takeoffAngle>
            <value>-1.0</value>
          </takeoffAngle>
          <timeResidual>-0.0097</timeResidual>
          <timeWeight>1.0</timeWeight>
        </arrival>
        <arrival publicID="smi:local/6a6ed452-9f3a-434d-8eb9-e5274ba561f2">
          <pickID>smi:local/ec4bde4f-6d71-4d96-be88-8bc5ea59e680</pickID>
          <phase>S</phase>
          <azimuth>359.0</azimuth>
          <distance>0.0027860983351362272</distance>
          <takeoffAngle>
            <value>-1.0</value>
          </takeoffAngle>
          <timeResidual>-0.0081</timeResidual>
          <timeWeight>1.0</timeWeight>
        </arrival>
        <arrival publicID="smi:local/cd8dbe52-2a82-4389-8b74-901c81bcce00">
          <pickID>smi:local/2a7404c0-5335-4d68-9687-4010f779f29c</pickID>
          <phase>S</phase>
          <azimuth>359.0</azimuth>
          <distance>0.0027860983351362272</distance>
          <takeoffAngle>
            <value>-1.0</value>
          </takeoffAngle>
          <timeResidual>-0.0059</timeResidual>
          <timeWeight>1.0</timeWeight>
        </arrival>
        <arrival publicID="smi:local/479b121d-201e-4dd6-8ead-97801015b06f">
          <pickID>smi:local/931ec73f-5f9a-4339-a521-44b54386087d</pickID>
          <phase>S</phase>
          <azimuth>359.0</azimuth>
          <distance>0.0027860983351362272</distance>
          <takeoffAngle>
            <value>-1.0</value>
          </takeoffAngle>
          <timeResidual>-0.0033</timeResidual>
          <timeWeight>1.0</timeWeight>
        </arrival>
        <arrival publicID="smi:local/1143ea49-5a12-466e-ae02-ac4be8c57b92">
          <pickID>smi:local/5c35dab2-eefa-472d-9964-84f371306972</pickID>
          <phase>S</phase>
          <azimuth>359.0</azimuth>
          <distance>0.0027860983351362272</distance>
          <takeoffAngle>
            <value>-1.0</value>
          </takeoffAngle>
          <timeResidual>0.0024</timeResidual>
          <timeWeight>1.0</timeWeight>
        </arrival>
        <arrival publicID="smi:local/41a47266-1ee7-43bc-aa54-0d0389ebf15e">
          <pickID>smi:local/ce056dd7-e9e8-4a0c-ac71-700bfda82d2d</pickID>
          <phase>S</phase>
          <azimuth>359.0</azimuth>
          <distance>0.0027860983351362272</distance>
          <takeoffAngle>
            <value>-1.0</value>
          </takeoffAngle>
          <timeResidual>0.002</timeResidual>
          <timeWeight>1.0</timeWeight>
        </arrival>
        <arrival publicID="smi:local/64292d89-c65f-40f0-b6b5-494f007a0787">
          <pickID>smi:local/25859273-a7ac-468a-bb40-17124a6c639e</pickID>
          <phase>S</phase>
          <azimuth>359.0</azimuth>
          <distance>0.0027860983351362272</distance>
          <takeoffAngle>
            <value>-1.0</value>
          </takeoffAngle>
          <timeResidual>-0.0029</timeResidual>
          <timeWeight>1.0</timeWeight>
        </arrival>
        <arrival publicID="smi:local/9c771b4f-fda6-4188-8bcb-82a916602f39">
          <pickID>smi:local/587f359d-b1a6-479d-926d-3f37e1a7c5e1</pickID>
          <phase>S</phase>
          <azimuth>359.0</azimuth>
          <distance>0.0027860983351362272</distance>
          <takeoffAngle>
            <value>-1.0</value>
          </takeoffAngle>
          <timeResidual>0.0048</timeResidual>
          <timeWeight>1.0</timeWeight>
        </arrival>
        <arrival publicID="smi:local/c6527713-be81-4cc9-9a8f-de4dbe3c175c">
          <pickID>smi:local/c646035f-0ade-4f91-80d1-946cb0474806</pickID>
          <phase>S</phase>
          <azimuth>359.0</azimuth>
          <distance>0.0027860983351362272</distance>
          <takeoffAngle>
            <value>-1.0</value>
          </takeoffAngle>
          <timeResidual>0.0026</timeResidual>
          <timeWeight>1.0</timeWeight>
        </arrival>
        <arrival publicID="smi:local/355bb26a-d85e-4f08-ac5c-d50f2e607a3d">
          <pickID>smi:local/1316b150-09a2-448e-ac75-ce7beda79a93</pickID>
          <phase>S</phase>
          <azimuth>359.0</azimuth>
          <distance>0.0027860983351362272</distance>
          <takeoffAngle>
            <value>-1.0</value>
          </takeoffAngle>
          <timeResidual>0.0053</timeResidual>
          <timeWeight>1.0</timeWeight>
        </arrival>
        <arrival publicID="smi:local/f35b5741-ec4c-4b2f-8006-704480b685a2">
          <pickID>smi:local/900589cc-92c4-4448-9e66-1d059e3ad9fa</pickID>
          <phase>S</phase>
          <azimuth>359.0</azimuth>
          <distance>0.0027860983351362272</distance>
          <takeoffAngle>
            <value>-1.0</value>
          </takeoffAngle>
          <timeResidual>0.006</timeResidual>
          <timeWeight>1.0</timeWeight>
        </arrival>
        <arrival publicID="smi:local/c4a3706d-f383-4a26-ae42-91e1df28f9e9">
          <pickID>smi:local/22d1c7f0-4191-4c02-8610-256960abbbff</pickID>
          <phase>S</phase>
          <azimuth>359.0</azimuth>
          <distance>0.0027860983351362272</distance>
          <takeoffAngle>
            <value>-1.0</value>
          </takeoffAngle>
          <timeResidual>0.0074</timeResidual>
          <timeWeight>1.0</timeWeight>
        </arrival>
      </origin>
      <pick publicID="smi:local/900589cc-92c4-4448-9e66-1d059e3ad9fa">
        <time>
          <value>2020-03-18T01:30:40.482800Z</value>
          <uncertainty>0.05</uncertainty>
        </time>
        <waveformID networkCode="XX" stationCode="G12" channelCode="DPZ"></waveformID>
        <phaseHint>S</phaseHint>
      </pick>
      <pick publicID="smi:local/587f359d-b1a6-479d-926d-3f37e1a7c5e1">
        <time>
          <value>2020-03-18T01:30:40.478700Z</value>
          <uncertainty>0.05</uncertainty>
        </time>
        <waveformID networkCode="XX" stationCode="G1" channelCode="DPE"></waveformID>
        <phaseHint>S</phaseHint>
      </pick>
      <pick publicID="smi:local/1316b150-09a2-448e-ac75-ce7beda79a93">
        <time>
          <value>2020-03-18T01:30:40.481700Z</value>
          <uncertainty>0.05</uncertainty>
        </time>
        <waveformID networkCode="XX" stationCode="G11" channelCode="DPZ"></waveformID>
        <phaseHint>S</phaseHint>
      </pick>
      <pick publicID="smi:local/6ec686e8-5ea2-4180-9273-5a61c99e2425">
        <time>
          <value>2020-03-18T01:30:40.334200Z</value>
          <uncertainty>0.05</uncertainty>
        </time>
        <waveformID networkCode="XX" stationCode="G5" channelCode="DPZ"></waveformID>
        <phaseHint>P</phaseHint>
      </pick>
      <pick publicID="smi:local/2a7404c0-5335-4d68-9687-4010f779f29c">
        <time>
          <value>2020-03-18T01:30:40.472300Z</value>
          <uncertainty>0.05</uncertainty>
        </time>
        <waveformID networkCode="XX" stationCode="G15" channelCode="DPZ"></waveformID>
        <phaseHint>S</phaseHint>
      </pick>
      <pick publicID="smi:local/5c35dab2-eefa-472d-9964-84f371306972">
        <time>
          <value>2020-03-18T01:30:40.474800Z</value>
          <uncertainty>0.05</uncertainty>
        </time>
        <waveformID networkCode="XX" stationCode="G6" channelCode="DPE"></waveformID>
        <phaseHint>S</phaseHint>
      </pick>
      <pick publicID="smi:local/c646035f-0ade-4f91-80d1-946cb0474806">
        <time>
          <value>2020-03-18T01:30:40.480100Z</value>
          <uncertainty>0.05</uncertainty>
        </time>
        <waveformID networkCode="XX" stationCode="G13" channelCode="DPZ"></waveformID>
        <phaseHint>S</phaseHint>
      </pick>
      <pick publicID="smi:local/596fb5f3-a915-4b2e-9e27-f188eaa83134">
        <time>
          <value>2020-03-18T01:30:40.463900Z</value>
          <uncertainty>0.05</uncertainty>
        </time>
        <waveformID networkCode="XX" stationCode="G2" channelCode="DPE"></waveformID>
        <phaseHint>S</phaseHint>
      </pick>
      <pick publicID="smi:local/22d1c7f0-4191-4c02-8610-256960abbbff">
        <time>
          <value>2020-03-18T01:30:40.486800Z</value>
          <uncertainty>0.05</uncertainty>
        </time>
        <waveformID networkCode="XX" stationCode="G17" channelCode="DPZ"></waveformID>
        <phaseHint>S</phaseHint>
      </pick>
      <pick publicID="smi:local/ec4bde4f-6d71-4d96-be88-8bc5ea59e680">
        <time>
          <value>2020-03-18T01:30:40.465100Z</value>
          <uncertainty>0.05</uncertainty>
        </time>
        <waveformID networkCode="XX" stationCode="G4" channelCode="DPE"></waveformID>
        <phaseHint>S</phaseHint>
      </pick>
      <pick publicID="smi:local/25859273-a7ac-468a-bb40-17124a6c639e">
        <time>
          <value>2020-03-18T01:30:40.477300Z</value>
          <uncertainty>0.05</uncertainty>
        </time>
        <waveformID networkCode="XX" stationCode="G18" channelCode="DPZ"></waveformID>
        <phaseHint>S</phaseHint>
      </pick>
      <pick publicID="smi:local/ce056dd7-e9e8-4a0c-ac71-700bfda82d2d">
        <time>
          <value>2020-03-18T01:30:40.475300Z</value>
          <uncertainty>0.05</uncertainty>
        </time>
        <waveformID networkCode="XX" stationCode="G8" channelCode="DPE"></waveformID>
        <phaseHint>S</phaseHint>
      </pick>
      <pick publicID="smi:local/931ec73f-5f9a-4339-a521-44b54386087d">
        <time>
          <value>2020-03-18T01:30:40.474500Z</value>
          <uncertainty>0.05</uncertainty>
        </time>
        <waveformID networkCode="XX" stationCode="G14" channelCode="DPZ"></waveformID>
        <phaseHint>S</phaseHint>
      </pick>
    </event>
  </eventParameters>
</q:quakeml>
