<?xml version='1.0' encoding='utf-8'?>
<q:quakeml xmlns="http://quakeml.org/xmlns/bed/1.2" xmlns:q="http://quakeml.org/xmlns/quakeml/1.2">
  <eventParameters publicID="smi:local/c483a22c-e0ee-4a8f-9949-d5b8abba465a">
    <event publicID="smi:local/f9558374-da52-435e-9c02-1757814793b2">
      <preferredOriginID>smi:local/b1eb3b19-6273-4e77-8dd4-b0dbede223d3</preferredOriginID>
      <comment>
        <text>CaMI.FRS microseismicity</text>
      </comment>
      <comment id="smi:local/fe08c20a-af92-4cbe-bc4d-ed21dee10296">
        <text>eqcorrscan_template_2020_02_20t08_47_52</text>
      </comment>
      <creationInfo>
        <author>Genevieve Savard   obs:./obs_picked5/merged.obs   NLLoc:v7.00.00(27Oct2017)</author>
        <creationTime>2020-09-18T19:53:20.000000Z</creationTime>
      </creationInfo>
      <origin publicID="smi:local/b1eb3b19-6273-4e77-8dd4-b0dbede223d3">
        <time>
          <value>2020-02-20T08:47:52.844539Z</value>
        </time>
        <latitude>
          <value>50.446955</value>
          <uncertainty>0.0005947134291509968</uncertainty>
        </latitude>
        <longitude>
          <value>-112.128278</value>
          <uncertainty>0.0007857647232808469</uncertainty>
        </longitude>
        <depth>
          <value>0.781</value>
          <uncertainty>26.850996257122382</uncertainty>
          <confidenceLevel>68.0</confidenceLevel>
        </depth>
        <depthType>from location</depthType>
        <quality>
          <associatedPhaseCount>33</associatedPhaseCount>
          <usedPhaseCount>33</usedPhaseCount>
          <associatedStationCount>-1</associatedStationCount>
          <usedStationCount>32</usedStationCount>
          <depthPhaseCount>-1</depthPhaseCount>
          <standardError>0.073101</standardError>
          <azimuthalGap>238.864</azimuthalGap>
          <secondaryAzimuthalGap>272.317</secondaryAzimuthalGap>
          <groundTruthLevel>-</groundTruthLevel>
          <minimumDistance>0.0010711999512419182</minimumDistance>
          <maximumDistance>0.010343367586153096</maximumDistance>
          <medianDistance>0.005784571467510162</medianDistance>
        </quality>
        <comment>
          <text>Note: Depth/Latitude/Longitude errors are calculated from covariance matrix as 1D marginal (Lon/Lat errors as great circle degrees) while OriginUncertainty min/max horizontal errors are calculated from 2D error ellipsoid and are therefore seemingly higher compared to 1D errors. Error estimates can be reconstructed from the following original NonLinLoc error statistics line:
STATISTICS ExpectX -0.61114 Y -0.441893 Z 0.03089  CovXX 0.00763405 XY 0.0039834 XZ -0.00180539 YY 0.00437306 YZ -0.00157299 ZZ 0.000720976 EllAz1  17.1103 Dip1  73.3074 Len1  0.0197831 Az2  323.311 Dip2  -10.0436 Len2  0.0786544 Len3  1.958373e-01</text>
        </comment>
        <creationInfo>
          <author>Genevieve Savard   obs:./obs_picked5/merged.obs   NLLoc:v7.00.00(27Oct2017)</author>
          <creationTime>2020-09-18T19:53:20.000000Z</creationTime>
        </creationInfo>
        <originUncertainty>
          <preferredDescription>uncertainty ellipse</preferredDescription>
          <minHorizontalUncertainty>62.5185</minHorizontalUncertainty>
          <maxHorizontalUncertainty>153.97299999999998</maxHorizontalUncertainty>
          <azimuthMaxHorizontalUncertainty>56.1302</azimuthMaxHorizontalUncertainty>
          <confidenceLevel>68.0</confidenceLevel>
        </originUncertainty>
        <arrival publicID="smi:local/6626cee0-9feb-4352-9e03-64746b389a69">
          <pickID>smi:local/f95d20e7-dea9-4cdc-98de-79b17c7b07ab</pickID>
          <phase>P</phase>
          <azimuth>359.0</azimuth>
          <distance>0.001071092032649208</distance>
          <takeoffAngle>
            <value>-1.0</value>
          </takeoffAngle>
          <timeResidual>-0.0031</timeResidual>
          <timeWeight>4.3184</timeWeight>
        </arrival>
        <arrival publicID="smi:local/7e290ba1-6c29-498d-8e4c-3989f04e2fda">
          <pickID>smi:local/f167cc1a-8ca2-4e2e-898a-816046f9e5cb</pickID>
          <phase>P</phase>
          <azimuth>359.0</azimuth>
          <distance>0.002877829138939938</distance>
          <takeoffAngle>
            <value>-1.0</value>
          </takeoffAngle>
          <timeResidual>-0.0138</timeResidual>
          <timeWeight>0.4643</timeWeight>
        </arrival>
        <arrival publicID="smi:local/7ce9f135-2b94-476c-8719-723112fc05df">
          <pickID>smi:local/5affa1e5-db6f-4455-9d27-e54e82b35e7f</pickID>
          <phase>S</phase>
          <azimuth>359.0</azimuth>
          <distance>0.002877829138939938</distance>
          <takeoffAngle>
            <value>-1.0</value>
          </takeoffAngle>
          <timeResidual>-0.0124</timeResidual>
          <timeWeight>0.4643</timeWeight>
        </arrival>
        <arrival publicID="smi:local/ab31bfa8-fb34-484d-bb1d-9545d875e02f">
          <pickID>smi:local/fd1fbdd3-0768-457d-9f9a-90bd9d6d8f73</pickID>
          <phase>S</phase>
          <azimuth>359.0</azimuth>
          <distance>0.004083819412476955</distance>
          <takeoffAngle>
            <value>-1.0</value>
          </takeoffAngle>
          <timeResidual>-0.0825</timeResidual>
          <timeWeight>4.1567</timeWeight>
        </arrival>
        <arrival publicID="smi:local/18c13b00-2917-4d43-9af8-58efd76d7914">
          <pickID>smi:local/75834d07-c2d1-4db2-9f0b-39637b023277</pickID>
          <phase>S</phase>
          <azimuth>359.0</azimuth>
          <distance>0.005509244157858143</distance>
          <takeoffAngle>
            <value>-1.0</value>
          </takeoffAngle>
          <timeResidual>-0.0446</timeResidual>
          <timeWeight>0.9458</timeWeight>
        </arrival>
        <arrival publicID="smi:local/1171aa1d-4733-4fa9-baf6-38eee669c078">
          <pickID>smi:local/2fcba0f0-6028-4260-8f4d-069a9be5378d</pickID>
          <phase>S</phase>
          <azimuth>359.0</azimuth>
          <distance>0.005765550815544982</distance>
          <takeoffAngle>
            <value>-1.0</value>
          </takeoffAngle>
          <timeResidual>-0.0512</timeResidual>
          <timeWeight>0.5705</timeWeight>
        </arrival>
        <arrival publicID="smi:local/9a1c8c97-5cc5-430e-9c8d-066fdafd0d30">
          <pickID>smi:local/0ec66252-bb1d-45d1-8d75-53a964356dbc</pickID>
          <phase>S</phase>
          <azimuth>359.0</azimuth>
          <distance>0.0057844365692692745</distance>
          <takeoffAngle>
            <value>-1.0</value>
          </takeoffAngle>
          <timeResidual>0.0419</timeResidual>
          <timeWeight>4.9478</timeWeight>
        </arrival>
        <arrival publicID="smi:local/9d2c5fd7-637d-4e54-b11e-4e571b574db4">
          <pickID>smi:local/43637fe7-b6a2-482b-afc6-939df2f327d2</pickID>
          <phase>S</phase>
          <azimuth>359.0</azimuth>
          <distance>0.0057844365692692745</distance>
          <takeoffAngle>
            <value>-1.0</value>
          </takeoffAngle>
          <timeResidual>0.0316</timeResidual>
          <timeWeight>1.2673</timeWeight>
        </arrival>
        <arrival publicID="smi:local/3e572713-e907-43ae-b310-bd84ed38ab73">
          <pickID>smi:local/2b9d4245-d1dc-43a5-8204-bfaf94ed0af8</pickID>
          <phase>S</phase>
          <azimuth>359.0</azimuth>
          <distance>0.0057844365692692745</distance>
          <takeoffAngle>
            <value>-1.0</value>
          </takeoffAngle>
          <timeResidual>0.0437</timeResidual>
          <timeWeight>1.099</timeWeight>
        </arrival>
        <arrival publicID="smi:local/34d4d571-26c1-436a-929b-6833db896683">
          <pickID>smi:local/5dbfe29d-0cc9-4419-9ecc-8047032ae009</pickID>
          <phase>S</phase>
          <azimuth>359.0</azimuth>
          <distance>0.0057844365692692745</distance>
          <takeoffAngle>
            <value>-1.0</value>
          </takeoffAngle>
          <timeResidual>0.0456</timeResidual>
          <timeWeight>0.7556</timeWeight>
        </arrival>
        <arrival publicID="smi:local/d5b686a0-5f51-434e-9d36-ff06a41411dd">
          <pickID>smi:local/bed1e389-af53-4dcf-ad19-91007c6f7b4e</pickID>
          <phase>S</phase>
          <azimuth>359.0</azimuth>
          <distance>0.0057844365692692745</distance>
          <takeoffAngle>
            <value>-1.0</value>
          </takeoffAngle>
          <timeResidual>0.0599</timeResidual>
          <timeWeight>0.4196</timeWeight>
        </arrival>
        <arrival publicID="smi:local/774d0679-bada-4fb6-b7dd-2ae4bc2d7ef3">
          <pickID>smi:local/fe8f740e-dc3f-425c-846f-533b836cff17</pickID>
          <phase>S</phase>
          <azimuth>359.0</azimuth>
          <distance>0.0057844365692692745</distance>
          <takeoffAngle>
            <value>-1.0</value>
          </takeoffAngle>
          <timeResidual>0.0509</timeResidual>
          <timeWeight>1.5148</timeWeight>
        </arrival>
        <arrival publicID="smi:local/8bcd0acd-25ee-4a6c-93e8-49ac4c9d6632">
          <pickID>smi:local/cf2fce9b-485e-48b8-8b6f-857f45b2309d</pickID>
          <phase>S</phase>
          <azimuth>359.0</azimuth>
          <distance>0.0057844365692692745</distance>
          <takeoffAngle>
            <value>-1.0</value>
          </takeoffAngle>
          <timeResidual>0.0645</timeResidual>
          <timeWeight>0.5516</timeWeight>
        </arrival>
        <arrival publicID="smi:local/0f6bd641-09bb-430b-9c22-5de0df28507f">
          <pickID>smi:local/99e73c35-eddd-4af6-8b8b-01c575e63070</pickID>
          <phase>S</phase>
          <azimuth>359.0</azimuth>
          <distance>0.0057844365692692745</distance>
          <takeoffAngle>
            <value>-1.0</value>
          </takeoffAngle>
          <timeResidual>0.073</timeResidual>
          <timeWeight>0.4196</timeWeight>
        </arrival>
        <arrival publicID="smi:local/b51285c3-a651-4b27-8a7f-d984046ea20b">
          <pickID>smi:local/573ea840-aa94-4cbd-a78a-4416be625265</pickID>
          <phase>S</phase>
          <azimuth>359.0</azimuth>
          <distance>0.0057844365692692745</distance>
          <takeoffAngle>
            <value>-1.0</value>
          </takeoffAngle>
          <timeResidual>0.07</timeResidual>
          <timeWeight>0.9932</timeWeight>
        </arrival>
        <arrival publicID="smi:local/ad42d106-1517-45ef-9148-a9f456b9a30b">
          <pickID>smi:local/1a166f5a-00ed-4ffa-9f0e-717312219c23</pickID>
          <phase>S</phase>
          <azimuth>359.0</azimuth>
          <distance>0.0057844365692692745</distance>
          <takeoffAngle>
            <value>-1.0</value>
          </takeoffAngle>
          <timeResidual>0.0716</timeResidual>
          <timeWeight>1.2293</timeWeight>
        </arrival>
        <arrival publicID="smi:local/5b91dfca-1ebb-43ad-bf98-fcfe4e1b0093">
          <pickID>smi:local/a44db84d-f844-4adf-b12d-244be4b3a551</pickID>
          <phase>S</phase>
          <azimuth>359.0</azimuth>
          <distance>0.0057844365692692745</distance>
          <takeoffAngle>
            <value>-1.0</value>
          </takeoffAngle>
          <timeResidual>0.0838</timeResidual>
          <timeWeight>1.2145</timeWeight>
        </arrival>
        <arrival publicID="smi:local/43e9227b-741e-478a-bdfd-a488225a426f">
          <pickID>smi:local/8316624c-d7c2-4ae0-b277-ae44c6f68728</pickID>
          <phase>S</phase>
          <azimuth>359.0</azimuth>
          <distance>0.0057844365692692745</distance>
          <takeoffAngle>
            <value>-1.0</value>
          </takeoffAngle>
          <timeResidual>0.1804</timeResidual>
          <timeWeight>0.4643</timeWeight>
        </arrival>
        <arrival publicID="smi:local/df8e0582-3e3b-4b3a-afbd-22dd6641cc3a">
          <pickID>smi:local/34e98e5e-f76f-47e5-b2d2-b76a465cb7cc</pickID>
          <phase>S</phase>
          <azimuth>359.0</azimuth>
          <distance>0.0057844365692692745</distance>
          <takeoffAngle>
            <value>-1.0</value>
          </takeoffAngle>
          <timeResidual>0.1818</timeResidual>
          <timeWeight>0.4643</timeWeight>
        </arrival>
        <arrival publicID="smi:local/77dd3e10-6330-4f30-8b4c-fe97c2730b58">
          <pickID>smi:local/62a3d934-efbf-44e3-88ac-8e4c8811aa5d</pickID>
          <phase>S</phase>
          <azimuth>359.0</azimuth>
          <distance>0.005890556518767685</distance>
          <takeoffAngle>
            <value>-1.0</value>
          </takeoffAngle>
          <timeResidual>-0.0566</timeResidual>
          <timeWeight>0.9458</timeWeight>
        </arrival>
        <arrival publicID="smi:local/b6e36072-eadf-4534-8034-05940842024d">
          <pickID>smi:local/c128b053-492f-4924-b10b-1a664caa89d3</pickID>
          <phase>S</phase>
          <azimuth>359.0</azimuth>
          <distance>0.005912140237309734</distance>
          <takeoffAngle>
            <value>-1.0</value>
          </takeoffAngle>
          <timeResidual>-0.0556</timeResidual>
          <timeWeight>0.4643</timeWeight>
        </arrival>
        <arrival publicID="smi:local/994e696e-2bff-468a-b93f-dbd8d7a68e62">
          <pickID>smi:local/40905dce-6154-4806-8f48-5b4610161685</pickID>
          <phase>S</phase>
          <azimuth>359.0</azimuth>
          <distance>0.005919334810157085</distance>
          <takeoffAngle>
            <value>-1.0</value>
          </takeoffAngle>
          <timeResidual>-0.0863</timeResidual>
          <timeWeight>0.4643</timeWeight>
        </arrival>
        <arrival publicID="smi:local/db9af204-6299-496c-b705-8bfc20dcd015">
          <pickID>smi:local/049e7e34-e5fa-46d6-8ebd-5d3559dc60d7</pickID>
          <phase>S</phase>
          <azimuth>359.0</azimuth>
          <distance>0.006037145940532438</distance>
          <takeoffAngle>
            <value>-1.0</value>
          </takeoffAngle>
          <timeResidual>-0.0484</timeResidual>
          <timeWeight>0.3428</timeWeight>
        </arrival>
        <arrival publicID="smi:local/87078951-2882-48af-9659-aa4b2c895af6">
          <pickID>smi:local/4d12be5a-0a6a-4db2-85e0-f9ddb002f95c</pickID>
          <phase>S</phase>
          <azimuth>359.0</azimuth>
          <distance>0.006223305512957615</distance>
          <takeoffAngle>
            <value>-1.0</value>
          </takeoffAngle>
          <timeResidual>-0.1426</timeResidual>
          <timeWeight>0.4643</timeWeight>
        </arrival>
        <arrival publicID="smi:local/3fd0265f-e085-4a2e-82b5-b26c242943e9">
          <pickID>smi:local/bb66f917-e891-48af-9210-fd18f2ec0a4d</pickID>
          <phase>S</phase>
          <azimuth>359.0</azimuth>
          <distance>0.006385183402022986</distance>
          <takeoffAngle>
            <value>-1.0</value>
          </takeoffAngle>
          <timeResidual>-0.0943</timeResidual>
          <timeWeight>0.3428</timeWeight>
        </arrival>
        <arrival publicID="smi:local/8f59f0ef-cf59-4f30-ae5b-289573cfca47">
          <pickID>smi:local/2abda983-3bbd-4c6d-b8a4-a583d1e2c493</pickID>
          <phase>S</phase>
          <azimuth>359.0</azimuth>
          <distance>0.006551557899117952</distance>
          <takeoffAngle>
            <value>-1.0</value>
          </takeoffAngle>
          <timeResidual>-0.1015</timeResidual>
          <timeWeight>0.4643</timeWeight>
        </arrival>
        <arrival publicID="smi:local/9ee50fa5-087a-4def-94aa-b1f0744cac25">
          <pickID>smi:local/2138ccd1-c686-42cd-90a8-5ede162c9df2</pickID>
          <phase>S</phase>
          <azimuth>359.0</azimuth>
          <distance>0.006763797798114772</distance>
          <takeoffAngle>
            <value>-1.0</value>
          </takeoffAngle>
          <timeResidual>0.0228</timeResidual>
          <timeWeight>0.4643</timeWeight>
        </arrival>
        <arrival publicID="smi:local/f492f306-ab6c-496b-a081-300d5bd7690b">
          <pickID>smi:local/251101c1-bc87-43ba-80bf-788a7a6d101a</pickID>
          <phase>S</phase>
          <azimuth>359.0</azimuth>
          <distance>0.00721255927946822</distance>
          <takeoffAngle>
            <value>-1.0</value>
          </takeoffAngle>
          <timeResidual>-0.0182</timeResidual>
          <timeWeight>0.4643</timeWeight>
        </arrival>
        <arrival publicID="smi:local/46ab6297-f3d7-4e50-8934-020b5cffccc3">
          <pickID>smi:local/2191e19e-ad6c-44d1-8026-7bb5804ebd20</pickID>
          <phase>S</phase>
          <azimuth>359.0</azimuth>
          <distance>0.0074805571180320005</distance>
          <takeoffAngle>
            <value>-1.0</value>
          </takeoffAngle>
          <timeResidual>0.034</timeResidual>
          <timeWeight>0.4643</timeWeight>
        </arrival>
        <arrival publicID="smi:local/b5902952-b6eb-4736-8b85-1126975b22a5">
          <pickID>smi:local/b554f0e6-3273-47c7-a6c3-84c306a0b1fa</pickID>
          <phase>S</phase>
          <azimuth>359.0</azimuth>
          <distance>0.007822299328281119</distance>
          <takeoffAngle>
            <value>-1.0</value>
          </takeoffAngle>
          <timeResidual>-0.0931</timeResidual>
          <timeWeight>0.4643</timeWeight>
        </arrival>
        <arrival publicID="smi:local/ef73ea6e-3df4-4f79-9823-8425541b14b8">
          <pickID>smi:local/15375e77-b204-449b-80c8-8a466e77d4a9</pickID>
          <phase>S</phase>
          <azimuth>359.0</azimuth>
          <distance>0.008937458119620344</distance>
          <takeoffAngle>
            <value>-1.0</value>
          </takeoffAngle>
          <timeResidual>0.0138</timeResidual>
          <timeWeight>0.4643</timeWeight>
        </arrival>
        <arrival publicID="smi:local/4df8ee94-19c5-449e-a85c-d3bc46379fd6">
          <pickID>smi:local/981a0750-d08b-4465-b655-19bf4c74445c</pickID>
          <phase>S</phase>
          <azimuth>359.0</azimuth>
          <distance>0.009081349576567341</distance>
          <takeoffAngle>
            <value>-1.0</value>
          </takeoffAngle>
          <timeResidual>-0.1452</timeResidual>
          <timeWeight>0.4643</timeWeight>
        </arrival>
        <arrival publicID="smi:local/99a956a6-9af1-4e68-871a-abef133f099d">
          <pickID>smi:local/08fd33c1-ba94-4137-9b6c-40a223a577f6</pickID>
          <phase>S</phase>
          <azimuth>359.0</azimuth>
          <distance>0.010343097789671319</distance>
          <takeoffAngle>
            <value>-1.0</value>
          </takeoffAngle>
          <timeResidual>-0.2536</timeResidual>
          <timeWeight>0.4643</timeWeight>
        </arrival>
      </origin>
      <pick publicID="smi:local/bed1e389-af53-4dcf-ad19-91007c6f7b4e">
        <time>
          <value>2020-02-20T08:47:53.601700Z</value>
          <uncertainty>0.0527</uncertainty>
        </time>
        <waveformID networkCode="XX" stationCode="G2" channelCode="DPE"></waveformID>
        <phaseHint>S</phaseHint>
      </pick>
      <pick publicID="smi:local/981a0750-d08b-4465-b655-19bf4c74445c">
        <time>
          <value>2020-02-20T08:47:53.866200Z</value>
          <uncertainty>0.05</uncertainty>
        </time>
        <waveformID networkCode="XX" stationCode="F0708" channelCode="DPZ"></waveformID>
        <phaseHint>S</phaseHint>
      </pick>
      <pick publicID="smi:local/f167cc1a-8ca2-4e2e-898a-816046f9e5cb">
        <time>
          <value>2020-02-20T08:47:53.040600Z</value>
          <uncertainty>0.05</uncertainty>
        </time>
        <waveformID networkCode="XX" stationCode="F0203" channelCode="DPZ"></waveformID>
        <phaseHint>P</phaseHint>
      </pick>
      <pick publicID="smi:local/5affa1e5-db6f-4455-9d27-e54e82b35e7f">
        <time>
          <value>2020-02-20T08:47:53.405900Z</value>
          <uncertainty>0.05</uncertainty>
        </time>
        <waveformID networkCode="XX" stationCode="F0203" channelCode="DPN"></waveformID>
        <phaseHint>S</phaseHint>
      </pick>
      <pick publicID="smi:local/1a166f5a-00ed-4ffa-9f0e-717312219c23">
        <time>
          <value>2020-02-20T08:47:53.624700Z</value>
