<?xml version='1.0' encoding='utf-8'?>
<q:quakeml xmlns="http://quakeml.org/xmlns/bed/1.2" xmlns:q="http://quakeml.org/xmlns/quakeml/1.2">
  <eventParameters publicID="smi:local/75538428-dbbb-4f7f-84dc-2372e13b359a">
    <event publicID="smi:local/4093d445-24f0-45b1-be82-017da0a687b9">
      <preferredOriginID>smi:local/4820c79d-ac8c-40b2-9359-a959105f1a05</preferredOriginID>
      <comment>
        <text>CaMI.FRS microseismicity</text>
      </comment>
      <comment id="smi:local/f60fd327-46a8-48b4-b789-39602a55d858">
        <text>eqcorrscan_template_2020_03_10t05_01_34</text>
      </comment>
      <creationInfo>
        <author>Genevieve Savard   obs:./obs_picked1/merged.obs   NLLoc:v7.00.00(27Oct2017)</author>
        <creationTime>2020-08-21T16:08:25.000000Z</creationTime>
      </creationInfo>
      <origin publicID="smi:local/4820c79d-ac8c-40b2-9359-a959105f1a05">
        <time>
          <value>2020-03-10T05:01:34.356378Z</value>
        </time>
        <latitude>
          <value>50.450577</value>
          <uncertainty>0.00021276189250456668</uncertainty>
        </latitude>
        <longitude>
          <value>-112.121069</value>
          <uncertainty>0.0004582173756888634</uncertainty>
        </longitude>
        <depth>
          <value>49.219</value>
          <uncertainty>77.72264792195386</uncertainty>
          <confidenceLevel>68.0</confidenceLevel>
        </depth>
        <depthType>from location</depthType>
        <quality>
          <associatedPhaseCount>13</associatedPhaseCount>
          <usedPhaseCount>13</usedPhaseCount>
          <associatedStationCount>-1</associatedStationCount>
          <usedStationCount>7</usedStationCount>
          <depthPhaseCount>-1</depthPhaseCount>
          <standardError>0.0243612</standardError>
          <azimuthalGap>100.872</azimuthalGap>
          <secondaryAzimuthalGap>182.543</secondaryAzimuthalGap>
          <groundTruthLevel>-</groundTruthLevel>
          <minimumDistance>0.0016220074552189632</minimumDistance>
          <maximumDistance>0.005993321998676018</maximumDistance>
          <medianDistance>0.002186637532278979</medianDistance>
        </quality>
        <comment>
          <text>Note: Depth/Latitude/Longitude errors are calculated from covariance matrix as 1D marginal (Lon/Lat errors as great circle degrees) while OriginUncertainty min/max horizontal errors are calculated from 2D error ellipsoid and are therefore seemingly higher compared to 1D errors. Error estimates can be reconstructed from the following original NonLinLoc error statistics line:
STATISTICS ExpectX -0.0789964 Y 0.0132605 Z 0.122725  CovXX 0.00259605 XY 0.000191978 XZ -0.00314626 YY 0.000559703 YZ -6.33379e-05 ZZ 0.00604081 EllAz1  334.639 Dip1  -13.0754 Len1  0.0413763 Az2  237.775 Dip2  -27.2309 Len2  0.0532454 Len3  1.670833e-01</text>
        </comment>
        <creationInfo>
          <author>Genevieve Savard   obs:./obs_picked1/merged.obs   NLLoc:v7.00.00(27Oct2017)</author>
          <creationTime>2020-08-21T16:08:25.000000Z</creationTime>
        </creationInfo>
        <originUncertainty>
          <preferredDescription>uncertainty ellipse</preferredDescription>
          <minHorizontalUncertainty>35.299499999999995</minHorizontalUncertainty>
          <maxHorizontalUncertainty>77.5383</maxHorizontalUncertainty>
          <azimuthMaxHorizontalUncertainty>84.6611</azimuthMaxHorizontalUncertainty>
          <confidenceLevel>68.0</confidenceLevel>
        </originUncertainty>
        <arrival publicID="smi:local/93bab4d1-9b85-49bd-9ec6-c68961992549">
          <pickID>smi:local/62ca6e99-104a-4e65-a9a3-6de811eba0c3</pickID>
          <phase>P</phase>
          <azimuth>359.0</azimuth>
          <distance>0.0016223761770773899</distance>
          <takeoffAngle>
            <value>-1.0</value>
          </takeoffAngle>
          <timeResidual>0.0187</timeResidual>
          <timeWeight>1.9792</timeWeight>
        </arrival>
        <arrival publicID="smi:local/914b96d7-e672-4e90-939b-e87e64c3f726">
          <pickID>smi:local/c6286bce-f0bb-454f-8d98-5694d5c6b396</pickID>
          <phase>S</phase>
          <azimuth>359.0</azimuth>
          <distance>0.0016223761770773899</distance>
          <takeoffAngle>
            <value>-1.0</value>
          </takeoffAngle>
          <timeResidual>-0.0195</timeResidual>
          <timeWeight>1.09</timeWeight>
        </arrival>
        <arrival publicID="smi:local/02167a13-2700-4151-ab04-75b9ab6868de">
          <pickID>smi:local/0cb93661-e347-4913-9e4e-9f8e791926aa</pickID>
          <phase>S</phase>
          <azimuth>359.0</azimuth>
          <distance>0.0018696896187050409</distance>
          <takeoffAngle>
            <value>-1.0</value>
          </takeoffAngle>
          <timeResidual>-0.0509</timeResidual>
          <timeWeight>0.5642</timeWeight>
        </arrival>
        <arrival publicID="smi:local/0896669c-ca19-4a38-900b-321c3818f73b">
          <pickID>smi:local/836bb486-f86c-4c02-b41d-6cc75278c250</pickID>
          <phase>P</phase>
          <azimuth>359.0</azimuth>
          <distance>0.001979406854627126</distance>
          <takeoffAngle>
            <value>-1.0</value>
          </takeoffAngle>
          <timeResidual>0.0348</timeResidual>
          <timeWeight>1.09</timeWeight>
        </arrival>
        <arrival publicID="smi:local/2487cf88-bb48-47da-bf87-3c70d0e4d9dd">
          <pickID>smi:local/c88d6311-0f84-48e6-a6c1-648d82e194b1</pickID>
          <phase>S</phase>
          <azimuth>359.0</azimuth>
          <distance>0.001979406854627126</distance>
          <takeoffAngle>
            <value>-1.0</value>
          </takeoffAngle>
          <timeResidual>-0.0219</timeResidual>
          <timeWeight>0.8509</timeWeight>
        </arrival>
        <arrival publicID="smi:local/06e06961-9d93-43b4-84a7-9bab2301cafc">
          <pickID>smi:local/24648949-c228-4851-8beb-013fcc73bc37</pickID>
          <phase>P</phase>
          <azimuth>359.0</azimuth>
          <distance>0.002186250823988434</distance>
          <takeoffAngle>
            <value>-1.0</value>
          </takeoffAngle>
          <timeResidual>-0.0011</timeResidual>
          <timeWeight>2.85</timeWeight>
        </arrival>
        <arrival publicID="smi:local/f3d54d64-2c20-4279-9b7b-bf87d7be6032">
          <pickID>smi:local/17312763-6354-4847-86f3-0aafc75f05c4</pickID>
          <phase>S</phase>
          <azimuth>359.0</azimuth>
          <distance>0.002186250823988434</distance>
          <takeoffAngle>
            <value>-1.0</value>
          </takeoffAngle>
          <timeResidual>-0.0144</timeResidual>
          <timeWeight>0.6814</timeWeight>
        </arrival>
        <arrival publicID="smi:local/f5ca98b7-08b3-4bd3-99c5-db038d843fb7">
          <pickID>smi:local/972ddaa7-92d5-4196-9dd6-59ccf9e3a5f8</pickID>
          <phase>P</phase>
          <azimuth>359.0</azimuth>
          <distance>0.003241155067731105</distance>
          <takeoffAngle>
            <value>-1.0</value>
          </takeoffAngle>
          <timeResidual>0.0108</timeResidual>
          <timeWeight>0.8509</timeWeight>
        </arrival>
        <arrival publicID="smi:local/21844aba-9446-4d00-b6b4-cba9321a8275">
          <pickID>smi:local/532695a3-cc0b-4444-a6d4-a268cd7eb13c</pickID>
          <phase>S</phase>
          <azimuth>359.0</azimuth>
          <distance>0.003241155067731105</distance>
          <takeoffAngle>
            <value>-1.0</value>
          </takeoffAngle>
          <timeResidual>-0.039</timeResidual>
          <timeWeight>1.09</timeWeight>
        </arrival>
        <arrival publicID="smi:local/bb6303f5-a8cf-4715-ad67-39796861090c">
          <pickID>smi:local/087df8bd-7fb9-49b0-919c-dc3f14938f31</pickID>
          <phase>P</phase>
          <azimuth>359.0</azimuth>
          <distance>0.004506500567258758</distance>
          <takeoffAngle>
            <value>-1.0</value>
          </takeoffAngle>
          <timeResidual>0.0383</timeResidual>
          <timeWeight>0.3365</timeWeight>
        </arrival>
        <arrival publicID="smi:local/da222157-e75c-4d40-af84-443ff0abfe89">
          <pickID>smi:local/cba5945a-bcaa-4b49-bf2c-2a94cb70bd90</pickID>
          <phase>S</phase>
          <azimuth>359.0</azimuth>
          <distance>0.004506500567258758</distance>
          <takeoffAngle>
            <value>-1.0</value>
          </takeoffAngle>
          <timeResidual>0.0082</timeResidual>
          <timeWeight>0.6814</timeWeight>
        </arrival>
        <arrival publicID="smi:local/154dbf6e-3ed4-4b37-bd50-ec9b00b91523">
          <pickID>smi:local/d1fea6d5-586d-47a9-bdde-6b6994b53a95</pickID>
          <phase>P</phase>
          <azimuth>359.0</azimuth>
          <distance>0.005993079181842421</distance>
          <takeoffAngle>
            <value>-1.0</value>
          </takeoffAngle>
          <timeResidual>-0.0146</timeResidual>
          <timeWeight>0.2542</timeWeight>
        </arrival>
        <arrival publicID="smi:local/0c26ec86-4c96-4877-9796-e055781fecbe">
          <pickID>smi:local/921757a4-3b81-4689-9958-4ddf58fe1768</pickID>
          <phase>S</phase>
          <azimuth>359.0</azimuth>
          <distance>0.005993079181842421</distance>
          <takeoffAngle>
            <value>-1.0</value>
          </takeoffAngle>
          <timeResidual>0.0367</timeResidual>
          <timeWeight>0.6814</timeWeight>
        </arrival>
      </origin>
      <pick publicID="smi:local/0cb93661-e347-4913-9e4e-9f8e791926aa">
        <time>
          <value>2020-03-10T05:01:34.675700Z</value>
          <uncertainty>0.0466</uncertainty>
        </time>
        <waveformID networkCode="XX" stationCode="F0304" channelCode="DPN"></waveformID>
        <phaseHint>S</phaseHint>
      </pick>
      <pick publicID="smi:local/087df8bd-7fb9-49b0-919c-dc3f14938f31">
        <time>
          <value>2020-03-10T05:01:34.672000Z</value>
          <uncertainty>0.0609</uncertainty>
        </time>
        <waveformID networkCode="XX" stationCode="F0809" channelCode="DPZ"></waveformID>
        <phaseHint>P</phaseHint>
      </pick>
      <pick publicID="smi:local/cba5945a-bcaa-4b49-bf2c-2a94cb70bd90">
        <time>
          <value>2020-03-10T05:01:35.046800Z</value>
          <uncertainty>0.0422</uncertainty>
        </time>
        <waveformID networkCode="XX" stationCode="F0809" channelCode="DPE"></waveformID>
        <phaseHint>S</phaseHint>
      </pick>
      <pick publicID="smi:local/d1fea6d5-586d-47a9-bdde-6b6994b53a95">
        <time>
          <value>2020-03-10T05:01:34.681300Z</value>
          <uncertainty>0.0703</uncertainty>
        </time>
        <waveformID networkCode="XX" stationCode="F0901" channelCode="DPZ"></waveformID>
        <phaseHint>P</phaseHint>
      </pick>
      <pick publicID="smi:local/921757a4-3b81-4689-9958-4ddf58fe1768">
        <time>
          <value>2020-03-10T05:01:35.206200Z</value>
          <uncertainty>0.0422</uncertainty>
        </time>
        <waveformID networkCode="XX" stationCode="F0901" channelCode="DPZ"></waveformID>
        <phaseHint>S</phaseHint>
      </pick>
      <pick publicID="smi:local/62ca6e99-104a-4e65-a9a3-6de811eba0c3">
        <time>
          <value>2020-03-10T05:01:34.493900Z</value>
          <uncertainty>0.0234</uncertainty>
        </time>
        <waveformID networkCode="XX" stationCode="F0307" channelCode="DPZ"></waveformID>
        <phaseHint>P</phaseHint>
      </pick>
      <pick publicID="smi:local/c6286bce-f0bb-454f-8d98-5694d5c6b396">
        <time>
          <value>2020-03-10T05:01:34.662600Z</value>
          <uncertainty>0.0328</uncertainty>
        </time>
        <waveformID networkCode="XX" stationCode="F0307" channelCode="DPN"></waveformID>
        <phaseHint>S</phaseHint>
      </pick>
      <pick publicID="smi:local/836bb486-f86c-4c02-b41d-6cc75278c250">
        <time>
          <value>2020-03-10T05:01:34.531400Z</value>
          <uncertainty>0.0328</uncertainty>
        </time>
        <waveformID networkCode="XX" stationCode="F0607" channelCode="DPZ"></waveformID>
        <phaseHint>P</phaseHint>
      </pick>
      <pick publicID="smi:local/c88d6311-0f84-48e6-a6c1-648d82e194b1">
        <time>
          <value>2020-03-10T05:01:34.723500Z</value>
          <uncertainty>0.0375</uncertainty>
        </time>
        <waveformID networkCode="XX" stationCode="F0607" channelCode="DPE"></waveformID>
        <phaseHint>S</phaseHint>
      </pick>
      <pick publicID="smi:local/972ddaa7-92d5-4196-9dd6-59ccf9e3a5f8">
        <time>
          <value>2020-03-10T05:01:34.582900Z</value>
          <uncertainty>0.0375</uncertainty>
        </time>
        <waveformID networkCode="XX" stationCode="F0708" channelCode="DPZ"></waveformID>
        <phaseHint>P</phaseHint>
      </pick>
      <pick publicID="smi:local/532695a3-cc0b-4444-a6d4-a268cd7eb13c">
        <time>
          <value>2020-03-10T05:01:34.887500Z</value>
          <uncertainty>0.0328</uncertainty>
        </time>
        <waveformID networkCode="XX" stationCode="F0708" channelCode="DPZ"></waveformID>
        <phaseHint>S</phaseHint>
      </pick>
      <pick publicID="smi:local/24648949-c228-4851-8beb-013fcc73bc37">
        <time>
          <value>2020-03-10T05:01:34.507900Z</value>
          <uncertainty>0.0187</uncertainty>
        </time>
        <waveformID networkCode="XX" stationCode="F0604" channelCode="DPZ"></waveformID>
        <phaseHint>P</phaseHint>
      </pick>
      <pick publicID="smi:local/17312763-6354-4847-86f3-0aafc75f05c4">
        <time>
          <value>2020-03-10T05:01:34.765700Z</value>
          <uncertainty>0.0422</uncertainty>
        </time>
        <waveformID networkCode="XX" stationCode="F0604" channelCode="DPE"></waveformID>
        <phaseHint>S</phaseHint>
      </pick>
    </event>
  </eventParameters>
</q:quakeml>
