<?xml version='1.0' encoding='utf-8'?>
<q:quakeml xmlns="http://quakeml.org/xmlns/bed/1.2" xmlns:q="http://quakeml.org/xmlns/quakeml/1.2">
  <eventParameters publicID="smi:local/da6ebbc2-8686-4119-b432-d32a3d8f2ec0">
    <event publicID="smi:local/aa2de2f6-a862-4ae9-84d2-358071b60db4">
      <preferredOriginID>smi:local/fb084534-4ed6-4e59-bfdd-5dc73bff57da</preferredOriginID>
      <comment>
        <text>CaMI.FRS microseismicity</text>
      </comment>
      <comment id="smi:local/8a022927-2456-45e2-915f-1246a42f3b30">
        <text>eqcorrscan_template_2020_03_10t05_22_51</text>
      </comment>
      <creationInfo>
        <author>Genevieve Savard   obs:./obs_picked5/merged.obs   NLLoc:v7.00.00(27Oct2017)</author>
        <creationTime>2020-09-18T19:56:55.000000Z</creationTime>
      </creationInfo>
      <origin publicID="smi:local/fb084534-4ed6-4e59-bfdd-5dc73bff57da">
        <time>
          <value>2020-03-10T05:22:51.716781Z</value>
        </time>
        <latitude>
          <value>50.45043</value>
          <uncertainty>0.0008703881491429686</uncertainty>
        </latitude>
        <longitude>
          <value>-112.120639</value>
          <uncertainty>0.0008454885878469001</uncertainty>
        </longitude>
        <depth>
          <value>45.313</value>
          <uncertainty>41.6230705258514</uncertainty>
          <confidenceLevel>68.0</confidenceLevel>
        </depth>
        <depthType>from location</depthType>
        <quality>
          <associatedPhaseCount>16</associatedPhaseCount>
          <usedPhaseCount>16</usedPhaseCount>
          <associatedStationCount>-1</associatedStationCount>
          <usedStationCount>16</usedStationCount>
          <depthPhaseCount>-1</depthPhaseCount>
          <standardError>0.139709</standardError>
          <azimuthalGap>360.0</azimuthalGap>
          <secondaryAzimuthalGap>360.0</secondaryAzimuthalGap>
          <groundTruthLevel>-</groundTruthLevel>
          <minimumDistance>0.00018934946616137096</minimumDistance>
          <maximumDistance>0.00018934946616137096</maximumDistance>
          <medianDistance>0.00018934946616137096</medianDistance>
        </quality>
        <comment>
          <text>Note: Depth/Latitude/Longitude errors are calculated from covariance matrix as 1D marginal (Lon/Lat errors as great circle degrees) while OriginUncertainty min/max horizontal errors are calculated from 2D error ellipsoid and are therefore seemingly higher compared to 1D errors. Error estimates can be reconstructed from the following original NonLinLoc error statistics line:
STATISTICS ExpectX -0.00250015 Y -0.005007 Z 0.0694694  CovXX 0.00883864 XY 9.37618e-06 XZ 0.000325544 YY 0.0093669 YZ 0.000122779 ZZ 0.00173248 EllAz1  70.7075 Dip1  -87.229 Len1  0.0778217 Az2  91.6642 Dip2  2.58792 Len2  0.176781 Len3  1.818614e-01</text>
        </comment>
        <creationInfo>
          <author>Genevieve Savard   obs:./obs_picked5/merged.obs   NLLoc:v7.00.00(27Oct2017)</author>
          <creationTime>2020-09-18T19:56:55.000000Z</creationTime>
        </creationInfo>
        <originUncertainty>
          <preferredDescription>uncertainty ellipse</preferredDescription>
          <minHorizontalUncertainty>142.578</minHorizontalUncertainty>
          <maxHorizontalUncertainty>146.78</maxHorizontalUncertainty>
          <azimuthMaxHorizontalUncertainty>1.01654</azimuthMaxHorizontalUncertainty>
          <confidenceLevel>68.0</confidenceLevel>
        </originUncertainty>
        <arrival publicID="smi:local/8baeade6-1629-44ef-8dfd-8f0a8b183a9b">
          <pickID>smi:local/8bb9a679-30ce-45bd-a459-e79db5bef367</pickID>
          <phase>P</phase>
          <azimuth>359.0</azimuth>
          <distance>0.00018975685884885216</distance>
          <takeoffAngle>
            <value>-1.0</value>
          </takeoffAngle>
          <timeResidual>-0.0081</timeResidual>
          <timeWeight>1.0</timeWeight>
        </arrival>
        <arrival publicID="smi:local/170d0548-17ea-4023-999f-74c73a1c3ec7">
          <pickID>smi:local/cdf29148-66b0-4ae9-8e82-426deded3539</pickID>
          <phase>P</phase>
          <azimuth>359.0</azimuth>
          <distance>0.00018975685884885216</distance>
          <takeoffAngle>
            <value>-1.0</value>
          </takeoffAngle>
          <timeResidual>0.0006</timeResidual>
          <timeWeight>1.0</timeWeight>
        </arrival>
        <arrival publicID="smi:local/f23654b4-cebc-42a7-b930-d6c5befa1bb3">
          <pickID>smi:local/ced55c29-5fc6-4f59-970f-859ad9b8e106</pickID>
          <phase>P</phase>
          <azimuth>359.0</azimuth>
          <distance>0.00018975685884885216</distance>
          <takeoffAngle>
            <value>-1.0</value>
          </takeoffAngle>
          <timeResidual>0.0087</timeResidual>
          <timeWeight>1.0</timeWeight>
        </arrival>
        <arrival publicID="smi:local/02d755f0-c947-4881-babd-37a2f2ab5835">
          <pickID>smi:local/721a4c43-eab0-4d25-bb07-959e131e4d37</pickID>
          <phase>S</phase>
          <azimuth>359.0</azimuth>
          <distance>0.00018975685884885216</distance>
          <takeoffAngle>
            <value>-1.0</value>
          </takeoffAngle>
          <timeResidual>-0.12</timeResidual>
          <timeWeight>1.0</timeWeight>
        </arrival>
        <arrival publicID="smi:local/d31d6766-4183-4971-94ab-6e975196b642">
          <pickID>smi:local/1eae4c89-0575-40a1-b111-3328c48b894e</pickID>
          <phase>S</phase>
          <azimuth>359.0</azimuth>
          <distance>0.00018975685884885216</distance>
          <takeoffAngle>
            <value>-1.0</value>
          </takeoffAngle>
          <timeResidual>-0.132</timeResidual>
          <timeWeight>1.0</timeWeight>
        </arrival>
        <arrival publicID="smi:local/4cb9aa18-1475-4ec9-a608-e527bac02b4a">
          <pickID>smi:local/03c67899-248f-4c45-8f6c-d72b13d03c33</pickID>
          <phase>S</phase>
          <azimuth>359.0</azimuth>
          <distance>0.00018975685884885216</distance>
          <takeoffAngle>
            <value>-1.0</value>
          </takeoffAngle>
          <timeResidual>-0.1108</timeResidual>
          <timeWeight>1.0</timeWeight>
        </arrival>
        <arrival publicID="smi:local/c3f68cbe-6b38-4f7c-adb5-94f9a82427d9">
          <pickID>smi:local/a20b642b-12ac-47cf-a130-a07a93a1e841</pickID>
          <phase>S</phase>
          <azimuth>359.0</azimuth>
          <distance>0.00018975685884885216</distance>
          <takeoffAngle>
            <value>-1.0</value>
          </takeoffAngle>
          <timeResidual>-0.1021</timeResidual>
          <timeWeight>1.0</timeWeight>
        </arrival>
        <arrival publicID="smi:local/3c8aade9-b0a1-4715-93e5-6a159f07c24f">
          <pickID>smi:local/5844f353-4792-4e5e-b28c-01b85da246b8</pickID>
          <phase>S</phase>
          <azimuth>359.0</azimuth>
          <distance>0.00018975685884885216</distance>
          <takeoffAngle>
            <value>-1.0</value>
          </takeoffAngle>
          <timeResidual>-0.0844</timeResidual>
          <timeWeight>1.0</timeWeight>
        </arrival>
        <arrival publicID="smi:local/8a0f2c93-aaaf-4796-bcd1-8fd845ca64a0">
          <pickID>smi:local/6c9e5f0a-7d42-4749-910d-f89dec45370d</pickID>
          <phase>S</phase>
          <azimuth>359.0</azimuth>
          <distance>0.00018975685884885216</distance>
          <takeoffAngle>
            <value>-1.0</value>
          </takeoffAngle>
          <timeResidual>-0.071</timeResidual>
          <timeWeight>1.0</timeWeight>
        </arrival>
        <arrival publicID="smi:local/19d8f2dd-e858-46ed-869f-6eda4fe6b7ca">
          <pickID>smi:local/27c6682b-99a0-404e-a62c-d5e43758df7a</pickID>
          <phase>S</phase>
          <azimuth>359.0</azimuth>
          <distance>0.00018975685884885216</distance>
          <takeoffAngle>
            <value>-1.0</value>
          </takeoffAngle>
          <timeResidual>-0.0657</timeResidual>
          <timeWeight>1.0</timeWeight>
        </arrival>
        <arrival publicID="smi:local/0a7c5575-a0ce-48fb-b6e9-99426c054330">
          <pickID>smi:local/44ffb20c-d206-4a32-aee0-77471958a11e</pickID>
          <phase>S</phase>
          <azimuth>359.0</azimuth>
          <distance>0.00018975685884885216</distance>
          <takeoffAngle>
            <value>-1.0</value>
          </takeoffAngle>
          <timeResidual>-0.0588</timeResidual>
          <timeWeight>1.0</timeWeight>
        </arrival>
        <arrival publicID="smi:local/6e2770c0-8e30-4c91-847c-507345fe1f83">
          <pickID>smi:local/240a6086-533c-40fd-8dd5-9b2df5ce48f4</pickID>
          <phase>S</phase>
          <azimuth>359.0</azimuth>
          <distance>0.00018975685884885216</distance>
          <takeoffAngle>
            <value>-1.0</value>
          </takeoffAngle>
          <timeResidual>-0.0448</timeResidual>
          <timeWeight>1.0</timeWeight>
        </arrival>
        <arrival publicID="smi:local/57bf2bad-6026-4d71-a0f8-bc6ddf052ea8">
          <pickID>smi:local/3260be91-26ed-47e1-83d9-fff1328fdf4e</pickID>
          <phase>S</phase>
          <azimuth>359.0</azimuth>
          <distance>0.00018975685884885216</distance>
          <takeoffAngle>
            <value>-1.0</value>
          </takeoffAngle>
          <timeResidual>-0.0477</timeResidual>
          <timeWeight>1.0</timeWeight>
        </arrival>
        <arrival publicID="smi:local/0249ca2a-48c1-47cb-9b40-306abc5bf78e">
          <pickID>smi:local/1e406304-f5e4-43cb-a5c2-7629da157d02</pickID>
          <phase>S</phase>
          <azimuth>359.0</azimuth>
          <distance>0.00018975685884885216</distance>
          <takeoffAngle>
            <value>-1.0</value>
          </takeoffAngle>
          <timeResidual>0.2625</timeResidual>
          <timeWeight>1.0</timeWeight>
        </arrival>
        <arrival publicID="smi:local/e34f4f1c-15e3-46a2-b740-037e1874b488">
          <pickID>smi:local/ae994bd5-58b6-44d5-a8e3-8654a342e15c</pickID>
          <phase>S</phase>
          <azimuth>359.0</azimuth>
          <distance>0.00018975685884885216</distance>
          <takeoffAngle>
            <value>-1.0</value>
          </takeoffAngle>
          <timeResidual>0.2801</timeResidual>
          <timeWeight>1.0</timeWeight>
        </arrival>
        <arrival publicID="smi:local/ed6b7a3f-765f-40a9-af70-8dff10ee76cc">
          <pickID>smi:local/7aa2ae77-9508-47bb-a10e-fc43cfbcd86f</pickID>
          <phase>S</phase>
          <azimuth>359.0</azimuth>
          <distance>0.00018975685884885216</distance>
          <takeoffAngle>
            <value>-1.0</value>
          </takeoffAngle>
          <timeResidual>0.2934</timeResidual>
          <timeWeight>1.0</timeWeight>
        </arrival>
      </origin>
      <pick publicID="smi:local/cdf29148-66b0-4ae9-8e82-426deded3539">
        <time>
          <value>2020-03-10T05:22:51.811900Z</value>
          <uncertainty>0.05</uncertainty>
        </time>
        <waveformID networkCode="XX" stationCode="G15" channelCode="DPZ"></waveformID>
        <phaseHint>P</phaseHint>
      </pick>
      <pick publicID="smi:local/ae994bd5-58b6-44d5-a8e3-8654a342e15c">
        <time>
          <value>2020-03-10T05:22:52.231200Z</value>
          <uncertainty>0.05</uncertainty>
        </time>
        <waveformID networkCode="XX" stationCode="G15" channelCode="DPZ"></waveformID>
        <phaseHint>S</phaseHint>
      </pick>
      <pick publicID="smi:local/a20b642b-12ac-47cf-a130-a07a93a1e841">
        <time>
          <value>2020-03-10T05:22:51.832900Z</value>
          <uncertainty>0.05</uncertainty>
        </time>
        <waveformID networkCode="XX" stationCode="G11" channelCode="DPZ"></waveformID>
        <phaseHint>S</phaseHint>
      </pick>
      <pick publicID="smi:local/1eae4c89-0575-40a1-b111-3328c48b894e">
        <time>
          <value>2020-03-10T05:22:51.827400Z</value>
          <uncertainty>0.05</uncertainty>
        </time>
        <waveformID networkCode="XX" stationCode="G17" channelCode="DPZ"></waveformID>
        <phaseHint>S</phaseHint>
      </pick>
      <pick publicID="smi:local/ced55c29-5fc6-4f59-970f-859ad9b8e106">
        <time>
          <value>2020-03-10T05:22:51.814600Z</value>
          <uncertainty>0.05</uncertainty>
        </time>
        <waveformID networkCode="XX" stationCode="G12" channelCode="DPZ"></waveformID>
        <phaseHint>P</phaseHint>
      </pick>
      <pick publicID="smi:local/7aa2ae77-9508-47bb-a10e-fc43cfbcd86f">
        <time>
          <value>2020-03-10T05:22:52.232400Z</value>
          <uncertainty>0.05</uncertainty>
        </time>
        <waveformID networkCode="XX" stationCode="G12" channelCode="DPZ"></waveformID>
        <phaseHint>S</phaseHint>
      </pick>
      <pick publicID="smi:local/44ffb20c-d206-4a32-aee0-77471958a11e">
        <time>
          <value>2020-03-10T05:22:51.846900Z</value>
          <uncertainty>0.05</uncertainty>
        </time>
        <waveformID networkCode="XX" stationCode="G4" channelCode="DPN"></waveformID>
        <phaseHint>S</phaseHint>
      </pick>
      <pick publicID="smi:local/3260be91-26ed-47e1-83d9-fff1328fdf4e">
        <time>
          <value>2020-03-10T05:22:51.850200Z</value>
          <uncertainty>0.05</uncertainty>
        </time>
        <waveformID networkCode="XX" stationCode="G2" channelCode="DPZ"></waveformID>
        <phaseHint>S</phaseHint>
      </pick>
      <pick publicID="smi:local/03c67899-248f-4c45-8f6c-d72b13d03c33">
        <time>
          <value>2020-03-10T05:22:51.832300Z</value>
          <uncertainty>0.05</uncertainty>
        </time>
        <waveformID networkCode="XX" stationCode="G13" channelCode="DPZ"></waveformID>
        <phaseHint>S</phaseHint>
      </pick>
      <pick publicID="smi:local/6c9e5f0a-7d42-4749-910d-f89dec45370d">
        <time>
          <value>2020-03-10T05:22:51.842600Z</value>
          <uncertainty>0.05</uncertainty>
        </time>
        <waveformID networkCode="XX" stationCode="G6" channelCode="DPZ"></waveformID>
        <phaseHint>S</phaseHint>
      </pick>
      <pick publicID="smi:local/721a4c43-eab0-4d25-bb07-959e131e4d37">
        <time>
          <value>2020-03-10T05:22:51.827100Z</value>
          <uncertainty>0.05</uncertainty>
        </time>
        <waveformID networkCode="XX" stationCode="G14" channelCode="DPZ"></waveformID>
        <phaseHint>S</phaseHint>
      </pick>
      <pick publicID="smi:local/8bb9a679-30ce-45bd-a459-e79db5bef367">
        <time>
          <value>2020-03-10T05:22:51.808700Z</value>
          <uncertainty>0.05</uncertainty>
        </time>
        <waveformID networkCode="XX" stationCode="G18" channelCode="DPZ"></waveformID>
        <phaseHint>P</phaseHint>
      </pick>
      <pick publicID="smi:local/1e406304-f5e4-43cb-a5c2-7629da157d02">
        <time>
          <value>2020-03-10T05:22:52.225900Z</value>
          <uncertainty>0.05</uncertainty>
        </time>
        <waveformID networkCode="XX" stationCode="G18" channelCode="DPZ"></waveformID>
        <phaseHint>S</phaseHint>
      </pick>
      <pick publicID="smi:local/5844f353-4792-4e5e-b28c-01b85da246b8">
        <time>
          <value>2020-03-10T05:22:51.839100Z</value>
          <uncertainty>0.05</uncertainty>
        </time>
        <waveformID networkCode="XX" stationCode="G8" channelCode="DPZ"></waveformID>
        <phaseHint>S</phaseHint>
      </pick>
      <pick publicID="smi:local/240a6086-533c-40fd-8dd5-9b2df5ce48f4">
        <time>
          <value>2020-03-10T05:22:51.849200Z</value>
          <uncertainty>0.05</uncertainty>
        </time>
        <waveformID networkCode="XX" stationCode="G1" channelCode="DPZ"></waveformID>
        <phaseHint>S</phaseHint>
      </pick>
      <pick publicID="smi:local/27c6682b-99a0-404e-a62c-d5e43758df7a">
        <time>
          <value>2020-03-10T05:22:51.844000Z</value>
          <uncertainty>0.05</uncertainty>
        </time>
        <waveformID networkCode="XX" stationCode="G5" channelCode="DPZ"></waveformID>
        <phaseHint>S</phaseHint>
      </pick>
    </event>
  </eventParameters>
</q:quakeml>
