<?xml version='1.0' encoding='utf-8'?>
<q:quakeml xmlns="http://quakeml.org/xmlns/bed/1.2" xmlns:q="http://quakeml.org/xmlns/quakeml/1.2">
  <eventParameters publicID="smi:local/ef937ca8-ecf6-45f3-939c-2b5edec1a4b3">
    <event publicID="smi:local/193f0239-22c9-40a2-911a-ae73ea0b82bc">
      <preferredOriginID>smi:local/5f01521a-7329-415e-8beb-a706e5fd40a6</preferredOriginID>
      <comment>
        <text>CaMI.FRS microseismicity</text>
      </comment>
      <comment id="smi:local/63eb934c-3295-4b4e-88c6-d5ecbbdbbf22">
        <text>eqcorrscan_template_2020_03_10t04_43_40</text>
      </comment>
      <creationInfo>
        <author>Genevieve Savard   obs:./obs_picked1/merged.obs   NLLoc:v7.00.00(27Oct2017)</author>
        <creationTime>2020-08-21T16:08:24.000000Z</creationTime>
      </creationInfo>
      <origin publicID="smi:local/5f01521a-7329-415e-8beb-a706e5fd40a6">
        <time>
          <value>2020-03-10T04:43:40.332602Z</value>
        </time>
        <latitude>
          <value>50.446639</value>
          <uncertainty>0.002425480541445157</uncertainty>
        </latitude>
        <longitude>
          <value>-112.118655</value>
          <uncertainty>0.0019958659616444853</uncertainty>
        </longitude>
        <depth>
          <value>1.563</value>
          <uncertainty>132.94698191384413</uncertainty>
          <confidenceLevel>68.0</confidenceLevel>
        </depth>
        <depthType>from location</depthType>
        <quality>
          <associatedPhaseCount>8</associatedPhaseCount>
          <usedPhaseCount>8</usedPhaseCount>
          <associatedStationCount>-1</associatedStationCount>
          <usedStationCount>8</usedStationCount>
          <depthPhaseCount>-1</depthPhaseCount>
          <standardError>0.35118</standardError>
          <azimuthalGap>311.001</azimuthalGap>
          <secondaryAzimuthalGap>333.548</secondaryAzimuthalGap>
          <groundTruthLevel>-</groundTruthLevel>
          <minimumDistance>0.0024520812974819515</minimumDistance>
          <maximumDistance>0.004209724437305578</maximumDistance>
          <medianDistance>0.0038183936337061013</medianDistance>
        </quality>
        <comment>
          <text>Note: Depth/Latitude/Longitude errors are calculated from covariance matrix as 1D marginal (Lon/Lat errors as great circle degrees) while OriginUncertainty min/max horizontal errors are calculated from 2D error ellipsoid and are therefore seemingly higher compared to 1D errors. Error estimates can be reconstructed from the following original NonLinLoc error statistics line:
STATISTICS ExpectX 0.245505 Y -0.553624 Z 0.123007  CovXX 0.049253 XY -0.0153518 XZ 0.00610835 YY 0.0727387 YZ -0.0136063 ZZ 0.0176749 EllAz1  158.801 Dip1  -77.2305 Len1  0.22467 Az2  244.116 Dip2  1.06064 Len2  0.383567 Len3  5.435284e-01</text>
        </comment>
        <creationInfo>
          <author>Genevieve Savard   obs:./obs_picked1/merged.obs   NLLoc:v7.00.00(27Oct2017)</author>
          <creationTime>2020-08-21T16:08:24.000000Z</creationTime>
        </creationInfo>
        <originUncertainty>
          <preferredDescription>uncertainty ellipse</preferredDescription>
          <minHorizontalUncertainty>309.574</minHorizontalUncertainty>
          <maxHorizontalUncertainty>429.82</maxHorizontalUncertainty>
          <azimuthMaxHorizontalUncertainty>153.706</azimuthMaxHorizontalUncertainty>
          <confidenceLevel>68.0</confidenceLevel>
        </originUncertainty>
        <arrival publicID="smi:local/bd040ce0-ca66-4959-8869-02f40f6aaf8d">
          <pickID>smi:local/6e13283c-9c35-421e-a509-5d5269f8aaa4</pickID>
          <phase>P</phase>
          <azimuth>359.0</azimuth>
          <distance>0.0024524500193403784</distance>
          <takeoffAngle>
            <value>-1.0</value>
          </takeoffAngle>
          <timeResidual>-0.1467</timeResidual>
          <timeWeight>0.4711</timeWeight>
        </arrival>
        <arrival publicID="smi:local/d0f0f60a-ef58-493a-9682-2f8d243d9c09">
          <pickID>smi:local/acab0127-fc80-497e-9031-084e07c10a18</pickID>
          <phase>P</phase>
          <azimuth>359.0</azimuth>
          <distance>0.0035586155946204165</distance>
          <takeoffAngle>
            <value>-1.0</value>
          </takeoffAngle>
          <timeResidual>-0.2145</timeResidual>
          <timeWeight>0.4711</timeWeight>
        </arrival>
        <arrival publicID="smi:local/78924588-52e5-4614-a610-db9f6eb3f31e">
          <pickID>smi:local/69d7ad81-41f1-4212-877e-509bab7a9e39</pickID>
          <phase>P</phase>
          <azimuth>359.0</azimuth>
          <distance>0.0036008837100985967</distance>
          <takeoffAngle>
            <value>-1.0</value>
          </takeoffAngle>
          <timeResidual>-0.3579</timeResidual>
          <timeWeight>0.6227</timeWeight>
        </arrival>
        <arrival publicID="smi:local/d8387e5b-df1a-461f-8b77-e9f66687f81d">
          <pickID>smi:local/32c61adb-aff1-4be6-b56f-b327e5e9f567</pickID>
          <phase>P</phase>
          <azimuth>359.0</azimuth>
          <distance>0.0038158215739131736</distance>
          <takeoffAngle>
            <value>-1.0</value>
          </takeoffAngle>
          <timeResidual>-0.0539</timeResidual>
          <timeWeight>2.0203</timeWeight>
        </arrival>
        <arrival publicID="smi:local/592345ce-388c-4508-af22-07b122af2aee">
          <pickID>smi:local/98be1f94-dd07-4afe-b4bb-b77d898f1a5f</pickID>
          <phase>P</phase>
          <azimuth>359.0</azimuth>
          <distance>0.003821217503548686</distance>
          <takeoffAngle>
            <value>-1.0</value>
          </takeoffAngle>
          <timeResidual>-0.1661</timeResidual>
          <timeWeight>0.86</timeWeight>
        </arrival>
        <arrival publicID="smi:local/c9e1e358-26c7-4ac7-9c45-41a210724c4f">
          <pickID>smi:local/166ea546-6c1a-4419-92af-58d35f2ab269</pickID>
          <phase>P</phase>
          <azimuth>359.0</azimuth>
          <distance>0.0039228408450175025</distance>
          <takeoffAngle>
            <value>-1.0</value>
          </takeoffAngle>
          <timeResidual>-0.1678</timeResidual>
          <timeWeight>1.0342</timeWeight>
        </arrival>
        <arrival publicID="smi:local/89cb00ca-9ebe-42ae-8af9-1ed0c737be85">
          <pickID>smi:local/8c068d6a-910a-4272-ad65-3fc8898ee4f8</pickID>
          <phase>P</phase>
          <azimuth>359.0</azimuth>
          <distance>0.004163859035403722</distance>
          <takeoffAngle>
            <value>-1.0</value>
          </takeoffAngle>
          <timeResidual>0.7921</timeResidual>
          <timeWeight>1.2603</timeWeight>
        </arrival>
        <arrival publicID="smi:local/22816e9a-4136-48f6-9c9a-461dfa007841">
          <pickID>smi:local/047824c3-c200-4b9d-8d27-6d279e690c7f</pickID>
          <phase>P</phase>
          <azimuth>359.0</azimuth>
          <distance>0.004209724437305578</distance>
          <takeoffAngle>
            <value>-1.0</value>
          </takeoffAngle>
          <timeResidual>-0.1428</timeResidual>
          <timeWeight>1.2603</timeWeight>
        </arrival>
      </origin>
      <pick publicID="smi:local/98be1f94-dd07-4afe-b4bb-b77d898f1a5f">
        <time>
          <value>2020-03-10T04:43:40.432700Z</value>
          <uncertainty>0.0513</uncertainty>
        </time>
        <waveformID networkCode="XX" stationCode="C0704" channelCode="DPZ"></waveformID>
        <phaseHint>P</phaseHint>
      </pick>
      <pick publicID="smi:local/69d7ad81-41f1-4212-877e-509bab7a9e39">
        <time>
          <value>2020-03-10T04:43:40.227500Z</value>
          <uncertainty>0.0606</uncertainty>
        </time>
        <waveformID networkCode="XX" stationCode="C0902" channelCode="DPE"></waveformID>
        <phaseHint>P</phaseHint>
      </pick>
      <pick publicID="smi:local/166ea546-6c1a-4419-92af-58d35f2ab269">
        <time>
          <value>2020-03-10T04:43:40.437300Z</value>
          <uncertainty>0.0466</uncertainty>
        </time>
        <waveformID networkCode="XX" stationCode="C0404" channelCode="DPN"></waveformID>
        <phaseHint>P</phaseHint>
      </pick>
      <pick publicID="smi:local/047824c3-c200-4b9d-8d27-6d279e690c7f">
        <time>
          <value>2020-03-10T04:43:40.479300Z</value>
          <uncertainty>0.042</uncertainty>
        </time>
        <waveformID networkCode="XX" stationCode="C0909" channelCode="DPN"></waveformID>
        <phaseHint>P</phaseHint>
      </pick>
      <pick publicID="smi:local/32c61adb-aff1-4be6-b56f-b327e5e9f567">
        <time>
          <value>2020-03-10T04:43:40.544600Z</value>
          <uncertainty>0.0326</uncertainty>
        </time>
        <waveformID networkCode="XX" stationCode="C0202" channelCode="DPZ"></waveformID>
        <phaseHint>P</phaseHint>
      </pick>
      <pick publicID="smi:local/6e13283c-9c35-421e-a509-5d5269f8aaa4">
        <time>
          <value>2020-03-10T04:43:40.367400Z</value>
          <uncertainty>0.0699</uncertainty>
        </time>
        <waveformID networkCode="XX" stationCode="F0604" channelCode="DPZ"></waveformID>
        <phaseHint>P</phaseHint>
      </pick>
      <pick publicID="smi:local/acab0127-fc80-497e-9031-084e07c10a18">
        <time>
          <value>2020-03-10T04:43:40.367400Z</value>
          <uncertainty>0.0699</uncertainty>
        </time>
        <waveformID networkCode="XX" stationCode="F0304" channelCode="DPE"></waveformID>
        <phaseHint>P</phaseHint>
      </pick>
      <pick publicID="smi:local/8c068d6a-910a-4272-ad65-3fc8898ee4f8">
        <time>
          <value>2020-03-10T04:43:41.411700Z</value>
          <uncertainty>0.042</uncertainty>
        </time>
        <waveformID networkCode="XX" stationCode="C0407" channelCode="DPN"></waveformID>
        <phaseHint>P</phaseHint>
      </pick>
    </event>
  </eventParameters>
</q:quakeml>
