<?xml version='1.0' encoding='utf-8'?>
<q:quakeml xmlns="http://quakeml.org/xmlns/bed/1.2" xmlns:q="http://quakeml.org/xmlns/quakeml/1.2">
  <eventParameters publicID="smi:local/0f39bf89-d17f-4bdd-bf7a-07326898f87d">
    <event publicID="smi:local/3801c9a1-30c7-4776-a958-d0629425071b">
      <preferredOriginID>smi:local/c29f0965-898d-41ff-81cf-fb3e0101c21c</preferredOriginID>
      <comment>
        <text>CaMI.FRS microseismicity</text>
      </comment>
      <comment id="smi:local/3f4c1719-dbc8-4a47-afca-a0cb85c898cc">
        <text>eqcorrscan_template_2020_02_18t12_46_22</text>
      </comment>
      <creationInfo>
        <author>Genevieve Savard   obs:./obs_picked5/merged.obs   NLLoc:v7.00.00(27Oct2017)</author>
        <creationTime>2020-09-18T19:52:52.000000Z</creationTime>
      </creationInfo>
      <origin publicID="smi:local/c29f0965-898d-41ff-81cf-fb3e0101c21c">
        <time>
          <value>2020-02-18T12:46:22.277480Z</value>
        </time>
        <latitude>
          <value>50.449798</value>
          <uncertainty>0.0004824279970576435</uncertainty>
        </latitude>
        <longitude>
          <value>-112.118192</value>
          <uncertainty>0.0004378200173726392</uncertainty>
        </longitude>
        <depth>
          <value>159.375</value>
          <uncertainty>50.39871030095909</uncertainty>
          <confidenceLevel>68.0</confidenceLevel>
        </depth>
        <depthType>from location</depthType>
        <quality>
          <associatedPhaseCount>13</associatedPhaseCount>
          <usedPhaseCount>13</usedPhaseCount>
          <associatedStationCount>-1</associatedStationCount>
          <usedStationCount>13</usedStationCount>
          <depthPhaseCount>-1</depthPhaseCount>
          <standardError>0.0485971</standardError>
          <azimuthalGap>164.275</azimuthalGap>
          <secondaryAzimuthalGap>294.298</secondaryAzimuthalGap>
          <groundTruthLevel>-</groundTruthLevel>
          <minimumDistance>0.0017319854944067648</minimumDistance>
          <maximumDistance>0.0020071868990339556</maximumDistance>
          <medianDistance>0.0017792088719335573</medianDistance>
        </quality>
        <comment>
          <text>Note: Depth/Latitude/Longitude errors are calculated from covariance matrix as 1D marginal (Lon/Lat errors as great circle degrees) while OriginUncertainty min/max horizontal errors are calculated from 2D error ellipsoid and are therefore seemingly higher compared to 1D errors. Error estimates can be reconstructed from the following original NonLinLoc error statistics line:
STATISTICS ExpectX 0.182674 Y -0.0707664 Z 0.184308  CovXX 0.00237007 XY 0.00102084 XZ 0.000789879 YY 0.00287763 YZ 3.8642e-05 ZZ 0.00254003 EllAz1  121.734 Dip1  -27.0544 Len1  0.0668093 Az2  348.93 Dip2  -53.0705 Len2  0.0962709 Len3  1.172993e-01</text>
        </comment>
        <creationInfo>
          <author>Genevieve Savard   obs:./obs_picked5/merged.obs   NLLoc:v7.00.00(27Oct2017)</author>
          <creationTime>2020-09-18T19:52:52.000000Z</creationTime>
        </creationInfo>
        <originUncertainty>
          <preferredDescription>uncertainty ellipse</preferredDescription>
          <minHorizontalUncertainty>60.1287</minHorizontalUncertainty>
          <maxHorizontalUncertainty>91.947</maxHorizontalUncertainty>
          <azimuthMaxHorizontalUncertainty>38.0196</azimuthMaxHorizontalUncertainty>
          <confidenceLevel>68.0</confidenceLevel>
        </originUncertainty>
        <arrival publicID="smi:local/7511cb05-5ea2-49c9-ae80-5e298691ae25">
          <pickID>smi:local/b4171c32-a53d-4eb0-8797-245217418f8e</pickID>
          <phase>S</phase>
          <azimuth>359.0</azimuth>
          <distance>0.001732093412999475</distance>
          <takeoffAngle>
            <value>-1.0</value>
          </takeoffAngle>
          <timeResidual>-0.0474</timeResidual>
          <timeWeight>1.0</timeWeight>
        </arrival>
        <arrival publicID="smi:local/ec6bfc49-17e4-4c80-b0fe-cf81675e2f03">
          <pickID>smi:local/8a904151-88a7-4d07-9505-6175e4872186</pickID>
          <phase>S</phase>
          <azimuth>359.0</azimuth>
          <distance>0.001778858136507249</distance>
          <takeoffAngle>
            <value>-1.0</value>
          </takeoffAngle>
          <timeResidual>-0.0287</timeResidual>
          <timeWeight>1.0</timeWeight>
        </arrival>
        <arrival publicID="smi:local/a9f7c30f-e699-4c31-b220-33d959dd96cd">
          <pickID>smi:local/fd729a4f-099f-4470-ab24-8576e2aa1942</pickID>
          <phase>S</phase>
          <azimuth>359.0</azimuth>
          <distance>0.001778858136507249</distance>
          <takeoffAngle>
            <value>-1.0</value>
          </takeoffAngle>
          <timeResidual>-0.0371</timeResidual>
          <timeWeight>1.0</timeWeight>
        </arrival>
        <arrival publicID="smi:local/3ac33dd6-87c6-4d3f-a0f2-b31e154a04d2">
          <pickID>smi:local/44a80866-2249-4cdf-a10e-910521d2f3b0</pickID>
          <phase>S</phase>
          <azimuth>359.0</azimuth>
          <distance>0.001778858136507249</distance>
          <takeoffAngle>
            <value>-1.0</value>
          </takeoffAngle>
          <timeResidual>-0.0326</timeResidual>
          <timeWeight>1.0</timeWeight>
        </arrival>
        <arrival publicID="smi:local/17dc16e8-0af6-4a8b-b444-46bcf927ec9a">
          <pickID>smi:local/806d2362-cd3d-4e05-ac7e-caf6ea4b7333</pickID>
          <phase>S</phase>
          <azimuth>359.0</azimuth>
          <distance>0.001778858136507249</distance>
          <takeoffAngle>
            <value>-1.0</value>
          </takeoffAngle>
          <timeResidual>-0.0246</timeResidual>
          <timeWeight>1.0</timeWeight>
        </arrival>
        <arrival publicID="smi:local/e7cb829a-1c30-42ef-b694-44cafb0c0192">
          <pickID>smi:local/80c86842-6dfc-4879-a180-4a7d16cda11d</pickID>
          <phase>S</phase>
          <azimuth>359.0</azimuth>
          <distance>0.001778858136507249</distance>
          <takeoffAngle>
            <value>-1.0</value>
          </takeoffAngle>
          <timeResidual>-0.0194</timeResidual>
          <timeWeight>1.0</timeWeight>
        </arrival>
        <arrival publicID="smi:local/b2d286a2-c24a-48ba-a2fc-ec839b49d74d">
          <pickID>smi:local/650bf46c-2f61-4291-b22d-618734cc6ac9</pickID>
          <phase>S</phase>
          <azimuth>359.0</azimuth>
          <distance>0.001778858136507249</distance>
          <takeoffAngle>
            <value>-1.0</value>
          </takeoffAngle>
          <timeResidual>-0.015</timeResidual>
          <timeWeight>1.0</timeWeight>
        </arrival>
        <arrival publicID="smi:local/770cf64e-fa0d-4d55-aa57-2d37733da0de">
          <pickID>smi:local/0cee5520-4322-4a5e-bdba-605b57ff92eb</pickID>
          <phase>S</phase>
          <azimuth>359.0</azimuth>
          <distance>0.001778858136507249</distance>
          <takeoffAngle>
            <value>-1.0</value>
          </takeoffAngle>
          <timeResidual>0.0033</timeResidual>
          <timeWeight>1.0</timeWeight>
        </arrival>
        <arrival publicID="smi:local/a92f46d4-06bd-4596-bd2c-9bff0ff91763">
          <pickID>smi:local/5f4427ef-e2e7-444a-bc6e-3bfd44aef021</pickID>
          <phase>S</phase>
          <azimuth>359.0</azimuth>
          <distance>0.001778858136507249</distance>
          <takeoffAngle>
            <value>-1.0</value>
          </takeoffAngle>
          <timeResidual>0.0149</timeResidual>
          <timeWeight>1.0</timeWeight>
        </arrival>
        <arrival publicID="smi:local/590cf3e9-a449-4644-b1df-2316ec6381ef">
          <pickID>smi:local/6185e34b-fa87-48ac-9343-d24e2c017334</pickID>
          <phase>P</phase>
          <azimuth>359.0</azimuth>
          <distance>0.001778858136507249</distance>
          <takeoffAngle>
            <value>-1.0</value>
          </takeoffAngle>
          <timeResidual>0.0965</timeResidual>
          <timeWeight>1.0</timeWeight>
        </arrival>
        <arrival publicID="smi:local/7156c94c-e102-4b90-9ee5-35b91e232ee6">
          <pickID>smi:local/a9baa27c-45db-4882-86f1-53232f75c50a</pickID>
          <phase>S</phase>
          <azimuth>359.0</azimuth>
          <distance>0.001778858136507249</distance>
          <takeoffAngle>
            <value>-1.0</value>
          </takeoffAngle>
          <timeResidual>0.0162</timeResidual>
          <timeWeight>1.0</timeWeight>
        </arrival>
        <arrival publicID="smi:local/6224cb78-f552-4c04-8850-0225ef96a83e">
          <pickID>smi:local/deb8b313-8013-44fe-a596-a895ab2e5b0f</pickID>
          <phase>P</phase>
          <azimuth>359.0</azimuth>
          <distance>0.001778858136507249</distance>
          <takeoffAngle>
            <value>-1.0</value>
          </takeoffAngle>
          <timeResidual>0.1126</timeResidual>
          <timeWeight>1.0</timeWeight>
        </arrival>
        <arrival publicID="smi:local/4a824e05-cf0c-49f9-b7be-462fbe5a9973">
          <pickID>smi:local/1b263e8a-e023-47c9-98f5-b1f29c8d2682</pickID>
          <phase>S</phase>
          <azimuth>359.0</azimuth>
          <distance>0.0020072858244106068</distance>
          <takeoffAngle>
            <value>-1.0</value>
          </takeoffAngle>
          <timeResidual>-0.0386</timeResidual>
          <timeWeight>1.0</timeWeight>
        </arrival>
      </origin>
      <pick publicID="smi:local/0cee5520-4322-4a5e-bdba-605b57ff92eb">
        <time>
          <value>2020-02-18T12:46:22.449000Z</value>
          <uncertainty>0.05</uncertainty>
        </time>
        <waveformID networkCode="XX" stationCode="G6" channelCode="DPZ"></waveformID>
        <phaseHint>S</phaseHint>
      </pick>
      <pick publicID="smi:local/fd729a4f-099f-4470-ab24-8576e2aa1942">
        <time>
          <value>2020-02-18T12:46:22.429900Z</value>
          <uncertainty>0.05</uncertainty>
        </time>
        <waveformID networkCode="XX" stationCode="G18" channelCode="DPZ"></waveformID>
        <phaseHint>S</phaseHint>
      </pick>
      <pick publicID="smi:local/a9baa27c-45db-4882-86f1-53232f75c50a">
        <time>
          <value>2020-02-18T12:46:22.456700Z</value>
          <uncertainty>0.05</uncertainty>
        </time>
        <waveformID networkCode="XX" stationCode="G2" channelCode="DPZ"></waveformID>
        <phaseHint>S</phaseHint>
      </pick>
      <pick publicID="smi:local/806d2362-cd3d-4e05-ac7e-caf6ea4b7333">
        <time>
          <value>2020-02-18T12:46:22.435500Z</value>
          <uncertainty>0.05</uncertainty>
        </time>
        <waveformID networkCode="XX" stationCode="G15" channelCode="DPZ"></waveformID>
        <phaseHint>S</phaseHint>
      </pick>
      <pick publicID="smi:local/deb8b313-8013-44fe-a596-a895ab2e5b0f">
        <time>
          <value>2020-02-18T12:46:22.469200Z</value>
          <uncertainty>0.05</uncertainty>
        </time>
        <waveformID networkCode="XX" stationCode="G4" channelCode="DPN"></waveformID>
        <phaseHint>P</phaseHint>
      </pick>
      <pick publicID="smi:local/1b263e8a-e023-47c9-98f5-b1f29c8d2682">
        <time>
          <value>2020-02-18T12:46:22.606800Z</value>
          <uncertainty>0.05</uncertainty>
        </time>
        <waveformID networkCode="XX" stationCode="F0607" channelCode="DPZ"></waveformID>
        <phaseHint>S</phaseHint>
      </pick>
      <pick publicID="smi:local/80c86842-6dfc-4879-a180-4a7d16cda11d">
        <time>
          <value>2020-02-18T12:46:22.436900Z</value>
          <uncertainty>0.05</uncertainty>
        </time>
        <waveformID networkCode="XX" stationCode="G13" channelCode="DPZ"></waveformID>
        <phaseHint>S</phaseHint>
      </pick>
      <pick publicID="smi:local/44a80866-2249-4cdf-a10e-910521d2f3b0">
        <time>
          <value>2020-02-18T12:46:22.431900Z</value>
          <uncertainty>0.05</uncertainty>
        </time>
        <waveformID networkCode="XX" stationCode="G17" channelCode="DPZ"></waveformID>
        <phaseHint>S</phaseHint>
      </pick>
      <pick publicID="smi:local/8a904151-88a7-4d07-9505-6175e4872186">
        <time>
          <value>2020-02-18T12:46:22.429400Z</value>
          <uncertainty>0.05</uncertainty>
        </time>
        <waveformID networkCode="XX" stationCode="G14" channelCode="DPZ"></waveformID>
        <phaseHint>S</phaseHint>
      </pick>
      <pick publicID="smi:local/650bf46c-2f61-4291-b22d-618734cc6ac9">
        <time>
          <value>2020-02-18T12:46:22.437900Z</value>
          <uncertainty>0.05</uncertainty>
        </time>
        <waveformID networkCode="XX" stationCode="G11" channelCode="DPZ"></waveformID>
        <phaseHint>S</phaseHint>
      </pick>
      <pick publicID="smi:local/6185e34b-fa87-48ac-9343-d24e2c017334">
        <time>
          <value>2020-02-18T12:46:22.456400Z</value>
          <uncertainty>0.05</uncertainty>
        </time>
        <waveformID networkCode="XX" stationCode="G12" channelCode="DPZ"></waveformID>
        <phaseHint>P</phaseHint>
      </pick>
      <pick publicID="smi:local/5f4427ef-e2e7-444a-bc6e-3bfd44aef021">
        <time>
          <value>2020-02-18T12:46:22.454200Z</value>
          <uncertainty>0.05</uncertainty>
        </time>
        <waveformID networkCode="XX" stationCode="G1" channelCode="DPZ"></waveformID>
        <phaseHint>S</phaseHint>
      </pick>
      <pick publicID="smi:local/b4171c32-a53d-4eb0-8797-245217418f8e">
        <time>
          <value>2020-02-18T12:46:22.574800Z</value>
          <uncertainty>0.05</uncertainty>
        </time>
        <waveformID networkCode="XX" stationCode="F0703" channelCode="DPE"></waveformID>
        <phaseHint>S</phaseHint>
      </pick>
    </event>
  </eventParameters>
</q:quakeml>
