<?xml version='1.0' encoding='utf-8'?>
<q:quakeml xmlns="http://quakeml.org/xmlns/bed/1.2" xmlns:q="http://quakeml.org/xmlns/quakeml/1.2">
  <eventParameters publicID="smi:local/302a7a54-87b0-49d6-a4a0-a71171c19d79">
    <event publicID="smi:local/ee97bf4f-4067-463d-b8ab-c923d9933396">
      <preferredOriginID>smi:local/90870d02-f2e8-40f0-a394-b5e3847236bf</preferredOriginID>
      <comment>
        <text>CaMI.FRS microseismicity</text>
      </comment>
      <comment id="smi:local/88bedbaf-ec3f-45b3-9940-df975ccb4c6f">
        <text>eqcorrscan_template_2020_03_10t05_08_11</text>
      </comment>
      <creationInfo>
        <author>Genevieve Savard   obs:./obs_picked1/merged.obs   NLLoc:v7.00.00(27Oct2017)</author>
        <creationTime>2020-08-21T16:08:26.000000Z</creationTime>
      </creationInfo>
      <origin publicID="smi:local/90870d02-f2e8-40f0-a394-b5e3847236bf">
        <time>
          <value>2020-03-10T05:08:11.541770Z</value>
        </time>
        <latitude>
          <value>50.450061</value>
          <uncertainty>2.1395482846985194e-05</uncertainty>
        </latitude>
        <longitude>
          <value>-112.120094</value>
          <uncertainty>2.401185319554933e-05</uncertainty>
        </longitude>
        <depth>
          <value>0.391</value>
          <uncertainty>0.6008968297470041</uncertainty>
          <confidenceLevel>68.0</confidenceLevel>
        </depth>
        <depthType>from location</depthType>
        <quality>
          <associatedPhaseCount>11</associatedPhaseCount>
          <usedPhaseCount>11</usedPhaseCount>
          <associatedStationCount>-1</associatedStationCount>
          <usedStationCount>11</usedStationCount>
          <depthPhaseCount>-1</depthPhaseCount>
          <standardError>0.351715</standardError>
          <azimuthalGap>105.807</azimuthalGap>
          <secondaryAzimuthalGap>210.64</secondaryAzimuthalGap>
          <groundTruthLevel>-</groundTruthLevel>
          <minimumDistance>7.473668314530662e-05</minimumDistance>
          <maximumDistance>0.0024254523847306976</maximumDistance>
          <medianDistance>0.0007078542373754209</medianDistance>
        </quality>
        <comment>
          <text>Note: Depth/Latitude/Longitude errors are calculated from covariance matrix as 1D marginal (Lon/Lat errors as great circle degrees) while OriginUncertainty min/max horizontal errors are calculated from 2D error ellipsoid and are therefore seemingly higher compared to 1D errors. Error estimates can be reconstructed from the following original NonLinLoc error statistics line:
STATISTICS ExpectX 0.0390412 Y -0.0394172 Z 0.000687752  CovXX 7.12888e-06 XY 7.2582e-07 XZ 1.47244e-08 YY 5.65997e-06 YZ -1.95093e-08 ZZ 3.61077e-07 EllAz1  327.142 Dip1  89.7245 Len1  0.0011288 Az2  337.67 Dip2  -0.270853 Len2  0.0043506 Len3  5.120289e-03</text>
        </comment>
        <creationInfo>
          <author>Genevieve Savard   obs:./obs_picked1/merged.obs   NLLoc:v7.00.00(27Oct2017)</author>
          <creationTime>2020-08-21T16:08:26.000000Z</creationTime>
        </creationInfo>
        <originUncertainty>
          <preferredDescription>uncertainty ellipse</preferredDescription>
          <minHorizontalUncertainty>3.51173</minHorizontalUncertainty>
          <maxHorizontalUncertainty>4.13305</maxHorizontalUncertainty>
          <azimuthMaxHorizontalUncertainty>67.6693</azimuthMaxHorizontalUncertainty>
          <confidenceLevel>68.0</confidenceLevel>
        </originUncertainty>
        <arrival publicID="smi:local/308fcc96-a0b3-4a6e-b789-38c4ac697f85">
          <pickID>smi:local/2bceaed0-57e2-47ec-af61-4acc4efd49df</pickID>
          <phase>P</phase>
          <azimuth>359.0</azimuth>
          <distance>7.464369329125463e-05</distance>
          <takeoffAngle>
            <value>-1.0</value>
          </takeoffAngle>
          <timeResidual>-0.2282</timeResidual>
          <timeWeight>1.0106</timeWeight>
        </arrival>
        <arrival publicID="smi:local/c60d75dc-55c8-471d-a9f4-9385b8d20485">
          <pickID>smi:local/be37e554-fc42-4e9f-a474-81c7efe29c83</pickID>
          <phase>P</phase>
          <azimuth>359.0</azimuth>
          <distance>0.0003246550997366617</distance>
          <takeoffAngle>
            <value>-1.0</value>
          </takeoffAngle>
          <timeResidual>-0.21</timeResidual>
          <timeWeight>1.7687</timeWeight>
        </arrival>
        <arrival publicID="smi:local/150cb747-c8f0-4077-982b-b7015b8d8185">
          <pickID>smi:local/57bfcbf1-14f4-4d50-aa7e-d03881ff4c7f</pickID>
          <phase>P</phase>
          <azimuth>359.0</azimuth>
          <distance>0.0005602773604873691</distance>
          <takeoffAngle>
            <value>-1.0</value>
          </takeoffAngle>
          <timeResidual>-0.2114</timeResidual>
          <timeWeight>1.2578</timeWeight>
        </arrival>
        <arrival publicID="smi:local/da7d455d-5c6a-4acc-b8a8-c2d053d95a39">
          <pickID>smi:local/024d432a-b06a-498c-ad1a-8dee5159be23</pickID>
          <phase>P</phase>
          <azimuth>359.0</azimuth>
          <distance>0.0006780884908627227</distance>
          <takeoffAngle>
            <value>-1.0</value>
          </takeoffAngle>
          <timeResidual>-0.1797</timeResidual>
          <timeWeight>1.574</timeWeight>
        </arrival>
        <arrival publicID="smi:local/ac5aabe5-91ef-4e0d-a68c-1c6f97a1aaa0">
          <pickID>smi:local/4b4a94a9-ef8b-4655-8737-5009aa0b188d</pickID>
          <phase>P</phase>
          <azimuth>359.0</azimuth>
          <distance>0.0006879810285278288</distance>
          <takeoffAngle>
            <value>-1.0</value>
          </takeoffAngle>
          <timeResidual>-0.098</timeResidual>
          <timeWeight>1.574</timeWeight>
        </arrival>
        <arrival publicID="smi:local/9207e6fa-ab54-4b8e-89f6-9d7c9ee5dbf5">
          <pickID>smi:local/a309338b-1cef-4548-b796-794569b6e007</pickID>
          <phase>P</phase>
          <azimuth>359.0</azimuth>
          <distance>0.000707766103858041</distance>
          <takeoffAngle>
            <value>-1.0</value>
          </takeoffAngle>
          <timeResidual>0.7854</timeResidual>
          <timeWeight>1.7687</timeWeight>
        </arrival>
        <arrival publicID="smi:local/c9c5ad93-b8de-4e21-8ddd-c7f0d4e72833">
          <pickID>smi:local/736d8fab-c1cd-4716-9e5a-fa820dac8622</pickID>
          <phase>S</phase>
          <azimuth>359.0</azimuth>
          <distance>0.0009613747967271229</distance>
          <takeoffAngle>
            <value>-1.0</value>
          </takeoffAngle>
          <timeResidual>-0.1348</timeResidual>
          <timeWeight>0.6357</timeWeight>
        </arrival>
        <arrival publicID="smi:local/cd79a403-8651-43c9-8c02-4f9aabc41c72">
          <pickID>smi:local/70bae908-cef9-4a1f-b0ed-faad0ac7411d</pickID>
          <phase>P</phase>
          <azimuth>359.0</azimuth>
          <distance>0.00138135798669117</distance>
          <takeoffAngle>
            <value>-1.0</value>
          </takeoffAngle>
          <timeResidual>-0.1534</timeResidual>
          <timeWeight>0.14</timeWeight>
        </arrival>
        <arrival publicID="smi:local/ff36c0f6-764e-491e-9943-64ed2c2d0a80">
          <pickID>smi:local/110f5157-3f9a-4c78-8feb-3dba4654d579</pickID>
          <phase>P</phase>
          <azimuth>359.0</azimuth>
          <distance>0.0019686149953561014</distance>
          <takeoffAngle>
            <value>-1.0</value>
          </takeoffAngle>
          <timeResidual>-0.015</timeResidual>
          <timeWeight>0.0681</timeWeight>
        </arrival>
        <arrival publicID="smi:local/c01e7224-1aba-4e0e-a4a0-c00139fcf91f">
          <pickID>smi:local/2bbe4390-4594-4f43-88c8-b930a310489d</pickID>
          <phase>P</phase>
          <azimuth>359.0</azimuth>
          <distance>0.001979406854627126</distance>
          <takeoffAngle>
            <value>-1.0</value>
          </takeoffAngle>
          <timeResidual>-0.0404</timeResidual>
          <timeWeight>0.3307</timeWeight>
        </arrival>
        <arrival publicID="smi:local/f389d278-13b2-456b-ab4e-3383bc22533c">
          <pickID>smi:local/cdd032e4-3029-4f15-8e4c-8454645a0822</pickID>
          <phase>P</phase>
          <azimuth>359.0</azimuth>
          <distance>0.002425470371162816</distance>
          <takeoffAngle>
            <value>-1.0</value>
          </takeoffAngle>
          <timeResidual>0.0429</timeResidual>
          <timeWeight>0.8717</timeWeight>
        </arrival>
      </origin>
      <pick publicID="smi:local/736d8fab-c1cd-4716-9e5a-fa820dac8622">
        <time>
          <value>2020-03-10T05:08:11.637100Z</value>
          <uncertainty>0.0242</uncertainty>
        </time>
        <waveformID networkCode="XX" stationCode="C0209" channelCode="DPE"></waveformID>
        <phaseHint>S</phaseHint>
      </pick>
      <pick publicID="smi:local/110f5157-3f9a-4c78-8feb-3dba4654d579">
        <time>
          <value>2020-03-10T05:08:11.681500Z</value>
          <uncertainty>0.0794</uncertainty>
        </time>
        <waveformID networkCode="XX" stationCode="F0607" channelCode="DPZ"></waveformID>
        <phaseHint>P</phaseHint>
      </pick>
      <pick publicID="smi:local/2bbe4390-4594-4f43-88c8-b930a310489d">
        <time>
          <value>2020-03-10T05:08:11.656600Z</value>
          <uncertainty>0.0349</uncertainty>
        </time>
        <waveformID networkCode="XX" stationCode="F0304" channelCode="DPE"></waveformID>
        <phaseHint>P</phaseHint>
      </pick>
      <pick publicID="smi:local/57bfcbf1-14f4-4d50-aa7e-d03881ff4c7f">
        <time>
          <value>2020-03-10T05:08:11.393700Z</value>
          <uncertainty>0.0157</uncertainty>
        </time>
        <waveformID networkCode="XX" stationCode="C0404" channelCode="DPE"></waveformID>
        <phaseHint>P</phaseHint>
      </pick>
      <pick publicID="smi:local/024d432a-b06a-498c-ad1a-8dee5159be23">
        <time>
          <value>2020-03-10T05:08:11.437300Z</value>
          <uncertainty>0.0133</uncertainty>
        </time>
        <waveformID networkCode="XX" stationCode="C0909" channelCode="DPN"></waveformID>
        <phaseHint>P</phaseHint>
      </pick>
      <pick publicID="smi:local/4b4a94a9-ef8b-4655-8737-5009aa0b188d">
        <time>
          <value>2020-03-10T05:08:11.519600Z</value>
          <uncertainty>0.0133</uncertainty>
        </time>
        <waveformID networkCode="XX" stationCode="C0202" channelCode="DPN"></waveformID>
        <phaseHint>P</phaseHint>
      </pick>
      <pick publicID="smi:local/cdd032e4-3029-4f15-8e4c-8454645a0822">
        <time>
          <value>2020-03-10T05:08:11.766400Z</value>
          <uncertainty>0.02</uncertainty>
        </time>
        <waveformID networkCode="XX" stationCode="F0307" channelCode="DPZ"></waveformID>
        <phaseHint>P</phaseHint>
      </pick>
      <pick publicID="smi:local/2bceaed0-57e2-47ec-af61-4acc4efd49df">
        <time>
          <value>2020-03-10T05:08:11.323500Z</value>
          <uncertainty>0.0182</uncertainty>
        </time>
        <waveformID networkCode="XX" stationCode="C0902" channelCode="DPZ"></waveformID>
        <phaseHint>P</phaseHint>
      </pick>
      <pick publicID="smi:local/70bae908-cef9-4a1f-b0ed-faad0ac7411d">
        <time>
          <value>2020-03-10T05:08:11.506900Z</value>
          <uncertainty>0.0549</uncertainty>
        </time>
        <waveformID networkCode="XX" stationCode="F0604" channelCode="DPZ"></waveformID>
        <phaseHint>P</phaseHint>
      </pick>
      <pick publicID="smi:local/a309338b-1cef-4548-b796-794569b6e007">
        <time>
          <value>2020-03-10T05:08:12.404700Z</value>
          <uncertainty>0.0121</uncertainty>
        </time>
        <waveformID networkCode="XX" stationCode="C0407" channelCode="DPN"></waveformID>
        <phaseHint>P</phaseHint>
      </pick>
      <pick publicID="smi:local/be37e554-fc42-4e9f-a474-81c7efe29c83">
        <time>
          <value>2020-03-10T05:08:11.368300Z</value>
          <uncertainty>0.0121</uncertainty>
        </time>
        <waveformID networkCode="XX" stationCode="C0704" channelCode="DPN"></waveformID>
        <phaseHint>P</phaseHint>
      </pick>
    </event>
  </eventParameters>
</q:quakeml>
