<?xml version='1.0' encoding='utf-8'?>
<q:quakeml xmlns="http://quakeml.org/xmlns/bed/1.2" xmlns:q="http://quakeml.org/xmlns/quakeml/1.2">
  <eventParameters publicID="smi:local/dc9fa470-b34c-42ca-8e8c-f4b4cd86195e">
    <event publicID="smi:local/0484fd80-67d8-42f8-bbf7-7291b7e71515">
      <preferredOriginID>smi:local/bb19e8b5-55f8-469a-97ab-f65599c57373</preferredOriginID>
      <comment>
        <text>CaMI.FRS microseismicity</text>
      </comment>
      <comment id="smi:local/cc0db1ff-6d0b-4373-996f-ad5197632172">
        <text>eqcorrscan_template_2020_03_19t01_21_19</text>
      </comment>
      <creationInfo>
        <author>Genevieve Savard   obs:./obs_picked5/merged.obs   NLLoc:v7.00.00(27Oct2017)</author>
        <creationTime>2020-09-18T19:57:42.000000Z</creationTime>
      </creationInfo>
      <origin publicID="smi:local/bb19e8b5-55f8-469a-97ab-f65599c57373">
        <time>
          <value>2020-03-19T01:21:18.405242Z</value>
        </time>
        <latitude>
          <value>50.460243</value>
          <uncertainty>0.010043252299132586</uncertainty>
        </latitude>
        <longitude>
          <value>-112.105489</value>
          <uncertainty>0.009741234772850299</uncertainty>
        </longitude>
        <depth>
          <value>3.125</value>
          <uncertainty>21.631851515762584</uncertainty>
          <confidenceLevel>68.0</confidenceLevel>
        </depth>
        <depthType>from location</depthType>
        <quality>
          <associatedPhaseCount>20</associatedPhaseCount>
          <usedPhaseCount>20</usedPhaseCount>
          <associatedStationCount>-1</associatedStationCount>
          <usedStationCount>20</usedStationCount>
          <depthPhaseCount>-1</depthPhaseCount>
          <standardError>0.305671</standardError>
          <azimuthalGap>360.0</azimuthalGap>
          <secondaryAzimuthalGap>360.0</secondaryAzimuthalGap>
          <groundTruthLevel>-</groundTruthLevel>
          <minimumDistance>0.013937326519886118</minimumDistance>
          <maximumDistance>0.013937326519886118</maximumDistance>
          <medianDistance>0.013937326519886118</medianDistance>
        </quality>
        <comment>
          <text>Note: Depth/Latitude/Longitude errors are calculated from covariance matrix as 1D marginal (Lon/Lat errors as great circle degrees) while OriginUncertainty min/max horizontal errors are calculated from 2D error ellipsoid and are therefore seemingly higher compared to 1D errors. Error estimates can be reconstructed from the following original NonLinLoc error statistics line:
STATISTICS ExpectX 0.126333 Y 0.0852198 Z 0.0218078  CovXX 1.17327 XY 0.00111119 XZ 0.000788394 YY 1.24715 YZ 6.30476e-05 ZZ 0.000467937 EllAz1  265.748 Dip1  89.9614 Len1  0.0406194 Az2  270.862 Dip2  -0.0384658 Len2  2.03509 Len3  2.098210e+00</text>
        </comment>
        <creationInfo>
          <author>Genevieve Savard   obs:./obs_picked5/merged.obs   NLLoc:v7.00.00(27Oct2017)</author>
          <creationTime>2020-09-18T19:57:42.000000Z</creationTime>
        </creationInfo>
        <originUncertainty>
          <preferredDescription>uncertainty ellipse</preferredDescription>
          <minHorizontalUncertainty>1642.7099999999998</minHorizontalUncertainty>
          <maxHorizontalUncertainty>1693.6599999999999</maxHorizontalUncertainty>
          <azimuthMaxHorizontalUncertainty>0.861579</azimuthMaxHorizontalUncertainty>
          <confidenceLevel>68.0</confidenceLevel>
        </originUncertainty>
        <arrival publicID="smi:local/3a49f08e-a0ec-4a23-9375-fb36e9cf04ff">
          <pickID>smi:local/d7eed4de-2f44-4ae1-88ad-8a59fb0d954b</pickID>
          <phase>P</phase>
          <azimuth>359.0</azimuth>
          <distance>0.013937686248528487</distance>
          <takeoffAngle>
            <value>-1.0</value>
          </takeoffAngle>
          <timeResidual>-0.0268</timeResidual>
          <timeWeight>1.0</timeWeight>
        </arrival>
        <arrival publicID="smi:local/fd78c0ab-d84c-46a6-854c-75024b7cef71">
          <pickID>smi:local/194ac03e-2854-44ca-a63d-715becaf547d</pickID>
          <phase>P</phase>
          <azimuth>359.0</azimuth>
          <distance>0.013937686248528487</distance>
          <takeoffAngle>
            <value>-1.0</value>
          </takeoffAngle>
          <timeResidual>-0.0244</timeResidual>
          <timeWeight>1.0</timeWeight>
        </arrival>
        <arrival publicID="smi:local/191dbec0-8154-41bb-896e-f3e240004656">
          <pickID>smi:local/a4757a24-ba5d-41bf-afcd-bc414d9d6600</pickID>
          <phase>P</phase>
          <azimuth>359.0</azimuth>
          <distance>0.013937686248528487</distance>
          <takeoffAngle>
            <value>-1.0</value>
          </takeoffAngle>
          <timeResidual>-0.0196</timeResidual>
          <timeWeight>1.0</timeWeight>
        </arrival>
        <arrival publicID="smi:local/5f85cd6a-5091-422f-8fa1-7056217dfc6d">
          <pickID>smi:local/5798f80f-8f68-49df-9595-3a90ee9be527</pickID>
          <phase>P</phase>
          <azimuth>359.0</azimuth>
          <distance>0.013937686248528487</distance>
          <takeoffAngle>
            <value>-1.0</value>
          </takeoffAngle>
          <timeResidual>0.006</timeResidual>
          <timeWeight>1.0</timeWeight>
        </arrival>
        <arrival publicID="smi:local/eb555fd7-4efb-4f67-b1d4-7ba29341d398">
          <pickID>smi:local/aa01ac5b-9393-4a7c-a9e3-7f722b1bb797</pickID>
          <phase>P</phase>
          <azimuth>359.0</azimuth>
          <distance>0.013937686248528487</distance>
          <takeoffAngle>
            <value>-1.0</value>
          </takeoffAngle>
          <timeResidual>0.0018</timeResidual>
          <timeWeight>1.0</timeWeight>
        </arrival>
        <arrival publicID="smi:local/0646951b-86a8-4a70-9364-3a9f83160535">
          <pickID>smi:local/000582af-164e-4ce8-9bb7-8c3d3bf62e4a</pickID>
          <phase>P</phase>
          <azimuth>359.0</azimuth>
          <distance>0.013937686248528487</distance>
          <takeoffAngle>
            <value>-1.0</value>
          </takeoffAngle>
          <timeResidual>0.0106</timeResidual>
          <timeWeight>1.0</timeWeight>
        </arrival>
        <arrival publicID="smi:local/3fd3d8d3-e973-4e2b-9ef0-e634339dbdee">
          <pickID>smi:local/141cfd88-8424-4910-9fa2-5d7baeda967c</pickID>
          <phase>P</phase>
          <azimuth>359.0</azimuth>
          <distance>0.013937686248528487</distance>
          <takeoffAngle>
            <value>-1.0</value>
          </takeoffAngle>
          <timeResidual>0.0086</timeResidual>
          <timeWeight>1.0</timeWeight>
        </arrival>
        <arrival publicID="smi:local/c5cf5a81-2ee8-4474-83c7-11efbb8b2e90">
          <pickID>smi:local/530bfb7a-a506-4471-bade-78d6abdabcb2</pickID>
          <phase>P</phase>
          <azimuth>359.0</azimuth>
          <distance>0.013937686248528487</distance>
          <takeoffAngle>
            <value>-1.0</value>
          </takeoffAngle>
          <timeResidual>0.0148</timeResidual>
          <timeWeight>1.0</timeWeight>
        </arrival>
        <arrival publicID="smi:local/4c48efb3-a8a3-477b-964c-f3411cf2bc5c">
          <pickID>smi:local/947cf946-8de9-4421-b193-2d7e3c0b19a4</pickID>
          <phase>P</phase>
          <azimuth>359.0</azimuth>
          <distance>0.013937686248528487</distance>
          <takeoffAngle>
            <value>-1.0</value>
          </takeoffAngle>
          <timeResidual>0.018</timeResidual>
          <timeWeight>1.0</timeWeight>
        </arrival>
        <arrival publicID="smi:local/40ad93b0-8cff-4c61-aee4-c21ac3a5e479">
          <pickID>smi:local/be4829b3-7207-4368-8f44-91f461005e80</pickID>
          <phase>S</phase>
          <azimuth>359.0</azimuth>
          <distance>0.013937686248528487</distance>
          <takeoffAngle>
            <value>-1.0</value>
          </takeoffAngle>
          <timeResidual>-0.6894</timeResidual>
          <timeWeight>1.0</timeWeight>
        </arrival>
        <arrival publicID="smi:local/943ff20f-14e7-454a-8609-37ba004a5fb2">
          <pickID>smi:local/55d8e28f-d561-4289-a104-4686773398ef</pickID>
          <phase>S</phase>
          <azimuth>359.0</azimuth>
          <distance>0.013937686248528487</distance>
          <takeoffAngle>
            <value>-1.0</value>
          </takeoffAngle>
          <timeResidual>-0.6558</timeResidual>
          <timeWeight>1.0</timeWeight>
        </arrival>
        <arrival publicID="smi:local/c2ed4ab1-394b-43f6-81f9-8b8c82ddefb6">
          <pickID>smi:local/70c31d51-4efa-4674-9d50-249221e8e5ad</pickID>
          <phase>S</phase>
          <azimuth>359.0</azimuth>
          <distance>0.013937686248528487</distance>
          <takeoffAngle>
            <value>-1.0</value>
          </takeoffAngle>
          <timeResidual>-0.6689</timeResidual>
          <timeWeight>1.0</timeWeight>
        </arrival>
        <arrival publicID="smi:local/59a63501-0503-4431-aadf-e05b5817bc0d">
          <pickID>smi:local/6dbc688d-a59c-4774-bc8f-3acd840e47e7</pickID>
          <phase>S</phase>
          <azimuth>359.0</azimuth>
          <distance>0.013937686248528487</distance>
          <takeoffAngle>
            <value>-1.0</value>
          </takeoffAngle>
          <timeResidual>0.2539</timeResidual>
          <timeWeight>1.0</timeWeight>
        </arrival>
        <arrival publicID="smi:local/c06c45b4-cfff-4350-b874-79e3a748d161">
          <pickID>smi:local/3e0ba0ad-800e-4d2e-a848-7236285f1471</pickID>
          <phase>S</phase>
          <azimuth>359.0</azimuth>
          <distance>0.013937686248528487</distance>
          <takeoffAngle>
            <value>-1.0</value>
          </takeoffAngle>
          <timeResidual>0.26</timeResidual>
          <timeWeight>1.0</timeWeight>
        </arrival>
        <arrival publicID="smi:local/64d6d442-f8a0-4c1b-9bd6-cfea0c6a0883">
          <pickID>smi:local/d4d7aac9-42d8-4971-9f1f-a299ba48e115</pickID>
          <phase>S</phase>
          <azimuth>359.0</azimuth>
          <distance>0.013937686248528487</distance>
          <takeoffAngle>
            <value>-1.0</value>
          </takeoffAngle>
          <timeResidual>0.2745</timeResidual>
          <timeWeight>1.0</timeWeight>
        </arrival>
        <arrival publicID="smi:local/dce0f268-4e5e-42eb-8397-d1f4d2aed78a">
          <pickID>smi:local/77d73a71-87f3-4e5e-acbc-8f69b0fe49f0</pickID>
          <phase>S</phase>
          <azimuth>359.0</azimuth>
          <distance>0.013937686248528487</distance>
          <takeoffAngle>
            <value>-1.0</value>
          </takeoffAngle>
          <timeResidual>0.2429</timeResidual>
          <timeWeight>1.0</timeWeight>
        </arrival>
        <arrival publicID="smi:local/e2ed8416-fc3d-4082-821a-a009c9d77404">
          <pickID>smi:local/84e74c47-3744-4511-be34-9380cbf49ca2</pickID>
          <phase>S</phase>
          <azimuth>359.0</azimuth>
          <distance>0.013937686248528487</distance>
          <takeoffAngle>
            <value>-1.0</value>
          </takeoffAngle>
          <timeResidual>0.2545</timeResidual>
          <timeWeight>1.0</timeWeight>
        </arrival>
        <arrival publicID="smi:local/c53fa53d-1772-4207-8538-e57bb6b1b379">
          <pickID>smi:local/dcbbe8ff-d42e-4090-b1a7-b5c7f7fe906b</pickID>
          <phase>S</phase>
          <azimuth>359.0</azimuth>
          <distance>0.013937686248528487</distance>
          <takeoffAngle>
            <value>-1.0</value>
          </takeoffAngle>
          <timeResidual>0.2517</timeResidual>
          <timeWeight>1.0</timeWeight>
        </arrival>
        <arrival publicID="smi:local/151e12b3-9f72-4e5c-a78f-57cbe59f1711">
          <pickID>smi:local/8cb9a2ea-0cdd-4181-8135-f68b4e325b3c</pickID>
          <phase>S</phase>
          <azimuth>359.0</azimuth>
          <distance>0.013937686248528487</distance>
          <takeoffAngle>
            <value>-1.0</value>
          </takeoffAngle>
          <timeResidual>0.2408</timeResidual>
          <timeWeight>1.0</timeWeight>
        </arrival>
        <arrival publicID="smi:local/453a5fe5-3fda-4f09-be34-5698c40ecb96">
          <pickID>smi:local/6821f7d0-41c5-4a5e-a6b2-b0ed546d8333</pickID>
          <phase>S</phase>
          <azimuth>359.0</azimuth>
          <distance>0.013937686248528487</distance>
          <takeoffAngle>
            <value>-1.0</value>
          </takeoffAngle>
          <timeResidual>0.2467</timeResidual>
          <timeWeight>1.0</timeWeight>
        </arrival>
      </origin>
      <pick publicID="smi:local/5798f80f-8f68-49df-9595-3a90ee9be527">
        <time>
          <value>2020-03-19T01:21:19.043000Z</value>
          <uncertainty>0.05</uncertainty>
        </time>
        <waveformID networkCode="XX" stationCode="G14" channelCode="DPZ"></waveformID>
        <phaseHint>P</phaseHint>
      </pick>
      <pick publicID="smi:local/a4757a24-ba5d-41bf-afcd-bc414d9d6600">
        <time>
          <value>2020-03-19T01:21:19.023100Z</value>
          <uncertainty>0.05</uncertainty>
        </time>
        <waveformID networkCode="XX" stationCode="G6" channelCode="DPZ"></waveformID>
        <phaseHint>P</phaseHint>
      </pick>
      <pick publicID="smi:local/dcbbe8ff-d42e-4090-b1a7-b5c7f7fe906b">
        <time>
          <value>2020-03-19T01:21:20.029800Z</value>
          <uncertainty>0.05</uncertainty>
        </time>
        <waveformID networkCode="XX" stationCode="G6" channelCode="DPZ"></waveformID>
        <phaseHint>S</phaseHint>
      </pick>
      <pick publicID="smi:local/530bfb7a-a506-4471-bade-78d6abdabcb2">
        <time>
          <value>2020-03-19T01:21:19.054400Z</value>
          <uncertainty>0.05</uncertainty>
        </time>
        <waveformID networkCode="XX" stationCode="G11" channelCode="DPZ"></waveformID>
        <phaseHint>P</phaseHint>
      </pick>
      <pick publicID="smi:local/3e0ba0ad-800e-4d2e-a848-7236285f1471">
        <time>
          <value>2020-03-19T01:21:20.023700Z</value>
          <uncertainty>0.05</uncertainty>
        </time>
        <waveformID networkCode="XX" stationCode="G11" channelCode="DPZ"></waveformID>
        <phaseHint>S</phaseHint>
      </pick>
      <pick publicID="smi:local/947cf946-8de9-4421-b193-2d7e3c0b19a4">
        <time>
          <value>2020-03-19T01:21:19.056700Z</value>
          <uncertainty>0.05</uncertainty>
        </time>
        <waveformID networkCode="XX" stationCode="G12" channelCode="DPZ"></waveformID>
        <phaseHint>P</phaseHint>
      </pick>
      <pick publicID="smi:local/6dbc688d-a59c-4774-bc8f-3acd840e47e7">
        <time>
          <value>2020-03-19T01:21:20.014500Z</value>
          <uncertainty>0.05</uncertainty>
        </time>
        <waveformID networkCode="XX" stationCode="G12" channelCode="DPZ"></waveformID>
        <phaseHint>S</phaseHint>
      </pick>
      <pick publicID="smi:local/be4829b3-7207-4368-8f44-91f461005e80">
        <time>
          <value>2020-03-19T01:21:19.056800Z</value>
          <uncertainty>0.05</uncertainty>
        </time>
        <waveformID networkCode="XX" stationCode="G17" channelCode="DPZ"></waveformID>
        <phaseHint>S</phaseHint>
      </pick>
      <pick publicID="smi:local/70c31d51-4efa-4674-9d50-249221e8e5ad">
        <time>
          <value>2020-03-19T01:21:19.112600Z</value>
          <uncertainty>0.05</uncertainty>
        </time>
        <waveformID networkCode="XX" stationCode="G5" channelCode="DPN"></waveformID>
        <phaseHint>S</phaseHint>
      </pick>
      <pick publicID="smi:local/141cfd88-8424-4910-9fa2-5d7baeda967c">
        <time>
          <value>2020-03-19T01:21:19.050400Z</value>
          <uncertainty>0.05</uncertainty>
        </time>
        <waveformID networkCode="XX" stationCode="G8" channelCode="DPZ"></waveformID>
        <phaseHint>P</phaseHint>
      </pick>
      <pick publicID="smi:local/84e74c47-3744-4511-be34-9380cbf49ca2">
        <time>
          <value>2020-03-19T01:21:20.027400Z</value>
          <uncertainty>0.05</uncertainty>
        </time>
        <waveformID networkCode="XX" stationCode="G8" channelCode="DPZ"></waveformID>
        <phaseHint>S</phaseHint>
      </pick>
      <pick publicID="smi:local/aa01ac5b-9393-4a7c-a9e3-7f722b1bb797">
        <time>
          <value>2020-03-19T01:21:19.045800Z</value>
          <uncertainty>0.05</uncertainty>
        </time>
        <waveformID networkCode="XX" stationCode="G4" channelCode="DPN"></waveformID>
        <phaseHint>P</phaseHint>
      </pick>
      <pick publicID="smi:local/77d73a71-87f3-4e5e-acbc-8f69b0fe49f0">
        <time>
          <value>2020-03-19T01:21:20.027100Z</value>
          <uncertainty>0.05</uncertainty>
        </time>
        <waveformID networkCode="XX" stationCode="G4" channelCode="DPN"></waveformID>
        <phaseHint>S</phaseHint>
      </pick>
      <pick publicID="smi:local/d7eed4de-2f44-4ae1-88ad-8a59fb0d954b">
        <time>
          <value>2020-03-19T01:21:19.018100Z</value>
          <uncertainty>0.05</uncertainty>
        </time>
        <waveformID networkCode="XX" stationCode="G2" channelCode="DPZ"></waveformID>
        <phaseHint>P</phaseHint>
      </pick>
      <pick publicID="smi:local/6821f7d0-41c5-4a5e-a6b2-b0ed546d8333">
        <time>
          <value>2020-03-19T01:21:20.036100Z</value>
          <uncertainty>0.05</uncertainty>
        </time>
        <waveformID networkCode="XX" stationCode="G2" channelCode="DPZ"></waveformID>
        <phaseHint>S</phaseHint>
      </pick>
      <pick publicID="smi:local/194ac03e-2854-44ca-a63d-715becaf547d">
        <time>
          <value>2020-03-19T01:21:19.020900Z</value>
          <uncertainty>0.05</uncertainty>
        </time>
        <waveformID networkCode="XX" stationCode="G1" channelCode="DPZ"></waveformID>
        <phaseHint>P</phaseHint>
      </pick>
      <pick publicID="smi:local/8cb9a2ea-0cdd-4181-8135-f68b4e325b3c">
        <time>
          <value>2020-03-19T01:21:20.032700Z</value>
          <uncertainty>0.05</uncertainty>
        </time>
        <waveformID networkCode="XX" stationCode="G1" channelCode="DPZ"></waveformID>
        <phaseHint>S</phaseHint>
      </pick>
      <pick publicID="smi:local/000582af-164e-4ce8-9bb7-8c3d3bf62e4a">
        <time>
          <value>2020-03-19T01:21:19.046800Z</value>
          <uncertainty>0.05</uncertainty>
        </time>
        <waveformID networkCode="XX" stationCode="G15" channelCode="DPZ"></waveformID>
        <phaseHint>P</phaseHint>
      </pick>
      <pick publicID="smi:local/d4d7aac9-42d8-4971-9f1f-a299ba48e115">
        <time>
          <value>2020-03-19T01:21:20.026400Z</value>
          <uncertainty>0.05</uncertainty>
        </time>
        <waveformID networkCode="XX" stationCode="G15" channelCode="DPZ"></waveformID>
        <phaseHint>S</phaseHint>
      </pick>
      <pick publicID="smi:local/55d8e28f-d561-4289-a104-4686773398ef">
        <time>
          <value>2020-03-19T01:21:19.101800Z</value>
          <uncertainty>0.05</uncertainty>
        </time>
        <waveformID networkCode="XX" stationCode="G13" channelCode="DPZ"></waveformID>
        <phaseHint>S</phaseHint>
      </pick>
    </event>
  </eventParameters>
</q:quakeml>
