<?xml version='1.0' encoding='utf-8'?>
<q:quakeml xmlns="http://quakeml.org/xmlns/bed/1.2" xmlns:q="http://quakeml.org/xmlns/quakeml/1.2">
  <eventParameters publicID="smi:local/6fa80daa-acca-48c2-9aaf-00d28d8ad90f">
    <event publicID="smi:local/f0e921b2-c75b-404b-b4d3-f09190cfbbb4">
      <preferredOriginID>smi:local/86c7ecb3-b325-45ec-b004-fe630878dcf1</preferredOriginID>
      <comment>
        <text>CaMI.FRS microseismicity</text>
      </comment>
      <comment id="smi:local/f6b7b4bf-ecb6-4149-be65-7066aa5d4434">
        <text>eqcorrscan_template_2020_02_25t05_05_46</text>
      </comment>
      <creationInfo>
        <author>Genevieve Savard   obs:./obs_picked5/merged.obs   NLLoc:v7.00.00(27Oct2017)</author>
        <creationTime>2020-09-18T19:54:05.000000Z</creationTime>
      </creationInfo>
      <origin publicID="smi:local/86c7ecb3-b325-45ec-b004-fe630878dcf1">
        <time>
          <value>2020-02-25T05:05:46.820729Z</value>
        </time>
        <latitude>
          <value>50.447808</value>
          <uncertainty>0.00010730945680499891</uncertainty>
        </latitude>
        <longitude>
          <value>-112.123599</value>
          <uncertainty>0.00011211117865835326</uncertainty>
        </longitude>
        <depth>
          <value>0.391</value>
          <uncertainty>0.32240812644845046</uncertainty>
          <confidenceLevel>68.0</confidenceLevel>
        </depth>
        <depthType>from location</depthType>
        <quality>
          <associatedPhaseCount>63</associatedPhaseCount>
          <usedPhaseCount>63</usedPhaseCount>
          <associatedStationCount>-1</associatedStationCount>
          <usedStationCount>46</usedStationCount>
          <depthPhaseCount>-1</depthPhaseCount>
          <standardError>0.0768088</standardError>
          <azimuthalGap>131.833</azimuthalGap>
          <secondaryAzimuthalGap>131.833</secondaryAzimuthalGap>
          <groundTruthLevel>-</groundTruthLevel>
          <minimumDistance>0.0004848944248360493</minimumDistance>
          <maximumDistance>0.008887347919738553</maximumDistance>
          <medianDistance>0.0030441406835224885</medianDistance>
        </quality>
        <comment>
          <text>Note: Depth/Latitude/Longitude errors are calculated from covariance matrix as 1D marginal (Lon/Lat errors as great circle degrees) while OriginUncertainty min/max horizontal errors are calculated from 2D error ellipsoid and are therefore seemingly higher compared to 1D errors. Error estimates can be reconstructed from the following original NonLinLoc error statistics line:
STATISTICS ExpectX -0.207051 Y -0.288529 Z 0.000451638  CovXX 0.000155406 XY -0.000110444 XZ -1.37265e-08 YY 0.000142379 YZ -5.12799e-08 ZZ 1.03947e-07 EllAz1  218.78 Dip1  -89.9296 Len1  0.000605577 Az2  223.313 Dip2  0.0701738 Len2  0.011621 Len3  3.026770e-02</text>
        </comment>
        <creationInfo>
          <author>Genevieve Savard   obs:./obs_picked5/merged.obs   NLLoc:v7.00.00(27Oct2017)</author>
          <creationTime>2020-09-18T19:54:05.000000Z</creationTime>
        </creationInfo>
        <originUncertainty>
          <preferredDescription>uncertainty ellipse</preferredDescription>
          <minHorizontalUncertainty>9.38035</minHorizontalUncertainty>
          <maxHorizontalUncertainty>24.4318</maxHorizontalUncertainty>
          <azimuthMaxHorizontalUncertainty>133.312</azimuthMaxHorizontalUncertainty>
          <confidenceLevel>68.0</confidenceLevel>
        </originUncertainty>
        <arrival publicID="smi:local/83bb77d8-45d3-40d9-a1d4-65fd85e8b61d">
          <pickID>smi:local/fd4f094f-2e00-471c-b28f-3d2b54a118c3</pickID>
          <phase>S</phase>
          <azimuth>359.0</azimuth>
          <distance>0.0004847343455901958</distance>
          <takeoffAngle>
            <value>-1.0</value>
          </takeoffAngle>
          <timeResidual>-0.1047</timeResidual>
          <timeWeight>0.1849</timeWeight>
        </arrival>
        <arrival publicID="smi:local/2fe36809-d697-46f9-9905-5f81354bdc6d">
          <pickID>smi:local/0599d89e-be8d-4701-9f32-d792fecfdebf</pickID>
          <phase>P</phase>
          <azimuth>359.0</azimuth>
          <distance>0.0013498817304840147</distance>
          <takeoffAngle>
            <value>-1.0</value>
          </takeoffAngle>
          <timeResidual>-0.0277</timeResidual>
          <timeWeight>0.1849</timeWeight>
        </arrival>
        <arrival publicID="smi:local/d4ccf285-38fc-471e-8542-7fbeb48d6faa">
          <pickID>smi:local/c004d973-4267-479a-a218-4014d80f0214</pickID>
          <phase>S</phase>
          <azimuth>359.0</azimuth>
          <distance>0.0013498817304840147</distance>
          <takeoffAngle>
            <value>-1.0</value>
          </takeoffAngle>
          <timeResidual>0.0173</timeResidual>
          <timeWeight>0.6451</timeWeight>
        </arrival>
        <arrival publicID="smi:local/15a6e024-f707-4d35-b068-54ee472f0186">
          <pickID>smi:local/1912c056-c8d5-4ffc-a96c-a6d74b92e840</pickID>
          <phase>P</phase>
          <azimuth>359.0</azimuth>
          <distance>0.0013669688409964705</distance>
          <takeoffAngle>
            <value>-1.0</value>
          </takeoffAngle>
          <timeResidual>-0.0225</timeResidual>
          <timeWeight>0.1849</timeWeight>
        </arrival>
        <arrival publicID="smi:local/9d2d6735-bee4-4909-8dac-5648ff2fd894">
          <pickID>smi:local/ee1c018f-d81b-4986-9e2c-c2084b64f6e3</pickID>
          <phase>S</phase>
          <azimuth>359.0</azimuth>
          <distance>0.0013669688409964705</distance>
          <takeoffAngle>
            <value>-1.0</value>
          </takeoffAngle>
          <timeResidual>0.0488</timeResidual>
          <timeWeight>0.7989</timeWeight>
        </arrival>
        <arrival publicID="smi:local/3e42eda6-7f79-4b5a-a5f5-93ad9421b785">
          <pickID>smi:local/c1520e72-ba64-4192-9d94-8a50f96bc3f4</pickID>
          <phase>P</phase>
          <azimuth>359.0</azimuth>
          <distance>0.0025927441898637</distance>
          <takeoffAngle>
            <value>-1.0</value>
          </takeoffAngle>
          <timeResidual>-0.049</timeResidual>
          <timeWeight>1.9131</timeWeight>
        </arrival>
        <arrival publicID="smi:local/75ae19a5-62c5-4328-9d4b-d35bc40ed36e">
          <pickID>smi:local/0c9cdf01-8b77-4fd5-8529-50ff9cb8084a</pickID>
          <phase>S</phase>
          <azimuth>359.0</azimuth>
          <distance>0.0025927441898637</distance>
          <takeoffAngle>
            <value>-1.0</value>
          </takeoffAngle>
          <timeResidual>-0.0634</timeResidual>
          <timeWeight>0.5336</timeWeight>
        </arrival>
        <arrival publicID="smi:local/85f935a0-944d-482a-a784-226bbbc2e781">
          <pickID>smi:local/8303d5f5-76a6-4088-bd84-c0a4c3e59f5e</pickID>
          <phase>P</phase>
          <azimuth>359.0</azimuth>
          <distance>0.002766313259806015</distance>
          <takeoffAngle>
            <value>-1.0</value>
          </takeoffAngle>
          <timeResidual>-0.0643</timeResidual>
          <timeWeight>2.3561</timeWeight>
        </arrival>
        <arrival publicID="smi:local/7d55987d-0c4c-48db-ba54-2281b896f5db">
          <pickID>smi:local/353d7aa1-fcb3-4cd2-a054-f1e26aaa5949</pickID>
          <phase>S</phase>
          <azimuth>359.0</azimuth>
          <distance>0.002766313259806015</distance>
          <takeoffAngle>
            <value>-1.0</value>
          </takeoffAngle>
          <timeResidual>-0.0736</timeResidual>
          <timeWeight>1.6396</timeWeight>
        </arrival>
        <arrival publicID="smi:local/49df4cd6-0ae9-47fc-93d2-77cf33aa32b4">
          <pickID>smi:local/f4b4ece1-fc39-42de-9aa6-31c0511ccb01</pickID>
          <phase>P</phase>
          <azimuth>359.0</azimuth>
          <distance>0.003025317882310609</distance>
          <takeoffAngle>
            <value>-1.0</value>
          </takeoffAngle>
          <timeResidual>-0.0481</timeResidual>
          <timeWeight>2.6192</timeWeight>
        </arrival>
        <arrival publicID="smi:local/aebffb86-da9d-483d-8ab2-ad4fb74a6efe">
          <pickID>smi:local/e7e25f10-bb09-4788-aaaa-0bdb2029c0c6</pickID>
          <phase>S</phase>
          <azimuth>359.0</azimuth>
          <distance>0.003025317882310609</distance>
          <takeoffAngle>
            <value>-1.0</value>
          </takeoffAngle>
          <timeResidual>-0.4021</timeResidual>
          <timeWeight>0.1849</timeWeight>
        </arrival>
        <arrival publicID="smi:local/adea636d-7aaa-43ad-aedc-bbe5bcad3c7b">
          <pickID>smi:local/03633ed5-c574-4eb6-929f-37251a6c488a</pickID>
          <phase>P</phase>
          <azimuth>359.0</azimuth>
          <distance>0.0030442036360349032</distance>
          <takeoffAngle>
            <value>-1.0</value>
          </takeoffAngle>
          <timeResidual>0.0529</timeResidual>
          <timeWeight>2.2191</timeWeight>
        </arrival>
        <arrival publicID="smi:local/684773be-c726-42eb-8fd6-fbbd89536931">
          <pickID>smi:local/a6dd5d83-0c39-4ca1-878c-bf5188aaf1f3</pickID>
          <phase>P</phase>
          <azimuth>359.0</azimuth>
          <distance>0.0030442036360349032</distance>
          <takeoffAngle>
            <value>-1.0</value>
          </takeoffAngle>
          <timeResidual>0.084</timeResidual>
          <timeWeight>0.1849</timeWeight>
        </arrival>
        <arrival publicID="smi:local/dc183faf-41bc-423c-a744-5abb292bdf1c">
          <pickID>smi:local/a153c870-2c6c-4ddc-bba5-284b089b711c</pickID>
          <phase>P</phase>
          <azimuth>359.0</azimuth>
          <distance>0.0030442036360349032</distance>
          <takeoffAngle>
            <value>-1.0</value>
          </takeoffAngle>
          <timeResidual>0.0834</timeResidual>
          <timeWeight>0.1849</timeWeight>
        </arrival>
        <arrival publicID="smi:local/caff38b9-556a-42da-8816-1fadb3aaa381">
          <pickID>smi:local/0e9a789c-57fe-4d34-8711-a7981e799f4d</pickID>
          <phase>P</phase>
          <azimuth>359.0</azimuth>
          <distance>0.0030442036360349032</distance>
          <takeoffAngle>
            <value>-1.0</value>
          </takeoffAngle>
          <timeResidual>0.0824</timeResidual>
          <timeWeight>0.1849</timeWeight>
        </arrival>
        <arrival publicID="smi:local/2a1b560d-ff92-4da9-91ea-936f2d230ff6">
          <pickID>smi:local/7de905dc-1a43-4fa3-8e1a-e4947a9b8377</pickID>
          <phase>P</phase>
          <azimuth>359.0</azimuth>
          <distance>0.0030442036360349032</distance>
          <takeoffAngle>
            <value>-1.0</value>
          </takeoffAngle>
          <timeResidual>0.0827</timeResidual>
          <timeWeight>0.1849</timeWeight>
        </arrival>
        <arrival publicID="smi:local/567a1406-b759-4034-95b4-a1357d535cee">
          <pickID>smi:local/ef559ee3-77b5-486f-8f8c-5de09f89a16a</pickID>
          <phase>P</phase>
          <azimuth>359.0</azimuth>
          <distance>0.0030442036360349032</distance>
          <takeoffAngle>
            <value>-1.0</value>
          </takeoffAngle>
          <timeResidual>0.0821</timeResidual>
          <timeWeight>0.1849</timeWeight>
        </arrival>
        <arrival publicID="smi:local/849d7d2b-cceb-45cc-8e33-a387c6d8222f">
          <pickID>smi:local/4e1ee0f8-bdc1-414c-85d6-9c039a08216b</pickID>
          <phase>P</phase>
          <azimuth>359.0</azimuth>
          <distance>0.0030442036360349032</distance>
          <takeoffAngle>
            <value>-1.0</value>
          </takeoffAngle>
          <timeResidual>0.0854</timeResidual>
          <timeWeight>0.1849</timeWeight>
        </arrival>
        <arrival publicID="smi:local/14122b7b-7f35-417c-8f6c-ce34c9569344">
          <pickID>smi:local/b982704a-7700-4c77-897c-84631a2218cd</pickID>
          <phase>P</phase>
          <azimuth>359.0</azimuth>
          <distance>0.0030442036360349032</distance>
          <takeoffAngle>
            <value>-1.0</value>
          </takeoffAngle>
          <timeResidual>0.0853</timeResidual>
          <timeWeight>0.1849</timeWeight>
        </arrival>
        <arrival publicID="smi:local/9042fff4-0b6c-4a87-bd72-18e76cc3617c">
          <pickID>smi:local/f7f079e1-8774-4561-b07f-ff10a1c6556a</pickID>
          <phase>P</phase>
          <azimuth>359.0</azimuth>
          <distance>0.0030442036360349032</distance>
          <takeoffAngle>
            <value>-1.0</value>
          </takeoffAngle>
          <timeResidual>0.0868</timeResidual>
          <timeWeight>0.1849</timeWeight>
        </arrival>
        <arrival publicID="smi:local/d017fd99-7f03-44f5-bfda-10ce326ff7d6">
          <pickID>smi:local/88479880-c706-4228-b104-516fab272a11</pickID>
          <phase>P</phase>
          <azimuth>359.0</azimuth>
          <distance>0.0030442036360349032</distance>
          <takeoffAngle>
            <value>-1.0</value>
          </takeoffAngle>
          <timeResidual>0.087</timeResidual>
          <timeWeight>0.1849</timeWeight>
        </arrival>
        <arrival publicID="smi:local/3e66205b-e100-4732-aa3d-d73309b557c9">
          <pickID>smi:local/682224dd-26d1-41e4-acb0-13b4c59d49e7</pickID>
          <phase>P</phase>
          <azimuth>359.0</azimuth>
          <distance>0.0030442036360349032</distance>
          <takeoffAngle>
            <value>-1.0</value>
          </takeoffAngle>
          <timeResidual>0.0878</timeResidual>
          <timeWeight>0.1849</timeWeight>
        </arrival>
        <arrival publicID="smi:local/83cf3e0e-ce16-4c0f-b43b-1acbb6d937c6">
          <pickID>smi:local/a36d9978-6b40-4056-8ab4-aee2602fc51a</pickID>
          <phase>P</phase>
          <azimuth>359.0</azimuth>
          <distance>0.0030442036360349032</distance>
          <takeoffAngle>
            <value>-1.0</value>
          </takeoffAngle>
          <timeResidual>0.086</timeResidual>
          <timeWeight>0.1849</timeWeight>
        </arrival>
        <arrival publicID="smi:local/45a4fca2-7efc-4603-a415-17d6de218466">
          <pickID>smi:local/51f52410-655a-4641-b7e2-db4133c534ec</pickID>
          <phase>P</phase>
          <azimuth>359.0</azimuth>
          <distance>0.0030442036360349032</distance>
          <takeoffAngle>
            <value>-1.0</value>
          </takeoffAngle>
          <timeResidual>0.0891</timeResidual>
          <timeWeight>0.1849</timeWeight>
        </arrival>
        <arrival publicID="smi:local/f03ff896-56db-41d5-949f-72a37ea91d52">
          <pickID>smi:local/a51e73ab-f9e4-4034-86e1-664134f81261</pickID>
          <phase>S</phase>
          <azimuth>359.0</azimuth>
          <distance>0.0030442036360349032</distance>
          <takeoffAngle>
            <value>-1.0</value>
          </takeoffAngle>
          <timeResidual>0.0641</timeResidual>
          <timeWeight>2.0699</timeWeight>
        </arrival>
        <arrival publicID="smi:local/b61ceeb8-4cd8-497d-aeb2-d707df3a34c2">
          <pickID>smi:local/b398c6a6-a609-4cd6-8569-0b040bd01fd2</pickID>
          <phase>S</phase>
          <azimuth>359.0</azimuth>
          <distance>0.0030442036360349032</distance>
          <takeoffAngle>
            <value>-1.0</value>
          </takeoffAngle>
          <timeResidual>0.07</timeResidual>
          <timeWeight>2.7471</timeWeight>
        </arrival>
        <arrival publicID="smi:local/9e58c3c0-3f56-4b99-8967-7498c65c0341">
          <pickID>smi:local/8d59a2cd-e8ff-4101-ac7f-285f2bbc1214</pickID>
          <phase>S</phase>
          <azimuth>359.0</azimuth>
          <distance>0.0030442036360349032</distance>
          <takeoffAngle>
            <value>-1.0</value>
          </takeoffAngle>
          <timeResidual>0.0633</timeResidual>
          <timeWeight>2.0699</timeWeight>
        </arrival>
        <arrival publicID="smi:local/bc74fd89-5495-47c6-abfc-4006b9c69f3c">
          <pickID>smi:local/1100a54d-530d-4f4a-8c37-01537afb5c24</pickID>
          <phase>S</phase>
          <azimuth>359.0</azimuth>
          <distance>0.0030442036360349032</distance>
          <takeoffAngle>
            <value>-1.0</value>
          </takeoffAngle>
          <timeResidual>0.0679</timeResidual>
          <timeWeight>2.3561</timeWeight>
        </arrival>
        <arrival publicID="smi:local/8f70ff2b-6cb1-427f-bb1e-14273f9ce2c0">
          <pickID>smi:local/e9c9dae9-4fc5-4f03-934d-e3bf8a08e695</pickID>
          <phase>S</phase>
          <azimuth>359.0</azimuth>
          <distance>0.0030442036360349032</distance>
          <takeoffAngle>
            <value>-1.0</value>
          </takeoffAngle>
          <timeResidual>0.0678</timeResidual>
          <timeWeight>2.4793</timeWeight>
        </arrival>
        <arrival publicID="smi:local/682b8b69-be3a-4f95-bafd-aa60fc51de6d">
          <pickID>smi:local/529922b1-c1d6-4dd0-8d3b-9b2002df1bbb</pickID>
          <phase>S</phase>
          <azimuth>359.0</azimuth>
          <distance>0.0030442036360349032</distance>
          <takeoffAngle>
            <value>-1.0</value>
          </takeoffAngle>
          <timeResidual>0.0748</timeResidual>
          <timeWeight>3.1212</timeWeight>
        </arrival>
        <arrival publicID="smi:local/a12f917f-68e1-4dcc-9ae2-8c500261bfa8">
          <pickID>smi:local/7b4b8fcd-5bea-4825-b438-45c503c78fce</pickID>
          <phase>S</phase>
          <azimuth>359.0</azimuth>
          <distance>0.0030442036360349032</distance>
          <takeoffAngle>
            <value>-1.0</value>
          </takeoffAngle>
          <timeResidual>0.068</timeResidual>
          <timeWeight>3.4352</timeWeight>
        </arrival>
        <arrival publicID="smi:local/cc13d2c5-be04-40f5-8f76-0e6a4c2228c7">
          <pickID>smi:local/6fd79804-0877-436a-ae49-fe074fe88264</pickID>
          <phase>S</phase>
          <azimuth>359.0</azimuth>
          <distance>0.0030442036360349032</distance>
          <takeoffAngle>
            <value>-1.0</value>
          </takeoffAngle>
          <timeResidual>0.0755</timeResidual>
          <timeWeight>2.4793</timeWeight>
        </arrival>
        <arrival publicID="smi:local/22cfa870-02ce-4efe-9a04-74ef64b39cf6">
          <pickID>smi:local/3a421d08-d1d5-4557-b6f6-20a9a685cbdb</pickID>
          <phase>S</phase>
          <azimuth>359.0</azimuth>
          <distance>0.0030442036360349032</distance>
          <takeoffAngle>
            <value>-1.0</value>
          </takeoffAngle>
          <timeResidual>0.0654</timeResidual>
          <timeWeight>2.2638</timeWeight>
        </arrival>
        <arrival publicID="smi:local/7af51a80-a5d0-43dd-a6db-c0fcc70e3150">
          <pickID>smi:local/281e373a-99ac-4698-bb9c-5c2037a69f90</pickID>
          <phase>S</phase>
          <azimuth>359.0</azimuth>
          <distance>0.0030442036360349032</distance>
          <takeoffAngle>
            <value>-1.0</value>
          </takeoffAngle>
          <timeResidual>0.0712</timeResidual>
          <timeWeight>2.5193</timeWeight>
        </arrival>
        <arrival publicID="smi:local/a9f86b6c-0661-4970-a329-db91009ad48a">
          <pickID>smi:local/b1409869-54e9-4d23-a937-f0a936b4b122</pickID>
          <phase>S</phase>
          <azimuth>359.0</azimuth>
          <distance>0.0030442036360349032</distance>
          <takeoffAngle>
            <value>-1.0</value>
          </takeoffAngle>
          <timeResidual>0.0927</timeResidual>
          <timeWeight>0.1849</timeWeight>
        </arrival>
        <arrival publicID="smi:local/0589bc31-8d55-4833-8ae8-a409280c3dee">
          <pickID>smi:local/d49c5c45-4d26-4081-b9f1-1b6477c646d3</pickID>
          <phase>S</phase>
          <azimuth>359.0</azimuth>
          <distance>0.0030442036360349032</distance>
          <takeoffAngle>
            <value>-1.0</value>
          </takeoffAngle>
          <timeResidual>0.093</timeResidual>
          <timeWeight>0.1849</timeWeight>
        </arrival>
        <arrival publicID="smi:local/18eef8b0-c98d-49a7-84cd-dd7bf553af05">
