<?xml version='1.0' encoding='utf-8'?>
<q:quakeml xmlns="http://quakeml.org/xmlns/bed/1.2" xmlns:q="http://quakeml.org/xmlns/quakeml/1.2">
  <eventParameters publicID="smi:local/626c7dde-90d0-40b5-9df2-6138f99a5570">
    <event publicID="smi:local/f3618c91-6ecd-4707-babd-4a6ea1469167">
      <preferredOriginID>smi:local/9265682a-9bff-4c3b-a20a-39fddda67758</preferredOriginID>
      <comment>
        <text>CaMI.FRS microseismicity</text>
      </comment>
      <comment id="smi:local/0e4f33af-ac81-406e-9cec-bcd45a91bb37">
        <text>eqcorrscan_template_2020_03_10t04_38_30</text>
      </comment>
      <creationInfo>
        <author>Genevieve Savard   obs:./obs_picked1/merged.obs   NLLoc:v7.00.00(27Oct2017)</author>
        <creationTime>2020-08-21T16:08:24.000000Z</creationTime>
      </creationInfo>
      <origin publicID="smi:local/9265682a-9bff-4c3b-a20a-39fddda67758">
        <time>
          <value>2020-03-10T04:38:31.088900Z</value>
        </time>
        <latitude>
          <value>50.451841</value>
          <uncertainty>0.0012957723304696622</uncertainty>
        </latitude>
        <longitude>
          <value>-112.122921</value>
          <uncertainty>0.0010722387900332243</uncertainty>
        </longitude>
        <depth>
          <value>0.781</value>
          <uncertainty>116.49549347506967</uncertainty>
          <confidenceLevel>68.0</confidenceLevel>
        </depth>
        <depthType>from location</depthType>
        <quality>
          <associatedPhaseCount>14</associatedPhaseCount>
          <usedPhaseCount>14</usedPhaseCount>
          <associatedStationCount>-1</associatedStationCount>
          <usedStationCount>14</usedStationCount>
          <depthPhaseCount>-1</depthPhaseCount>
          <standardError>0.28977</standardError>
          <azimuthalGap>134.874</azimuthalGap>
          <secondaryAzimuthalGap>164.425</secondaryAzimuthalGap>
          <groundTruthLevel>-</groundTruthLevel>
          <minimumDistance>0.00010732593977194721</minimumDistance>
          <maximumDistance>0.003911041745547849</maximumDistance>
          <medianDistance>0.00213295702562169</medianDistance>
        </quality>
        <comment>
          <text>Note: Depth/Latitude/Longitude errors are calculated from covariance matrix as 1D marginal (Lon/Lat errors as great circle degrees) while OriginUncertainty min/max horizontal errors are calculated from 2D error ellipsoid and are therefore seemingly higher compared to 1D errors. Error estimates can be reconstructed from the following original NonLinLoc error statistics line:
STATISTICS ExpectX -0.194368 Y 0.301914 Z 0.0932018  CovXX 0.0142152 XY -0.0107178 XZ -0.00691762 YY 0.02076 YZ 0.00905661 ZZ 0.0135712 EllAz1  56.7691 Dip1  6.42602 Len1  0.148677 Az2  158.458 Dip2  60.9296 Len2  0.162452 Len3  3.505327e-01</text>
        </comment>
        <creationInfo>
          <author>Genevieve Savard   obs:./obs_picked1/merged.obs   NLLoc:v7.00.00(27Oct2017)</author>
          <creationTime>2020-08-21T16:08:24.000000Z</creationTime>
        </creationInfo>
        <originUncertainty>
          <preferredDescription>uncertainty ellipse</preferredDescription>
          <minHorizontalUncertainty>120.196</minHorizontalUncertainty>
          <maxHorizontalUncertainty>256.897</maxHorizontalUncertainty>
          <azimuthMaxHorizontalUncertainty>143.489</azimuthMaxHorizontalUncertainty>
          <confidenceLevel>68.0</confidenceLevel>
        </originUncertainty>
        <arrival publicID="smi:local/8d8a5e57-8792-439e-b747-d003ee835af8">
          <pickID>smi:local/69f15c75-3556-4b05-964f-5d32e4ccf888</pickID>
          <phase>P</phase>
          <azimuth>359.0</azimuth>
          <distance>0.00010701927110432894</distance>
          <takeoffAngle>
            <value>-1.0</value>
          </takeoffAngle>
          <timeResidual>-0.2872</timeResidual>
          <timeWeight>0.5869</timeWeight>
        </arrival>
        <arrival publicID="smi:local/c12eca33-959e-4b66-bf72-c3effb6b6fc1">
          <pickID>smi:local/36011478-b7a9-4b86-9478-4ac132eda8a1</pickID>
          <phase>P</phase>
          <azimuth>359.0</azimuth>
          <distance>0.001164621479664756</distance>
          <takeoffAngle>
            <value>-1.0</value>
          </takeoffAngle>
          <timeResidual>-0.0297</timeResidual>
          <timeWeight>0.2322</timeWeight>
        </arrival>
        <arrival publicID="smi:local/497ddf4a-e8c2-4945-ad6e-c64f2a024da1">
          <pickID>smi:local/0739e2af-0cfd-413b-8084-b4dc5f58b457</pickID>
          <phase>P</phase>
          <azimuth>359.0</azimuth>
          <distance>0.0015684168807222662</distance>
          <takeoffAngle>
            <value>-1.0</value>
          </takeoffAngle>
          <timeResidual>-0.2263</timeResidual>
          <timeWeight>0.8641</timeWeight>
        </arrival>
        <arrival publicID="smi:local/5d875619-f5d9-4571-bb77-23cbacf9e001">
          <pickID>smi:local/814d356e-0bb2-4925-9795-3f949f7d07d9</pickID>
          <phase>P</phase>
          <azimuth>359.0</azimuth>
          <distance>0.0018220255735913481</distance>
          <takeoffAngle>
            <value>-1.0</value>
          </takeoffAngle>
          <timeResidual>0.717</timeResidual>
          <timeWeight>1.8123</timeWeight>
        </arrival>
        <arrival publicID="smi:local/5f98e6c7-ec46-4cef-8cb8-30fb021ab099">
          <pickID>smi:local/3fa33569-0e2e-4ce1-8ffb-4e494be3233e</pickID>
          <phase>P</phase>
          <azimuth>359.0</azimuth>
          <distance>0.0020108831108342816</distance>
          <takeoffAngle>
            <value>-1.0</value>
          </takeoffAngle>
          <timeResidual>-0.2169</timeResidual>
          <timeWeight>0.8641</timeWeight>
        </arrival>
        <arrival publicID="smi:local/0ad9e1f8-6079-4c08-a447-7e0d699a4b58">
          <pickID>smi:local/cb2f5728-f6e5-4f06-898e-3020516fe71f</pickID>
          <phase>P</phase>
          <azimuth>359.0</azimuth>
          <distance>0.002058547155947974</distance>
          <takeoffAngle>
            <value>-1.0</value>
          </takeoffAngle>
          <timeResidual>-0.1883</timeResidual>
          <timeWeight>1.8123</timeWeight>
        </arrival>
        <arrival publicID="smi:local/65865136-edf8-4873-a89c-71be9453c7e0">
          <pickID>smi:local/d0d04ea2-9092-41e9-b020-13ca49233c24</pickID>
          <phase>P</phase>
          <azimuth>359.0</azimuth>
          <distance>0.0020603457991598116</distance>
          <takeoffAngle>
            <value>-1.0</value>
          </takeoffAngle>
          <timeResidual>-0.0341</timeResidual>
          <timeWeight>0.7088</timeWeight>
        </arrival>
        <arrival publicID="smi:local/a75127ec-0327-4e7a-8966-00f67f6020a7">
          <pickID>smi:local/88bee5be-c6dd-4499-815f-9d6ad7fa7930</pickID>
          <phase>P</phase>
          <azimuth>359.0</azimuth>
          <distance>0.0022051365777127274</distance>
          <takeoffAngle>
            <value>-1.0</value>
          </takeoffAngle>
          <timeResidual>-0.1241</timeResidual>
          <timeWeight>1.8123</timeWeight>
        </arrival>
        <arrival publicID="smi:local/389cf963-0c94-4b35-815c-5029de5ab01c">
          <pickID>smi:local/ed72f025-8e07-4020-ba62-120e4cd76b52</pickID>
          <phase>P</phase>
          <azimuth>359.0</azimuth>
          <distance>0.0024335642656160847</distance>
          <takeoffAngle>
            <value>-1.0</value>
          </takeoffAngle>
          <timeResidual>0.0896</timeResidual>
          <timeWeight>0.1785</timeWeight>
        </arrival>
        <arrival publicID="smi:local/1283e225-912b-41af-b748-1fdc9fd7f466">
          <pickID>smi:local/c4f67be8-ba8e-4ba5-8085-00519c6a1558</pickID>
          <phase>P</phase>
          <azimuth>359.0</azimuth>
          <distance>0.0024551479841581347</distance>
          <takeoffAngle>
            <value>-1.0</value>
          </takeoffAngle>
          <timeResidual>-0.0802</timeResidual>
          <timeWeight>1.3786</timeWeight>
        </arrival>
        <arrival publicID="smi:local/b1f5ae94-33c5-4ba2-abd5-8e5a642edc10">
          <pickID>smi:local/d9e5df1c-795f-446e-9db2-dc46aeee1e55</pickID>
          <phase>P</phase>
          <azimuth>359.0</azimuth>
          <distance>0.002744729541263966</distance>
          <takeoffAngle>
            <value>-1.0</value>
          </takeoffAngle>
          <timeResidual>-0.0771</timeResidual>
          <timeWeight>1.0273</timeWeight>
        </arrival>
        <arrival publicID="smi:local/0caddd78-2ca5-4a21-9aed-5f4b3ddc2c13">
          <pickID>smi:local/e068cdd7-0f98-4291-9eba-f550f253bb49</pickID>
          <phase>P</phase>
          <azimuth>359.0</azimuth>
          <distance>0.002788796299953983</distance>
          <takeoffAngle>
            <value>-1.0</value>
          </takeoffAngle>
          <timeResidual>0.025</timeResidual>
          <timeWeight>1.2603</timeWeight>
        </arrival>
        <arrival publicID="smi:local/5f7018a8-6cf6-4344-bd5c-72ac5231c4de">
          <pickID>smi:local/f9b3fd52-5795-47a5-aaa2-834f9d018d8c</pickID>
          <phase>P</phase>
          <azimuth>359.0</azimuth>
          <distance>0.003727688056533138</distance>
          <takeoffAngle>
            <value>-1.0</value>
          </takeoffAngle>
          <timeResidual>-0.0076</timeResidual>
          <timeWeight>1.0273</timeWeight>
        </arrival>
        <arrival publicID="smi:local/e7b5b442-7fac-4539-87c6-b4e8e11b2afe">
          <pickID>smi:local/76407421-6606-4256-a80d-2706cf16b585</pickID>
          <phase>P</phase>
          <azimuth>359.0</azimuth>
          <distance>0.0039111496641405594</distance>
          <takeoffAngle>
            <value>-1.0</value>
          </takeoffAngle>
          <timeResidual>-0.0015</timeResidual>
          <timeWeight>0.4349</timeWeight>
        </arrival>
      </origin>
      <pick publicID="smi:local/e068cdd7-0f98-4291-9eba-f550f253bb49">
        <time>
          <value>2020-03-10T04:38:31.316800Z</value>
          <uncertainty>0.0334</uncertainty>
        </time>
        <waveformID networkCode="XX" stationCode="F0304" channelCode="DPN"></waveformID>
        <phaseHint>P</phaseHint>
      </pick>
      <pick publicID="smi:local/ed72f025-8e07-4020-ba62-120e4cd76b52">
        <time>
          <value>2020-03-10T04:38:31.360000Z</value>
          <uncertainty>0.0921</uncertainty>
        </time>
        <waveformID networkCode="XX" stationCode="F0109" channelCode="DPZ"></waveformID>
        <phaseHint>P</phaseHint>
      </pick>
      <pick publicID="smi:local/cb2f5728-f6e5-4f06-898e-3020516fe71f">
        <time>
          <value>2020-03-10T04:38:31.060000Z</value>
          <uncertainty>0.0273</uncertainty>
        </time>
        <waveformID networkCode="XX" stationCode="C0909" channelCode="DPZ"></waveformID>
        <phaseHint>P</phaseHint>
      </pick>
      <pick publicID="smi:local/c4f67be8-ba8e-4ba5-8085-00519c6a1558">
        <time>
          <value>2020-03-10T04:38:31.191700Z</value>
          <uncertainty>0.0318</uncertainty>
        </time>
        <waveformID networkCode="XX" stationCode="C0902" channelCode="DPN"></waveformID>
        <phaseHint>P</phaseHint>
      </pick>
      <pick publicID="smi:local/69f15c75-3556-4b05-964f-5d32e4ccf888">
        <time>
          <value>2020-03-10T04:38:30.815400Z</value>
          <uncertainty>0.0501</uncertainty>
        </time>
        <waveformID networkCode="XX" stationCode="F0307" channelCode="DPN"></waveformID>
        <phaseHint>P</phaseHint>
      </pick>
      <pick publicID="smi:local/d0d04ea2-9092-41e9-b020-13ca49233c24">
        <time>
          <value>2020-03-10T04:38:31.214400Z</value>
          <uncertainty>0.0454</uncertainty>
        </time>
        <waveformID networkCode="XX" stationCode="C0202" channelCode="DPN"></waveformID>
        <phaseHint>P</phaseHint>
      </pick>
      <pick publicID="smi:local/f9b3fd52-5795-47a5-aaa2-834f9d018d8c">
        <time>
          <value>2020-03-10T04:38:31.342300Z</value>
          <uncertainty>0.0373</uncertainty>
        </time>
        <waveformID networkCode="XX" stationCode="F0708" channelCode="DPZ"></waveformID>
        <phaseHint>P</phaseHint>
      </pick>
      <pick publicID="smi:local/36011478-b7a9-4b86-9478-4ac132eda8a1">
        <time>
          <value>2020-03-10T04:38:31.164300Z</value>
          <uncertainty>0.0806</uncertainty>
        </time>
        <waveformID networkCode="XX" stationCode="F0208" channelCode="DPZ"></waveformID>
        <phaseHint>P</phaseHint>
      </pick>
      <pick publicID="smi:local/0739e2af-0cfd-413b-8084-b4dc5f58b457">
        <time>
          <value>2020-03-10T04:38:30.991800Z</value>
          <uncertainty>0.0409</uncertainty>
        </time>
        <waveformID networkCode="XX" stationCode="C0209" channelCode="DPN"></waveformID>
        <phaseHint>P</phaseHint>
      </pick>
      <pick publicID="smi:local/88bee5be-c6dd-4499-815f-9d6ad7fa7930">
        <time>
          <value>2020-03-10T04:38:31.132700Z</value>
          <uncertainty>0.0273</uncertainty>
        </time>
        <waveformID networkCode="XX" stationCode="C0704" channelCode="DPN"></waveformID>
        <phaseHint>P</phaseHint>
      </pick>
      <pick publicID="smi:local/814d356e-0bb2-4925-9795-3f949f7d07d9">
        <time>
          <value>2020-03-10T04:38:31.950400Z</value>
          <uncertainty>0.0273</uncertainty>
        </time>
        <waveformID networkCode="XX" stationCode="C0407" channelCode="DPN"></waveformID>
        <phaseHint>P</phaseHint>
      </pick>
      <pick publicID="smi:local/76407421-6606-4256-a80d-2706cf16b585">
        <time>
          <value>2020-03-10T04:38:31.358600Z</value>
          <uncertainty>0.0585</uncertainty>
        </time>
        <waveformID networkCode="XX" stationCode="F0604" channelCode="DPZ"></waveformID>
        <phaseHint>P</phaseHint>
      </pick>
      <pick publicID="smi:local/3fa33569-0e2e-4ce1-8ffb-4e494be3233e">
        <time>
          <value>2020-03-10T04:38:31.028200Z</value>
          <uncertainty>0.0409</uncertainty>
        </time>
        <waveformID networkCode="XX" stationCode="C0404" channelCode="DPZ"></waveformID>
        <phaseHint>P</phaseHint>
      </pick>
      <pick publicID="smi:local/d9e5df1c-795f-446e-9db2-dc46aeee1e55">
        <time>
          <value>2020-03-10T04:38:31.211800Z</value>
          <uncertainty>0.0373</uncertainty>
        </time>
        <waveformID networkCode="XX" stationCode="F0607" channelCode="DPE"></waveformID>
        <phaseHint>P</phaseHint>
      </pick>
    </event>
  </eventParameters>
</q:quakeml>
