<?xml version='1.0' encoding='utf-8'?>
<q:quakeml xmlns="http://quakeml.org/xmlns/bed/1.2" xmlns:q="http://quakeml.org/xmlns/quakeml/1.2">
  <eventParameters publicID="smi:local/257a77ec-c16a-4a49-8c32-25961a704327">
    <event publicID="smi:local/f96644d1-734b-4534-8333-99fc72a620fb">
      <preferredOriginID>smi:local/efb7d870-c874-44a5-9147-74ec5732838a</preferredOriginID>
      <comment>
        <text>CaMI.FRS microseismicity</text>
      </comment>
      <comment id="smi:local/72289e9c-84ad-437b-998e-1792c54d4e8f">
        <text>eqcorrscan_template_2020_03_18t06_26_36</text>
      </comment>
      <creationInfo>
        <author>Genevieve Savard   obs:./obs_picked5/merged.obs   NLLoc:v7.00.00(27Oct2017)</author>
        <creationTime>2020-09-18T19:57:30.000000Z</creationTime>
      </creationInfo>
      <origin publicID="smi:local/efb7d870-c874-44a5-9147-74ec5732838a">
        <time>
          <value>2020-03-18T06:26:36.752159Z</value>
        </time>
        <latitude>
          <value>50.449882</value>
          <uncertainty>0.0017308448390732218</uncertainty>
        </latitude>
        <longitude>
          <value>-112.123087</value>
          <uncertainty>0.001751681346680002</uncertainty>
        </longitude>
        <depth>
          <value>331.25</value>
          <uncertainty>155.10351382222132</uncertainty>
          <confidenceLevel>68.0</confidenceLevel>
        </depth>
        <depthType>from location</depthType>
        <quality>
          <associatedPhaseCount>14</associatedPhaseCount>
          <usedPhaseCount>14</usedPhaseCount>
          <associatedStationCount>-1</associatedStationCount>
          <usedStationCount>14</usedStationCount>
          <depthPhaseCount>-1</depthPhaseCount>
          <standardError>0.0830226</standardError>
          <azimuthalGap>360.0</azimuthalGap>
          <secondaryAzimuthalGap>360.0</secondaryAzimuthalGap>
          <groundTruthLevel>-</groundTruthLevel>
          <minimumDistance>0.0014737003291869055</minimumDistance>
          <maximumDistance>0.0014737003291869055</maximumDistance>
          <medianDistance>0.0014737003291869055</medianDistance>
        </quality>
        <comment>
          <text>Note: Depth/Latitude/Longitude errors are calculated from covariance matrix as 1D marginal (Lon/Lat errors as great circle degrees) while OriginUncertainty min/max horizontal errors are calculated from 2D error ellipsoid and are therefore seemingly higher compared to 1D errors. Error estimates can be reconstructed from the following original NonLinLoc error statistics line:
STATISTICS ExpectX -0.0387945 Y -0.018908 Z 0.403363  CovXX 0.0379385 XY 7.86531e-05 XZ 0.00133154 YY 0.0370413 YZ 0.000198494 ZZ 0.0240571 EllAz1  81.2783 Dip1  -84.5126 Len1  0.290628 Az2  354.562 Dip2  0.315305 Len2  0.36157 Len3  3.666086e-01</text>
        </comment>
        <creationInfo>
          <author>Genevieve Savard   obs:./obs_picked5/merged.obs   NLLoc:v7.00.00(27Oct2017)</author>
          <creationTime>2020-09-18T19:57:30.000000Z</creationTime>
        </creationInfo>
        <originUncertainty>
          <preferredDescription>uncertainty ellipse</preferredDescription>
          <minHorizontalUncertainty>291.85499999999996</minHorizontalUncertainty>
          <maxHorizontalUncertainty>295.422</maxHorizontalUncertainty>
          <azimuthMaxHorizontalUncertainty>85.0277</azimuthMaxHorizontalUncertainty>
          <confidenceLevel>68.0</confidenceLevel>
        </originUncertainty>
        <arrival publicID="smi:local/a6246f3e-2eab-4131-9813-07392597b478">
          <pickID>smi:local/7b8204b0-55fd-4e7e-b8e0-b4e383533915</pickID>
          <phase>P</phase>
          <azimuth>359.0</azimuth>
          <distance>0.0014739881121007992</distance>
          <takeoffAngle>
            <value>-1.0</value>
          </takeoffAngle>
          <timeResidual>0.0023</timeResidual>
          <timeWeight>1.0</timeWeight>
        </arrival>
        <arrival publicID="smi:local/2497124a-9f55-40c2-92c5-48fe825b264d">
          <pickID>smi:local/fe644b95-2560-408a-a612-37a0654f12a5</pickID>
          <phase>S</phase>
          <azimuth>359.0</azimuth>
          <distance>0.0014739881121007992</distance>
          <takeoffAngle>
            <value>-1.0</value>
          </takeoffAngle>
          <timeResidual>-0.0631</timeResidual>
          <timeWeight>1.0</timeWeight>
        </arrival>
        <arrival publicID="smi:local/16fcf2fe-5001-43d7-ad8d-235763293eb9">
          <pickID>smi:local/bd62e762-31bf-4358-95a7-334732ce8fa0</pickID>
          <phase>S</phase>
          <azimuth>359.0</azimuth>
          <distance>0.0014739881121007992</distance>
          <takeoffAngle>
            <value>-1.0</value>
          </takeoffAngle>
          <timeResidual>-0.0606</timeResidual>
          <timeWeight>1.0</timeWeight>
        </arrival>
        <arrival publicID="smi:local/ab25e82f-47b4-4f17-ba5f-a8dd3904c259">
          <pickID>smi:local/156fbcc0-b76e-4c2b-9baa-7f094f025d99</pickID>
          <phase>S</phase>
          <azimuth>359.0</azimuth>
          <distance>0.0014739881121007992</distance>
          <takeoffAngle>
            <value>-1.0</value>
          </takeoffAngle>
          <timeResidual>-0.0469</timeResidual>
          <timeWeight>1.0</timeWeight>
        </arrival>
        <arrival publicID="smi:local/8a1f9719-8c7b-412b-831e-0388fe221434">
          <pickID>smi:local/28c660b3-cff5-44e5-a1f6-9f41f8fdce34</pickID>
          <phase>S</phase>
          <azimuth>359.0</azimuth>
          <distance>0.0014739881121007992</distance>
          <takeoffAngle>
            <value>-1.0</value>
          </takeoffAngle>
          <timeResidual>-0.0403</timeResidual>
          <timeWeight>1.0</timeWeight>
        </arrival>
        <arrival publicID="smi:local/ec90f9a6-91af-41f7-9a82-a47c833e3b55">
          <pickID>smi:local/7c92263e-4c76-464d-b95f-f6760663f847</pickID>
          <phase>S</phase>
          <azimuth>359.0</azimuth>
          <distance>0.0014739881121007992</distance>
          <takeoffAngle>
            <value>-1.0</value>
          </takeoffAngle>
          <timeResidual>-0.0289</timeResidual>
          <timeWeight>1.0</timeWeight>
        </arrival>
        <arrival publicID="smi:local/96281b15-da4f-4263-8774-0631876d90dc">
          <pickID>smi:local/2261aabb-7610-43ca-b1ba-2c17a1d8271e</pickID>
          <phase>S</phase>
          <azimuth>359.0</azimuth>
          <distance>0.0014739881121007992</distance>
          <takeoffAngle>
            <value>-1.0</value>
          </takeoffAngle>
          <timeResidual>-0.0141</timeResidual>
          <timeWeight>1.0</timeWeight>
        </arrival>
        <arrival publicID="smi:local/e1c4143b-3afa-4858-9459-714bf62f956b">
          <pickID>smi:local/e4219b94-137b-48e5-808f-eaf542106b86</pickID>
          <phase>S</phase>
          <azimuth>359.0</azimuth>
          <distance>0.0014739881121007992</distance>
          <takeoffAngle>
            <value>-1.0</value>
          </takeoffAngle>
          <timeResidual>-0.0175</timeResidual>
          <timeWeight>1.0</timeWeight>
        </arrival>
        <arrival publicID="smi:local/6fc5109e-75cc-46f5-8c36-4cea15d5d5d8">
          <pickID>smi:local/4e42e000-d8ad-4d93-a978-cee5fe0c7f81</pickID>
          <phase>S</phase>
          <azimuth>359.0</azimuth>
          <distance>0.0014739881121007992</distance>
          <takeoffAngle>
            <value>-1.0</value>
          </takeoffAngle>
          <timeResidual>-0.0131</timeResidual>
          <timeWeight>1.0</timeWeight>
        </arrival>
        <arrival publicID="smi:local/22d36c21-b5e6-417b-918a-69ca68d2694b">
          <pickID>smi:local/0f66ed89-723a-4ecf-9d1e-05f2bdaa56eb</pickID>
          <phase>S</phase>
          <azimuth>359.0</azimuth>
          <distance>0.0014739881121007992</distance>
          <takeoffAngle>
            <value>-1.0</value>
          </takeoffAngle>
          <timeResidual>-0.0101</timeResidual>
          <timeWeight>1.0</timeWeight>
        </arrival>
        <arrival publicID="smi:local/4b686bda-94b1-4814-9969-833ffc9258a8">
          <pickID>smi:local/e47236d3-fa00-4bbf-93c9-28542560c732</pickID>
          <phase>S</phase>
          <azimuth>359.0</azimuth>
          <distance>0.0014739881121007992</distance>
          <takeoffAngle>
            <value>-1.0</value>
          </takeoffAngle>
          <timeResidual>-0.0034</timeResidual>
          <timeWeight>1.0</timeWeight>
        </arrival>
        <arrival publicID="smi:local/f1b2e5e3-fc13-4aa4-a60b-2165dddf88cb">
          <pickID>smi:local/6ac5c10c-20ed-4d59-9b83-fd2b8b84546a</pickID>
          <phase>S</phase>
          <azimuth>359.0</azimuth>
          <distance>0.0014739881121007992</distance>
          <takeoffAngle>
            <value>-1.0</value>
          </takeoffAngle>
          <timeResidual>0.0021</timeResidual>
          <timeWeight>1.0</timeWeight>
        </arrival>
        <arrival publicID="smi:local/da920645-1c1e-4bbc-9801-622a59f25274">
          <pickID>smi:local/bd3e0ad8-458e-4cd1-90f9-ecc6fada17ef</pickID>
          <phase>S</phase>
          <azimuth>359.0</azimuth>
          <distance>0.0014739881121007992</distance>
          <takeoffAngle>
            <value>-1.0</value>
          </takeoffAngle>
          <timeResidual>0.0049</timeResidual>
          <timeWeight>1.0</timeWeight>
        </arrival>
        <arrival publicID="smi:local/4df09549-fc61-4118-9085-99544ba23046">
          <pickID>smi:local/4e1a96b1-2140-47e6-973c-161c1ba8ece4</pickID>
          <phase>S</phase>
          <azimuth>359.0</azimuth>
          <distance>0.0014739881121007992</distance>
          <takeoffAngle>
            <value>-1.0</value>
          </takeoffAngle>
          <timeResidual>0.2887</timeResidual>
          <timeWeight>1.0</timeWeight>
        </arrival>
      </origin>
      <pick publicID="smi:local/2261aabb-7610-43ca-b1ba-2c17a1d8271e">
        <time>
          <value>2020-03-18T06:26:36.892500Z</value>
          <uncertainty>0.05</uncertainty>
        </time>
        <waveformID networkCode="XX" stationCode="G14" channelCode="DPZ"></waveformID>
        <phaseHint>S</phaseHint>
      </pick>
      <pick publicID="smi:local/7b8204b0-55fd-4e7e-b8e0-b4e383533915">
        <time>
          <value>2020-03-18T06:26:36.833800Z</value>
          <uncertainty>0.05</uncertainty>
        </time>
        <waveformID networkCode="XX" stationCode="G5" channelCode="DPZ"></waveformID>
        <phaseHint>P</phaseHint>
      </pick>
      <pick publicID="smi:local/4e1a96b1-2140-47e6-973c-161c1ba8ece4">
        <time>
          <value>2020-03-18T06:26:37.220100Z</value>
          <uncertainty>0.05</uncertainty>
        </time>
        <waveformID networkCode="XX" stationCode="G5" channelCode="DPZ"></waveformID>
        <phaseHint>S</phaseHint>
      </pick>
      <pick publicID="smi:local/7c92263e-4c76-464d-b95f-f6760663f847">
        <time>
          <value>2020-03-18T06:26:36.890300Z</value>
          <uncertainty>0.05</uncertainty>
        </time>
        <waveformID networkCode="XX" stationCode="G8" channelCode="DPZ"></waveformID>
        <phaseHint>S</phaseHint>
      </pick>
      <pick publicID="smi:local/bd3e0ad8-458e-4cd1-90f9-ecc6fada17ef">
        <time>
          <value>2020-03-18T06:26:36.907200Z</value>
          <uncertainty>0.05</uncertainty>
        </time>
        <waveformID networkCode="XX" stationCode="G18" channelCode="DPZ"></waveformID>
        <phaseHint>S</phaseHint>
      </pick>
      <pick publicID="smi:local/e47236d3-fa00-4bbf-93c9-28542560c732">
        <time>
          <value>2020-03-18T06:26:36.901700Z</value>
          <uncertainty>0.05</uncertainty>
        </time>
        <waveformID networkCode="XX" stationCode="G15" channelCode="DPZ"></waveformID>
        <phaseHint>S</phaseHint>
      </pick>
      <pick publicID="smi:local/fe644b95-2560-408a-a612-37a0654f12a5">
        <time>
          <value>2020-03-18T06:26:36.869800Z</value>
          <uncertainty>0.05</uncertainty>
        </time>
        <waveformID networkCode="XX" stationCode="G4" channelCode="DPZ"></waveformID>
        <phaseHint>S</phaseHint>
      </pick>
      <pick publicID="smi:local/4e42e000-d8ad-4d93-a978-cee5fe0c7f81">
        <time>
          <value>2020-03-18T06:26:36.897000Z</value>
          <uncertainty>0.05</uncertainty>
        </time>
        <waveformID networkCode="XX" stationCode="G12" channelCode="DPZ"></waveformID>
        <phaseHint>S</phaseHint>
      </pick>
      <pick publicID="smi:local/bd62e762-31bf-4358-95a7-334732ce8fa0">
        <time>
          <value>2020-03-18T06:26:36.872700Z</value>
          <uncertainty>0.05</uncertainty>
        </time>
        <waveformID networkCode="XX" stationCode="G1" channelCode="DPZ"></waveformID>
        <phaseHint>S</phaseHint>
      </pick>
      <pick publicID="smi:local/6ac5c10c-20ed-4d59-9b83-fd2b8b84546a">
        <time>
          <value>2020-03-18T06:26:36.904900Z</value>
          <uncertainty>0.05</uncertainty>
        </time>
        <waveformID networkCode="XX" stationCode="G17" channelCode="DPZ"></waveformID>
        <phaseHint>S</phaseHint>
      </pick>
      <pick publicID="smi:local/28c660b3-cff5-44e5-a1f6-9f41f8fdce34">
        <time>
          <value>2020-03-18T06:26:36.888800Z</value>
          <uncertainty>0.05</uncertainty>
        </time>
        <waveformID networkCode="XX" stationCode="G6" channelCode="DPZ"></waveformID>
        <phaseHint>S</phaseHint>
      </pick>
      <pick publicID="smi:local/156fbcc0-b76e-4c2b-9baa-7f094f025d99">
        <time>
          <value>2020-03-18T06:26:36.884500Z</value>
          <uncertainty>0.05</uncertainty>
        </time>
        <waveformID networkCode="XX" stationCode="G2" channelCode="DPZ"></waveformID>
        <phaseHint>S</phaseHint>
      </pick>
      <pick publicID="smi:local/e4219b94-137b-48e5-808f-eaf542106b86">
        <time>
          <value>2020-03-18T06:26:36.895000Z</value>
          <uncertainty>0.05</uncertainty>
        </time>
        <waveformID networkCode="XX" stationCode="G11" channelCode="DPZ"></waveformID>
        <phaseHint>S</phaseHint>
      </pick>
      <pick publicID="smi:local/0f66ed89-723a-4ecf-9d1e-05f2bdaa56eb">
        <time>
          <value>2020-03-18T06:26:36.898300Z</value>
          <uncertainty>0.05</uncertainty>
        </time>
        <waveformID networkCode="XX" stationCode="G13" channelCode="DPZ"></waveformID>
        <phaseHint>S</phaseHint>
      </pick>
    </event>
  </eventParameters>
</q:quakeml>
