<?xml version='1.0' encoding='utf-8'?>
<q:quakeml xmlns="http://quakeml.org/xmlns/bed/1.2" xmlns:q="http://quakeml.org/xmlns/quakeml/1.2">
  <eventParameters publicID="smi:local/d8510a42-ed12-4379-ae23-ce18df5c04be">
    <event publicID="smi:local/9991d5da-9d2b-42e3-a194-23605a0b84e7">
      <preferredOriginID>smi:local/28ad312b-4a50-4b3e-93c5-a12a7a36da6f</preferredOriginID>
      <comment>
        <text>CaMI.FRS microseismicity</text>
      </comment>
      <comment id="smi:local/1b71acd1-4da9-499c-8ceb-8d5db45cf3ef">
        <text>eqcorrscan_template_2020_03_10t08_09_23</text>
      </comment>
      <creationInfo>
        <author>Genevieve Savard   obs:./obs_picked2/merged.obs   NLLoc:v7.00.00(27Oct2017)</author>
        <creationTime>2020-08-21T16:18:08.000000Z</creationTime>
      </creationInfo>
      <origin publicID="smi:local/28ad312b-4a50-4b3e-93c5-a12a7a36da6f">
        <time>
          <value>2020-03-10T08:09:24.242534Z</value>
        </time>
        <latitude>
          <value>50.45023</value>
          <uncertainty>1.14496391298386e-05</uncertainty>
        </latitude>
        <longitude>
          <value>-112.119829</value>
          <uncertainty>1.6651152644484333e-05</uncertainty>
        </longitude>
        <depth>
          <value>0.391</value>
          <uncertainty>0.2300823765523992</uncertainty>
          <confidenceLevel>68.0</confidenceLevel>
        </depth>
        <depthType>from location</depthType>
        <quality>
          <associatedPhaseCount>13</associatedPhaseCount>
          <usedPhaseCount>13</usedPhaseCount>
          <associatedStationCount>-1</associatedStationCount>
          <usedStationCount>13</usedStationCount>
          <depthPhaseCount>-1</depthPhaseCount>
          <standardError>0.616526</standardError>
          <azimuthalGap>117.799</azimuthalGap>
          <secondaryAzimuthalGap>202.607</secondaryAzimuthalGap>
          <groundTruthLevel>-</groundTruthLevel>
          <minimumDistance>0.00025706658444383954</minimumDistance>
          <maximumDistance>0.005977736755245447</maximumDistance>
          <medianDistance>0.0013998210592606817</medianDistance>
        </quality>
        <comment>
          <text>Note: Depth/Latitude/Longitude errors are calculated from covariance matrix as 1D marginal (Lon/Lat errors as great circle degrees) while OriginUncertainty min/max horizontal errors are calculated from 2D error ellipsoid and are therefore seemingly higher compared to 1D errors. Error estimates can be reconstructed from the following original NonLinLoc error statistics line:
STATISTICS ExpectX 0.0596721 Y -0.0196142 Z 0.000393172  CovXX 3.42814e-06 XY 1.76805e-07 XZ 4.6059e-09 YY 1.62089e-06 YZ -7.71925e-09 ZZ 5.29379e-08 EllAz1  342.277 Dip1  89.6928 Len1  0.000432094 Az2  354.465 Dip2  -0.300263 Len2  0.00237937 Len3  3.487380e-03</text>
        </comment>
        <creationInfo>
          <author>Genevieve Savard   obs:./obs_picked2/merged.obs   NLLoc:v7.00.00(27Oct2017)</author>
          <creationTime>2020-08-21T16:18:08.000000Z</creationTime>
        </creationInfo>
        <originUncertainty>
          <preferredDescription>uncertainty ellipse</preferredDescription>
          <minHorizontalUncertainty>1.9205800000000002</minHorizontalUncertainty>
          <maxHorizontalUncertainty>2.81498</maxHorizontalUncertainty>
          <azimuthMaxHorizontalUncertainty>84.4646</azimuthMaxHorizontalUncertainty>
          <confidenceLevel>68.0</confidenceLevel>
        </originUncertainty>
        <arrival publicID="smi:local/532ae189-1c4b-4121-9c3e-67fa7331059a">
          <pickID>smi:local/f9a19ecf-cf21-4cf0-956c-8f41173288b8</pickID>
          <phase>S</phase>
          <azimuth>359.0</azimuth>
          <distance>0.00025720597929275695</distance>
          <takeoffAngle>
            <value>-1.0</value>
          </takeoffAngle>
          <timeResidual>-0.4588</timeResidual>
          <timeWeight>2.6895</timeWeight>
        </arrival>
        <arrival publicID="smi:local/54d71cd7-b68e-4f62-b922-67f753927a9e">
          <pickID>smi:local/780690fd-fca9-47e2-a58f-60261590c344</pickID>
          <phase>S</phase>
          <azimuth>359.0</azimuth>
          <distance>0.0004064933658752662</distance>
          <takeoffAngle>
            <value>-1.0</value>
          </takeoffAngle>
          <timeResidual>-0.4533</timeResidual>
          <timeWeight>0.8986</timeWeight>
        </arrival>
        <arrival publicID="smi:local/01a1c426-9784-4431-8954-32e1a4632f60">
          <pickID>smi:local/9ccc1974-ff37-46df-b47c-8ce4491b335a</pickID>
          <phase>S</phase>
          <azimuth>359.0</azimuth>
          <distance>0.0005566800740636941</distance>
          <takeoffAngle>
            <value>-1.0</value>
          </takeoffAngle>
          <timeResidual>-0.2455</timeResidual>
          <timeWeight>2.0662</timeWeight>
        </arrival>
        <arrival publicID="smi:local/117fbbc2-475e-42af-9c2c-fa709755105e">
          <pickID>smi:local/de05abf3-46bf-4308-9c9e-44d93a016e0f</pickID>
          <phase>S</phase>
          <azimuth>359.0</azimuth>
          <distance>0.0006807864556804791</distance>
          <takeoffAngle>
            <value>-1.0</value>
          </takeoffAngle>
          <timeResidual>-0.3944</timeResidual>
          <timeWeight>0.2447</timeWeight>
        </arrival>
        <arrival publicID="smi:local/5e16432e-f32a-4679-a86f-a219d7409858">
          <pickID>smi:local/85458e37-2f59-47f9-b25d-ec38ecd3520c</pickID>
          <phase>S</phase>
          <azimuth>359.0</azimuth>
          <distance>0.0007500342193362213</distance>
          <takeoffAngle>
            <value>-1.0</value>
          </takeoffAngle>
          <timeResidual>0.6766</timeResidual>
          <timeWeight>1.8038</timeWeight>
        </arrival>
        <arrival publicID="smi:local/15c5810a-0cd4-42e2-a9e2-3e00168889df">
          <pickID>smi:local/46634dfa-d386-475c-9f0b-849f9f3998a3</pickID>
          <phase>S</phase>
          <azimuth>359.0</azimuth>
          <distance>0.0009928510529342786</distance>
          <takeoffAngle>
            <value>-1.0</value>
          </takeoffAngle>
          <timeResidual>-0.2991</timeResidual>
          <timeWeight>2.3501</timeWeight>
        </arrival>
        <arrival publicID="smi:local/b7cd7b77-14f2-4f98-b8f9-ae8b3a9ab0d9">
          <pickID>smi:local/ee31b7f4-59b3-475c-a128-a68865381fac</pickID>
          <phase>S</phase>
          <azimuth>359.0</azimuth>
          <distance>0.0014002437404154635</distance>
          <takeoffAngle>
            <value>-1.0</value>
          </takeoffAngle>
          <timeResidual>-0.3223</timeResidual>
          <timeWeight>0.9125</timeWeight>
        </arrival>
        <arrival publicID="smi:local/eac37d8e-34b6-45c2-b6e9-7cf8d20e66d2">
          <pickID>smi:local/48981e2f-5136-4c4e-8cc8-405063ed201a</pickID>
          <phase>S</phase>
          <azimuth>359.0</azimuth>
          <distance>0.0017410866290586623</distance>
          <takeoffAngle>
            <value>-1.0</value>
          </takeoffAngle>
          <timeResidual>-0.115</timeResidual>
          <timeWeight>0.3281</timeWeight>
        </arrival>
        <arrival publicID="smi:local/e054d41e-f741-40af-a06b-43c7ab30bee7">
          <pickID>smi:local/9c26b622-f585-4f23-86d8-d0e5db908b42</pickID>
          <phase>S</phase>
          <azimuth>359.0</azimuth>
          <distance>0.0022105325073482397</distance>
          <takeoffAngle>
            <value>-1.0</value>
          </takeoffAngle>
          <timeResidual>1.1687</timeResidual>
          <timeWeight>0.9942</timeWeight>
        </arrival>
        <arrival publicID="smi:local/09a2e782-8338-4880-8091-5c0fe5c53511">
          <pickID>smi:local/6113e102-d03b-42f7-8000-e14bef77eb3b</pickID>
          <phase>S</phase>
          <azimuth>359.0</azimuth>
          <distance>0.0034560929315456813</distance>
          <takeoffAngle>
            <value>-1.0</value>
          </takeoffAngle>
          <timeResidual>0.913</timeResidual>
          <timeWeight>0.0948</timeWeight>
        </arrival>
        <arrival publicID="smi:local/5f944345-efa3-409e-99bc-0bf27718a7d5">
          <pickID>smi:local/22b52263-efe7-42a3-abdf-36b296ebd617</pickID>
          <phase>S</phase>
          <azimuth>359.0</azimuth>
          <distance>0.004714243858225986</distance>
          <takeoffAngle>
            <value>-1.0</value>
          </takeoffAngle>
          <timeResidual>0.8278</timeResidual>
          <timeWeight>0.3883</timeWeight>
        </arrival>
        <arrival publicID="smi:local/27f8e15b-e344-48c0-9289-cc3c93875fe7">
          <pickID>smi:local/a300d79a-9003-4bf9-9eed-8c018853e110</pickID>
          <phase>S</phase>
          <azimuth>359.0</azimuth>
          <distance>0.0049723491591246605</distance>
          <takeoffAngle>
            <value>-1.0</value>
          </takeoffAngle>
          <timeResidual>3.0167</timeResidual>
          <timeWeight>0.1027</timeWeight>
        </arrival>
        <arrival publicID="smi:local/5177c7b4-8593-444b-a857-8db88e6f9abb">
          <pickID>smi:local/f9966652-cb68-4e2f-8d08-de5f47e751b5</pickID>
          <phase>S</phase>
          <azimuth>359.0</azimuth>
          <distance>0.005977790714541802</distance>
          <takeoffAngle>
            <value>-1.0</value>
          </takeoffAngle>
          <timeResidual>1.4218</timeResidual>
          <timeWeight>0.1263</timeWeight>
        </arrival>
      </origin>
      <pick publicID="smi:local/de05abf3-46bf-4308-9c9e-44d93a016e0f">
        <time>
          <value>2020-03-10T08:09:24.015200Z</value>
          <uncertainty>0.0445</uncertainty>
        </time>
        <waveformID networkCode="XX" stationCode="C0404" channelCode="DPN"></waveformID>
        <phaseHint>S</phaseHint>
      </pick>
      <pick publicID="smi:local/f9966652-cb68-4e2f-8d08-de5f47e751b5">
        <time>
          <value>2020-03-10T08:09:26.557000Z</value>
          <uncertainty>0.0627</uncertainty>
        </time>
        <waveformID networkCode="XX" stationCode="F0001" channelCode="DPN"></waveformID>
        <phaseHint>S</phaseHint>
      </pick>
      <pick publicID="smi:local/9ccc1974-ff37-46df-b47c-8ce4491b335a">
        <time>
          <value>2020-03-10T08:09:24.136700Z</value>
          <uncertainty>0.0121</uncertainty>
        </time>
        <waveformID networkCode="XX" stationCode="C0909" channelCode="DPE"></waveformID>
        <phaseHint>S</phaseHint>
      </pick>
      <pick publicID="smi:local/ee31b7f4-59b3-475c-a128-a68865381fac">
        <time>
          <value>2020-03-10T08:09:24.230500Z</value>
          <uncertainty>0.0214</uncertainty>
        </time>
        <waveformID networkCode="XX" stationCode="F0604" channelCode="DPN"></waveformID>
        <phaseHint>S</phaseHint>
      </pick>
      <pick publicID="smi:local/6113e102-d03b-42f7-8000-e14bef77eb3b">
        <time>
          <value>2020-03-10T08:09:25.825100Z</value>
          <uncertainty>0.0726</uncertainty>
        </time>
        <waveformID networkCode="XX" stationCode="F0203" channelCode="DPE"></waveformID>
        <phaseHint>S</phaseHint>
      </pick>
      <pick publicID="smi:local/f9a19ecf-cf21-4cf0-956c-8f41173288b8">
        <time>
          <value>2020-03-10T08:09:23.847900Z</value>
          <uncertainty>0.00945</uncertainty>
        </time>
        <waveformID networkCode="XX" stationCode="C0902" channelCode="DPE"></waveformID>
        <phaseHint>S</phaseHint>
      </pick>
      <pick publicID="smi:local/9c26b622-f585-4f23-86d8-d0e5db908b42">
        <time>
          <value>2020-03-10T08:09:25.865700Z</value>
          <uncertainty>0.0203</uncertainty>
        </time>
        <waveformID networkCode="XX" stationCode="F0304" channelCode="DPE"></waveformID>
        <phaseHint>S</phaseHint>
      </pick>
      <pick publicID="smi:local/a300d79a-9003-4bf9-9eed-8c018853e110">
        <time>
          <value>2020-03-10T08:09:28.063400Z</value>
          <uncertainty>0.0697</uncertainty>
        </time>
        <waveformID networkCode="XX" stationCode="F0109" channelCode="DPZ"></waveformID>
        <phaseHint>S</phaseHint>
      </pick>
      <pick publicID="smi:local/85458e37-2f59-47f9-b25d-ec38ecd3520c">
        <time>
          <value>2020-03-10T08:09:25.104200Z</value>
          <uncertainty>0.0135</uncertainty>
        </time>
        <waveformID networkCode="XX" stationCode="C0407" channelCode="DPE"></waveformID>
        <phaseHint>S</phaseHint>
      </pick>
      <pick publicID="smi:local/48981e2f-5136-4c4e-8cc8-405063ed201a">
        <time>
          <value>2020-03-10T08:09:24.499400Z</value>
          <uncertainty>0.0381</uncertainty>
        </time>
        <waveformID networkCode="XX" stationCode="F0607" channelCode="DPE"></waveformID>
        <phaseHint>S</phaseHint>
      </pick>
      <pick publicID="smi:local/780690fd-fca9-47e2-a58f-60261590c344">
        <time>
          <value>2020-03-10T08:09:23.889700Z</value>
          <uncertainty>0.0216</uncertainty>
        </time>
        <waveformID networkCode="XX" stationCode="C0704" channelCode="DPZ"></waveformID>
        <phaseHint>S</phaseHint>
      </pick>
      <pick publicID="smi:local/22b52263-efe7-42a3-abdf-36b296ebd617">
        <time>
          <value>2020-03-10T08:09:25.851200Z</value>
          <uncertainty>0.0348</uncertainty>
        </time>
        <waveformID networkCode="XX" stationCode="F0102" channelCode="DPE"></waveformID>
        <phaseHint>S</phaseHint>
      </pick>
      <pick publicID="smi:local/46634dfa-d386-475c-9f0b-849f9f3998a3">
        <time>
          <value>2020-03-10T08:09:24.181200Z</value>
          <uncertainty>0.0108</uncertainty>
        </time>
        <waveformID networkCode="XX" stationCode="C0209" channelCode="DPE"></waveformID>
        <phaseHint>S</phaseHint>
      </pick>
    </event>
  </eventParameters>
</q:quakeml>
