<?xml version='1.0' encoding='utf-8'?>
<q:quakeml xmlns="http://quakeml.org/xmlns/bed/1.2" xmlns:q="http://quakeml.org/xmlns/quakeml/1.2">
  <eventParameters publicID="smi:local/16a3e7bf-4812-4e7d-bf36-25b383c7590f">
    <event publicID="smi:local/17893df5-0d3c-47ce-bdee-281591870038">
      <preferredOriginID>smi:local/1311f02d-9c46-43eb-a854-ec536e94f516</preferredOriginID>
      <comment>
        <text>CaMI.FRS microseismicity</text>
      </comment>
      <comment id="smi:local/aa416cd8-41f4-455b-9337-c2fb5d8e8104">
        <text>eqcorrscan_template_2020_02_25t03_13_55</text>
      </comment>
      <creationInfo>
        <author>Genevieve Savard   obs:./obs_picked5/merged.obs   NLLoc:v7.00.00(27Oct2017)</author>
        <creationTime>2020-09-18T19:53:41.000000Z</creationTime>
      </creationInfo>
      <origin publicID="smi:local/1311f02d-9c46-43eb-a854-ec536e94f516">
        <time>
          <value>2020-02-25T03:13:55.325671Z</value>
        </time>
        <latitude>
          <value>50.453641</value>
          <uncertainty>2.9322022043819696e-05</uncertainty>
        </latitude>
        <longitude>
          <value>-112.11586</value>
          <uncertainty>1.8073388666551425e-05</uncertainty>
        </longitude>
        <depth>
          <value>0.391</value>
          <uncertainty>0.6380572074665405</uncertainty>
          <confidenceLevel>68.0</confidenceLevel>
        </depth>
        <depthType>from location</depthType>
        <quality>
          <associatedPhaseCount>26</associatedPhaseCount>
          <usedPhaseCount>26</usedPhaseCount>
          <associatedStationCount>-1</associatedStationCount>
          <usedStationCount>26</usedStationCount>
          <depthPhaseCount>-1</depthPhaseCount>
          <standardError>0.526078</standardError>
          <azimuthalGap>278.306</azimuthalGap>
          <secondaryAzimuthalGap>319.036</secondaryAzimuthalGap>
          <groundTruthLevel>-</groundTruthLevel>
          <minimumDistance>3.082325878909798e-05</minimumDistance>
          <maximumDistance>0.010160355639348634</maximumDistance>
          <medianDistance>0.00460863652204295</medianDistance>
        </quality>
        <comment>
          <text>Note: Depth/Latitude/Longitude errors are calculated from covariance matrix as 1D marginal (Lon/Lat errors as great circle degrees) while OriginUncertainty min/max horizontal errors are calculated from 2D error ellipsoid and are therefore seemingly higher compared to 1D errors. Error estimates can be reconstructed from the following original NonLinLoc error statistics line:
STATISTICS ExpectX 0.33987 Y 0.357653 Z 0.000703534  CovXX 4.03877e-06 XY 3.33167e-07 XZ -1.2297e-08 YY 1.06306e-05 YZ -2.66279e-08 ZZ 4.07117e-07 EllAz1  51.6009 Dip1  89.7692 Len1  0.00119865 Az2  272.887 Dip2  0.173403 Len2  0.00376798 Len3  6.130698e-03</text>
        </comment>
        <creationInfo>
          <author>Genevieve Savard   obs:./obs_picked5/merged.obs   NLLoc:v7.00.00(27Oct2017)</author>
          <creationTime>2020-09-18T19:53:41.000000Z</creationTime>
        </creationInfo>
        <originUncertainty>
          <preferredDescription>uncertainty ellipse</preferredDescription>
          <minHorizontalUncertainty>3.04147</minHorizontalUncertainty>
          <maxHorizontalUncertainty>4.94863</maxHorizontalUncertainty>
          <azimuthMaxHorizontalUncertainty>2.88607</azimuthMaxHorizontalUncertainty>
          <confidenceLevel>68.0</confidenceLevel>
        </originUncertainty>
        <arrival publicID="smi:local/68084b2a-7628-4320-a08e-e3bbf0e37bb7">
          <pickID>smi:local/c7c67ce1-2e96-4974-8ca5-44ee260ab6b9</pickID>
          <phase>S</phase>
          <azimuth>359.0</azimuth>
          <distance>3.0576934601236835e-05</distance>
          <takeoffAngle>
            <value>-1.0</value>
          </takeoffAngle>
          <timeResidual>-1.0771</timeResidual>
          <timeWeight>1.0</timeWeight>
        </arrival>
        <arrival publicID="smi:local/022ca56a-42e9-49ab-879e-09756dc65aa8">
          <pickID>smi:local/9c301a7f-c43f-4c94-b0c1-0e9cc9c73cb9</pickID>
          <phase>S</phase>
          <azimuth>359.0</azimuth>
          <distance>0.0012770366804045973</distance>
          <takeoffAngle>
            <value>-1.0</value>
          </takeoffAngle>
          <timeResidual>-1.5317</timeResidual>
          <timeWeight>1.0</timeWeight>
        </arrival>
        <arrival publicID="smi:local/449acc0b-32b8-4d54-b890-a4fe4093357c">
          <pickID>smi:local/059a5f97-010d-43a8-876a-bd452d11ce7b</pickID>
          <phase>S</phase>
          <azimuth>359.0</azimuth>
          <distance>0.004444447376450366</distance>
          <takeoffAngle>
            <value>-1.0</value>
          </takeoffAngle>
          <timeResidual>0.1098</timeResidual>
          <timeWeight>1.0</timeWeight>
        </arrival>
        <arrival publicID="smi:local/9816e01f-6f6f-4d5f-88b9-a1e15ec62c8f">
          <pickID>smi:local/05f19622-9f33-4adb-b16b-ba7f5fc96315</pickID>
          <phase>S</phase>
          <azimuth>359.0</azimuth>
          <distance>0.0044507426276917976</distance>
          <takeoffAngle>
            <value>-1.0</value>
          </takeoffAngle>
          <timeResidual>0.1695</timeResidual>
          <timeWeight>1.0</timeWeight>
        </arrival>
        <arrival publicID="smi:local/a3fe78d1-8517-4017-9f58-66090f5568b2">
          <pickID>smi:local/80c10d51-1ce3-4b3a-a425-7a06e625a407</pickID>
          <phase>S</phase>
          <azimuth>359.0</azimuth>
          <distance>0.004457037878933229</distance>
          <takeoffAngle>
            <value>-1.0</value>
          </takeoffAngle>
          <timeResidual>0.1208</timeResidual>
          <timeWeight>1.0</timeWeight>
        </arrival>
        <arrival publicID="smi:local/bb6c29d5-3a1d-4eef-ac60-cb393989e5c3">
          <pickID>smi:local/5ad9fa98-b0e3-42e7-9172-b0c38c9b287d</pickID>
          <phase>S</phase>
          <azimuth>359.0</azimuth>
          <distance>0.004609023230333494</distance>
          <takeoffAngle>
            <value>-1.0</value>
          </takeoffAngle>
          <timeResidual>0.3148</timeResidual>
          <timeWeight>1.0</timeWeight>
        </arrival>
        <arrival publicID="smi:local/e774fd46-45fe-4fc6-b372-af85e17f929a">
          <pickID>smi:local/715a0d95-328a-4b53-b5e3-516c6d2c0f5c</pickID>
          <phase>P</phase>
          <azimuth>359.0</azimuth>
          <distance>0.004609023230333494</distance>
          <takeoffAngle>
            <value>-1.0</value>
          </takeoffAngle>
          <timeResidual>0.6524</timeResidual>
          <timeWeight>1.0</timeWeight>
        </arrival>
        <arrival publicID="smi:local/66ba5faf-e606-4e77-886e-6a1575514ef8">
          <pickID>smi:local/5c691c30-4a78-465d-8b91-ef679313c692</pickID>
          <phase>S</phase>
          <azimuth>359.0</azimuth>
          <distance>0.004609023230333494</distance>
          <takeoffAngle>
            <value>-1.0</value>
          </takeoffAngle>
          <timeResidual>0.3165</timeResidual>
          <timeWeight>1.0</timeWeight>
        </arrival>
        <arrival publicID="smi:local/063b5699-a6da-4e3b-bb78-f89ff8bb04db">
          <pickID>smi:local/04a4e023-6167-4c31-be16-702edff35457</pickID>
          <phase>S</phase>
          <azimuth>359.0</azimuth>
          <distance>0.004609023230333494</distance>
          <takeoffAngle>
            <value>-1.0</value>
          </takeoffAngle>
          <timeResidual>0.3161</timeResidual>
          <timeWeight>1.0</timeWeight>
        </arrival>
        <arrival publicID="smi:local/ec646f1c-6258-4fc9-a45f-cf699f47fe6a">
          <pickID>smi:local/dd594854-cee0-4c53-a650-f6d4498dcec1</pickID>
          <phase>S</phase>
          <azimuth>359.0</azimuth>
          <distance>0.004609023230333494</distance>
          <takeoffAngle>
            <value>-1.0</value>
          </takeoffAngle>
          <timeResidual>0.3153</timeResidual>
          <timeWeight>1.0</timeWeight>
        </arrival>
        <arrival publicID="smi:local/d8a19554-12c4-4374-98c2-f1f32848e220">
          <pickID>smi:local/4f51021a-d9fb-4992-a52b-1096853c74f7</pickID>
          <phase>S</phase>
          <azimuth>359.0</azimuth>
          <distance>0.004609023230333494</distance>
          <takeoffAngle>
            <value>-1.0</value>
          </takeoffAngle>
          <timeResidual>0.3145</timeResidual>
          <timeWeight>1.0</timeWeight>
        </arrival>
        <arrival publicID="smi:local/b0dc72bd-5c19-43e3-86e8-17cb3d168013">
          <pickID>smi:local/05beb5e3-a13c-4a4b-a8cd-e6e10f6cb1dd</pickID>
          <phase>S</phase>
          <azimuth>359.0</azimuth>
          <distance>0.004609023230333494</distance>
          <takeoffAngle>
            <value>-1.0</value>
          </takeoffAngle>
          <timeResidual>0.3132</timeResidual>
          <timeWeight>1.0</timeWeight>
        </arrival>
        <arrival publicID="smi:local/882277bf-a575-4dde-beba-01e8200194f3">
          <pickID>smi:local/1a6c7f15-3bc3-4eff-8100-626f3c3abb4c</pickID>
          <phase>S</phase>
          <azimuth>359.0</azimuth>
          <distance>0.004609023230333494</distance>
          <takeoffAngle>
            <value>-1.0</value>
          </takeoffAngle>
          <timeResidual>0.3128</timeResidual>
          <timeWeight>1.0</timeWeight>
        </arrival>
        <arrival publicID="smi:local/bf1d9683-ad84-44bd-bfdd-420774577a44">
          <pickID>smi:local/4324404a-1743-426a-9e61-746e5ed47c60</pickID>
          <phase>S</phase>
          <azimuth>359.0</azimuth>
          <distance>0.004609023230333494</distance>
          <takeoffAngle>
            <value>-1.0</value>
          </takeoffAngle>
          <timeResidual>0.3108</timeResidual>
          <timeWeight>1.0</timeWeight>
        </arrival>
        <arrival publicID="smi:local/47ed80a9-8542-4a22-b683-74d4458674f9">
          <pickID>smi:local/571c9427-11aa-4375-a03c-92aba8a98c7d</pickID>
          <phase>S</phase>
          <azimuth>359.0</azimuth>
          <distance>0.004609023230333494</distance>
          <takeoffAngle>
            <value>-1.0</value>
          </takeoffAngle>
          <timeResidual>0.3126</timeResidual>
          <timeWeight>1.0</timeWeight>
        </arrival>
        <arrival publicID="smi:local/38ff8b5a-c441-494c-8c2b-d5d1d8ab8eb1">
          <pickID>smi:local/f38f1a41-e7b8-41af-bfc7-302e643cb7da</pickID>
          <phase>S</phase>
          <azimuth>359.0</azimuth>
          <distance>0.004609023230333494</distance>
          <takeoffAngle>
            <value>-1.0</value>
          </takeoffAngle>
          <timeResidual>0.3117</timeResidual>
          <timeWeight>1.0</timeWeight>
        </arrival>
        <arrival publicID="smi:local/a1eff7b9-3dec-49d6-9094-95c5927fea9f">
          <pickID>smi:local/99aeddf0-a77c-493d-b7d1-c829fbf37efb</pickID>
          <phase>S</phase>
          <azimuth>359.0</azimuth>
          <distance>0.004609023230333494</distance>
          <takeoffAngle>
            <value>-1.0</value>
          </takeoffAngle>
          <timeResidual>0.311</timeResidual>
          <timeWeight>1.0</timeWeight>
        </arrival>
        <arrival publicID="smi:local/18d15c4b-3dd8-4958-921b-839609bc2157">
          <pickID>smi:local/a8b6ad20-3a93-4caa-89bd-61be3f65204a</pickID>
          <phase>S</phase>
          <azimuth>359.0</azimuth>
          <distance>0.004609023230333494</distance>
          <takeoffAngle>
            <value>-1.0</value>
          </takeoffAngle>
          <timeResidual>0.3108</timeResidual>
          <timeWeight>1.0</timeWeight>
        </arrival>
        <arrival publicID="smi:local/303f8af9-dd7f-40d0-bffa-309cdc3ddaf1">
          <pickID>smi:local/37fe442b-1569-47d0-b2d3-78e744242f40</pickID>
          <phase>S</phase>
          <azimuth>359.0</azimuth>
          <distance>0.004627908984057787</distance>
          <takeoffAngle>
            <value>-1.0</value>
          </takeoffAngle>
          <timeResidual>0.1418</timeResidual>
          <timeWeight>1.0</timeWeight>
        </arrival>
        <arrival publicID="smi:local/ac249fb1-1294-47ff-87f4-1679cb3dbcbc">
          <pickID>smi:local/caf62563-ee7c-4c86-b448-7aa582c92fa4</pickID>
          <phase>S</phase>
          <azimuth>359.0</azimuth>
          <distance>0.004856336671961145</distance>
          <takeoffAngle>
            <value>-1.0</value>
          </takeoffAngle>
          <timeResidual>-0.0471</timeResidual>
          <timeWeight>1.0</timeWeight>
        </arrival>
        <arrival publicID="smi:local/6ba575eb-1d52-4ef2-8890-d5489ecad544">
          <pickID>smi:local/79eabd64-5585-4687-aced-ef0bb799fe9a</pickID>
          <phase>S</phase>
          <azimuth>359.0</azimuth>
          <distance>0.004889611571380138</distance>
          <takeoffAngle>
            <value>-1.0</value>
          </takeoffAngle>
          <timeResidual>-0.0534</timeResidual>
          <timeWeight>1.0</timeWeight>
        </arrival>
        <arrival publicID="smi:local/49824e2a-d72e-4c70-bbda-2ab36cfbe326">
          <pickID>smi:local/e163e01a-bc59-4b86-90e0-674f9e445293</pickID>
          <phase>S</phase>
          <azimuth>359.0</azimuth>
          <distance>0.005489459082527932</distance>
          <takeoffAngle>
            <value>-1.0</value>
          </takeoffAngle>
          <timeResidual>-0.0172</timeResidual>
          <timeWeight>1.0</timeWeight>
        </arrival>
        <arrival publicID="smi:local/98d22bc3-eff5-42ad-bd72-69515385dabe">
          <pickID>smi:local/01025ec5-c7cf-4aeb-b315-dcf56ec899ba</pickID>
          <phase>S</phase>
          <azimuth>359.0</azimuth>
          <distance>0.006352807824209912</distance>
          <takeoffAngle>
            <value>-1.0</value>
          </takeoffAngle>
          <timeResidual>-0.2826</timeResidual>
          <timeWeight>1.0</timeWeight>
        </arrival>
        <arrival publicID="smi:local/025e2e0b-f13a-4d08-8bcd-fdee66ad7d13">
          <pickID>smi:local/f53cc428-c071-497c-a4c9-18c837df3596</pickID>
          <phase>S</phase>
          <azimuth>359.0</azimuth>
          <distance>0.007621750610161242</distance>
          <takeoffAngle>
            <value>-1.0</value>
          </takeoffAngle>
          <timeResidual>-0.2389</timeResidual>
          <timeWeight>1.0</timeWeight>
        </arrival>
        <arrival publicID="smi:local/396eb33f-f626-4b6f-81b7-713ab8c4dec9">
          <pickID>smi:local/7d6a4e6b-d878-43e6-9bcb-b61f3fdc88ad</pickID>
          <phase>S</phase>
          <azimuth>359.0</azimuth>
          <distance>0.00889069339611257</distance>
          <takeoffAngle>
            <value>-1.0</value>
          </takeoffAngle>
          <timeResidual>-0.3989</timeResidual>
          <timeWeight>1.0</timeWeight>
        </arrival>
        <arrival publicID="smi:local/d41704b6-79b3-4698-97c2-53ab4a7058d7">
          <pickID>smi:local/bf97a3b0-5b55-4ba8-9111-f640a006489a</pickID>
          <phase>S</phase>
          <azimuth>359.0</azimuth>
          <distance>0.010160535503669818</distance>
          <takeoffAngle>
            <value>-1.0</value>
          </takeoffAngle>
          <timeResidual>-1.3073</timeResidual>
          <timeWeight>1.0</timeWeight>
        </arrival>
      </origin>
      <pick publicID="smi:local/5c691c30-4a78-465d-8b91-ef679313c692">
        <time>
          <value>2020-02-25T03:13:56.234800Z</value>
          <uncertainty>0.05</uncertainty>
        </time>
        <waveformID networkCode="XX" stationCode="G2" channelCode="DPZ"></waveformID>
        <phaseHint>S</phaseHint>
      </pick>
      <pick publicID="smi:local/99aeddf0-a77c-493d-b7d1-c829fbf37efb">
        <time>
          <value>2020-02-25T03:13:56.249700Z</value>
          <uncertainty>0.05</uncertainty>
        </time>
        <waveformID networkCode="XX" stationCode="G17" channelCode="DPZ"></waveformID>
        <phaseHint>S</phaseHint>
      </pick>
      <pick publicID="smi:local/05f19622-9f33-4adb-b16b-ba7f5fc96315">
        <time>
          <value>2020-02-25T03:13:56.252700Z</value>
          <uncertainty>0.05</uncertainty>
        </time>
        <waveformID networkCode="XX" stationCode="C0704" channelCode="DPN"></waveformID>
        <phaseHint>S</phaseHint>
      </pick>
      <pick publicID="smi:local/571c9427-11aa-4375-a03c-92aba8a98c7d">
        <time>
          <value>2020-02-25T03:13:56.244700Z</value>
          <uncertainty>0.05</uncertainty>
        </time>
        <waveformID networkCode="XX" stationCode="G13" channelCode="DPZ"></waveformID>
        <phaseHint>S</phaseHint>
      </pick>
      <pick publicID="smi:local/01025ec5-c7cf-4aeb-b315-dcf56ec899ba">
        <time>
          <value>2020-02-25T03:13:55.968700Z</value>
          <uncertainty>0.05</uncertainty>
        </time>
        <waveformID networkCode="XX" stationCode="F0304" channelCode="DPN"></waveformID>
        <phaseHint>S</phaseHint>
      </pick>
      <pick publicID="smi:local/caf62563-ee7c-4c86-b448-7aa582c92fa4">
        <time>
          <value>2020-02-25T03:13:56.072700Z</value>
          <uncertainty>0.05</uncertainty>
        </time>
        <waveformID networkCode="XX" stationCode="F0604" channelCode="DPE"></waveformID>
        <phaseHint>S</phaseHint>
      </pick>
      <pick publicID="smi:local/04a4e023-6167-4c31-be16-702edff35457">
        <time>
          <value>2020-02-25T03:13:56.236000Z</value>
          <uncertainty>0.05</uncertainty>
        </time>
        <waveformID networkCode="XX" stationCode="G4" channelCode="DPN"></waveformID>
        <phaseHint>S</phaseHint>
      </pick>
      <pick publicID="smi:local/9c301a7f-c43f-4c94-b0c1-0e9cc9c73cb9">
        <time>
          <value>2020-02-25T03:13:54.080700Z</value>
          <uncertainty>0.05</uncertainty>
        </time>
        <waveformID networkCode="XX" stationCode="F0708" channelCode="DPZ"></waveformID>
        <phaseHint>S</phaseHint>
      </pick>
      <pick publicID="smi:local/dd594854-cee0-4c53-a650-f6d4498dcec1">
        <time>
          <value>2020-02-25T03:13:56.236900Z</value>
          <uncertainty>0.05</uncertainty>
        </time>
        <waveformID networkCode="XX" stationCode="G6" channelCode="DPZ"></waveformID>
        <phaseHint>S</phaseHint>
      </pick>
      <pick publicID="smi:local/a8b6ad20-3a93-4caa-89bd-61be3f65204a">
        <time>
          <value>2020-02-25T03:13:56.251100Z</value>
          <uncertainty>0.05</uncertainty>
        </time>
        <waveformID networkCode="XX" stationCode="G18" channelCode="DPZ"></waveformID>
        <phaseHint>S</phaseHint>
      </pick>
      <pick publicID="smi:local/7d6a4e6b-d878-43e6-9bcb-b61f3fdc88ad">
        <time>
          <value>2020-02-25T03:13:56.076700Z</value>
          <uncertainty>0.05</uncertainty>
        </time>
        <waveformID networkCode="XX" stationCode="F0102" channelCode="DPN"></waveformID>
        <phaseHint>S</phaseHint>
      </pick>
      <pick publicID="smi:local/80c10d51-1ce3-4b3a-a425-7a06e625a407">
        <time>
          <value>2020-02-25T03:13:56.204700Z</value>
          <uncertainty>0.05</uncertainty>
        </time>
        <waveformID networkCode="XX" stationCode="C0209" channelCode="DPE"></waveformID>
        <phaseHint>S</phaseHint>
      </pick>
      <pick publicID="smi:local/c7c67ce1-2e96-4974-8ca5-44ee260ab6b9">
        <time>
          <value>2020-02-25T03:13:54.260700Z</value>
          <uncertainty>0.05</uncertainty>
        </time>
        <waveformID networkCode="XX" stationCode="F0809" channelCode="DPN"></waveformID>
        <phaseHint>S</phaseHint>
      </pick>
      <pick publicID="smi:local/f53cc428-c071-497c-a4c9-18c837df3596">
        <time>
          <value>2020-02-25T03:13:56.124700Z</value>
          <uncertainty>0.05</uncertainty>
        </time>
        <waveformID networkCode="XX" stationCode="F0203" channelCode="DPE"></waveformID>
        <phaseHint>S</phaseHint>
      </pick>
      <pick publicID="smi:local/059a5f97-010d-43a8-876a-bd452d11ce7b">
        <time>
