<?xml version='1.0' encoding='utf-8'?>
<q:quakeml xmlns="http://quakeml.org/xmlns/bed/1.2" xmlns:q="http://quakeml.org/xmlns/quakeml/1.2">
  <eventParameters publicID="smi:local/e802c8dd-946a-432f-b13b-9cca566cad96">
    <event publicID="smi:local/efedf2fa-a15f-4e19-8529-17e07739a3b5">
      <preferredOriginID>smi:local/0077b871-df72-4aa8-9d08-c9bf46260131</preferredOriginID>
      <comment>
        <text>CaMI.FRS microseismicity</text>
      </comment>
      <comment id="smi:local/3399836b-1247-420f-87b9-5c3dc675d2a7">
        <text>eqcorrscan_template_2020_03_18t09_07_37</text>
      </comment>
      <creationInfo>
        <author>Genevieve Savard   obs:./obs_picked5/merged.obs   NLLoc:v7.00.00(27Oct2017)</author>
        <creationTime>2020-09-18T19:57:35.000000Z</creationTime>
      </creationInfo>
      <origin publicID="smi:local/0077b871-df72-4aa8-9d08-c9bf46260131">
        <time>
          <value>2020-03-18T09:07:36.750455Z</value>
        </time>
        <latitude>
          <value>50.441459</value>
          <uncertainty>0.009198437941892674</uncertainty>
        </latitude>
        <longitude>
          <value>-112.135254</value>
          <uncertainty>0.009280676536284393</uncertainty>
        </longitude>
        <depth>
          <value>6.25</value>
          <uncertainty>33.94318782907699</uncertainty>
          <confidenceLevel>68.0</confidenceLevel>
        </depth>
        <depthType>from location</depthType>
        <quality>
          <associatedPhaseCount>17</associatedPhaseCount>
          <usedPhaseCount>17</usedPhaseCount>
          <associatedStationCount>-1</associatedStationCount>
          <usedStationCount>17</usedStationCount>
          <depthPhaseCount>-1</depthPhaseCount>
          <standardError>0.057151</standardError>
          <azimuthalGap>360.0</azimuthalGap>
          <secondaryAzimuthalGap>360.0</secondaryAzimuthalGap>
          <groundTruthLevel>-</groundTruthLevel>
          <minimumDistance>0.012728908078013119</minimumDistance>
          <maximumDistance>0.012728908078013119</maximumDistance>
          <medianDistance>0.012728908078013119</medianDistance>
        </quality>
        <comment>
          <text>Note: Depth/Latitude/Longitude errors are calculated from covariance matrix as 1D marginal (Lon/Lat errors as great circle degrees) while OriginUncertainty min/max horizontal errors are calculated from 2D error ellipsoid and are therefore seemingly higher compared to 1D errors. Error estimates can be reconstructed from the following original NonLinLoc error statistics line:
STATISTICS ExpectX -0.211546 Y -0.115587 Z 0.0322296  CovXX 1.06495 XY -0.00901597 XZ 0.000288328 YY 1.04616 YZ 0.000450356 ZZ 0.00115214 EllAz1  32.3727 Dip1  -89.9706 Len1  0.0637657 Az2  201.912 Dip2  -0.0289081 Len2  1.91837 Len3  1.942181e+00</text>
        </comment>
        <creationInfo>
          <author>Genevieve Savard   obs:./obs_picked5/merged.obs   NLLoc:v7.00.00(27Oct2017)</author>
          <creationTime>2020-09-18T19:57:35.000000Z</creationTime>
        </creationInfo>
        <originUncertainty>
          <preferredDescription>uncertainty ellipse</preferredDescription>
          <minHorizontalUncertainty>1548.49</minHorizontalUncertainty>
          <maxHorizontalUncertainty>1567.71</maxHorizontalUncertainty>
          <azimuthMaxHorizontalUncertainty>111.912</azimuthMaxHorizontalUncertainty>
          <confidenceLevel>68.0</confidenceLevel>
        </originUncertainty>
        <arrival publicID="smi:local/a7b9ee17-e744-4d27-8b96-624c6e7f7496">
          <pickID>smi:local/97efba02-0a66-4fff-9a64-02e2af3a3727</pickID>
          <phase>P</phase>
          <azimuth>359.0</azimuth>
          <distance>0.012728998010173713</distance>
          <takeoffAngle>
            <value>-1.0</value>
          </takeoffAngle>
          <timeResidual>-0.006</timeResidual>
          <timeWeight>1.0</timeWeight>
        </arrival>
        <arrival publicID="smi:local/7d51a4f9-2131-4ac7-8e70-1f802ed88e07">
          <pickID>smi:local/79dab209-085f-43ca-acc3-2b045bc75457</pickID>
          <phase>P</phase>
          <azimuth>359.0</azimuth>
          <distance>0.012728998010173713</distance>
          <takeoffAngle>
            <value>-1.0</value>
          </takeoffAngle>
          <timeResidual>-0.0006</timeResidual>
          <timeWeight>1.0</timeWeight>
        </arrival>
        <arrival publicID="smi:local/601783af-31aa-45b7-8ae8-8cea777525ba">
          <pickID>smi:local/c72ffc8f-3ca2-4188-8bc4-c4c3094171de</pickID>
          <phase>P</phase>
          <azimuth>359.0</azimuth>
          <distance>0.012728998010173713</distance>
          <takeoffAngle>
            <value>-1.0</value>
          </takeoffAngle>
          <timeResidual>0.0023</timeResidual>
          <timeWeight>1.0</timeWeight>
        </arrival>
        <arrival publicID="smi:local/2fb6d82f-dc95-415a-acb4-1924ace64da5">
          <pickID>smi:local/2caad4cc-4462-46dd-b7fe-fb685821af52</pickID>
          <phase>P</phase>
          <azimuth>359.0</azimuth>
          <distance>0.012728998010173713</distance>
          <takeoffAngle>
            <value>-1.0</value>
          </takeoffAngle>
          <timeResidual>0.0005</timeResidual>
          <timeWeight>1.0</timeWeight>
        </arrival>
        <arrival publicID="smi:local/d73d1e05-8c84-4185-94ea-a095013206db">
          <pickID>smi:local/dcc7726e-862f-4157-9eb9-24c7054deb67</pickID>
          <phase>S</phase>
          <azimuth>359.0</azimuth>
          <distance>0.012728998010173713</distance>
          <takeoffAngle>
            <value>-1.0</value>
          </takeoffAngle>
          <timeResidual>-0.0375</timeResidual>
          <timeWeight>1.0</timeWeight>
        </arrival>
        <arrival publicID="smi:local/113fadc7-d2b9-4151-ba4a-878aa4747629">
          <pickID>smi:local/c4e7897a-0cfb-429b-8039-6403ca0553f9</pickID>
          <phase>S</phase>
          <azimuth>359.0</azimuth>
          <distance>0.012728998010173713</distance>
          <takeoffAngle>
            <value>-1.0</value>
          </takeoffAngle>
          <timeResidual>-0.0559</timeResidual>
          <timeWeight>1.0</timeWeight>
        </arrival>
        <arrival publicID="smi:local/a041cdf0-82f4-454e-8e14-d2fdcfdb796e">
          <pickID>smi:local/901dc90f-b445-495b-b0c6-adcf8f456b39</pickID>
          <phase>S</phase>
          <azimuth>359.0</azimuth>
          <distance>0.012728998010173713</distance>
          <takeoffAngle>
            <value>-1.0</value>
          </takeoffAngle>
          <timeResidual>-0.0102</timeResidual>
          <timeWeight>1.0</timeWeight>
        </arrival>
        <arrival publicID="smi:local/97bfb972-eab3-4e37-9d65-3efe64a2ae56">
          <pickID>smi:local/bc24670a-e9b3-4609-9454-a5de3993b5a8</pickID>
          <phase>S</phase>
          <azimuth>359.0</azimuth>
          <distance>0.012728998010173713</distance>
          <takeoffAngle>
            <value>-1.0</value>
          </takeoffAngle>
          <timeResidual>-0.0116</timeResidual>
          <timeWeight>1.0</timeWeight>
        </arrival>
        <arrival publicID="smi:local/0d8dcee8-1386-42df-ba49-46fdb8cfe548">
          <pickID>smi:local/9623405e-2aae-4629-a145-516ef8dd94ee</pickID>
          <phase>S</phase>
          <azimuth>359.0</azimuth>
          <distance>0.012728998010173713</distance>
          <takeoffAngle>
            <value>-1.0</value>
          </takeoffAngle>
          <timeResidual>-0.0152</timeResidual>
          <timeWeight>1.0</timeWeight>
        </arrival>
        <arrival publicID="smi:local/291e69e2-d306-4e40-974a-f1912130ceeb">
          <pickID>smi:local/964de753-ea01-4f3a-96e0-f2e25d2db020</pickID>
          <phase>S</phase>
          <azimuth>359.0</azimuth>
          <distance>0.012728998010173713</distance>
          <takeoffAngle>
            <value>-1.0</value>
          </takeoffAngle>
          <timeResidual>-0.0193</timeResidual>
          <timeWeight>1.0</timeWeight>
        </arrival>
        <arrival publicID="smi:local/bba932bf-c44c-4599-95a9-322e9b48b99a">
          <pickID>smi:local/61ddda61-7c98-4f6e-9086-7c8c54466abe</pickID>
          <phase>S</phase>
          <azimuth>359.0</azimuth>
          <distance>0.012728998010173713</distance>
          <takeoffAngle>
            <value>-1.0</value>
          </takeoffAngle>
          <timeResidual>-0.0211</timeResidual>
          <timeWeight>1.0</timeWeight>
        </arrival>
        <arrival publicID="smi:local/90c1b977-a03c-4abd-8c44-6ee406ec2252">
          <pickID>smi:local/4b15e94e-a0b7-4ef9-921a-e91715edb182</pickID>
          <phase>S</phase>
          <azimuth>359.0</azimuth>
          <distance>0.012728998010173713</distance>
          <takeoffAngle>
            <value>-1.0</value>
          </takeoffAngle>
          <timeResidual>-0.0238</timeResidual>
          <timeWeight>1.0</timeWeight>
        </arrival>
        <arrival publicID="smi:local/30ba88e5-d897-47ae-b75a-09431ac278a6">
          <pickID>smi:local/e014c711-3ea3-48a1-a580-f23bd8053d25</pickID>
          <phase>S</phase>
          <azimuth>359.0</azimuth>
          <distance>0.012728998010173713</distance>
          <takeoffAngle>
            <value>-1.0</value>
          </takeoffAngle>
          <timeResidual>-0.0307</timeResidual>
          <timeWeight>1.0</timeWeight>
        </arrival>
        <arrival publicID="smi:local/b0a8e86b-3baa-467a-8496-000cccd0224b">
          <pickID>smi:local/1cc1e924-369f-4cb5-9115-2a8da54e2473</pickID>
          <phase>S</phase>
          <azimuth>359.0</azimuth>
          <distance>0.012728998010173713</distance>
          <takeoffAngle>
            <value>-1.0</value>
          </takeoffAngle>
          <timeResidual>-0.0375</timeResidual>
          <timeWeight>1.0</timeWeight>
        </arrival>
        <arrival publicID="smi:local/b33c79a9-f2c5-40d0-b2cb-cb3e1911a060">
          <pickID>smi:local/d8577f9f-169d-4c8d-ac02-3e980441e873</pickID>
          <phase>S</phase>
          <azimuth>359.0</azimuth>
          <distance>0.012728998010173713</distance>
          <takeoffAngle>
            <value>-1.0</value>
          </takeoffAngle>
          <timeResidual>-0.0351</timeResidual>
          <timeWeight>1.0</timeWeight>
        </arrival>
        <arrival publicID="smi:local/b90e2ef9-8851-4c99-aec9-6ed6185f2cce">
          <pickID>smi:local/9efe00be-7e3c-4982-b83f-aa5a5a5d6a82</pickID>
          <phase>S</phase>
          <azimuth>359.0</azimuth>
          <distance>0.012728998010173713</distance>
          <takeoffAngle>
            <value>-1.0</value>
          </takeoffAngle>
          <timeResidual>0.1478</timeResidual>
          <timeWeight>1.0</timeWeight>
        </arrival>
        <arrival publicID="smi:local/dcd02c51-7c4b-4f11-b552-fab0653a0979">
          <pickID>smi:local/5595284c-2f02-4483-a80a-131782fb153a</pickID>
          <phase>S</phase>
          <azimuth>359.0</azimuth>
          <distance>0.012728998010173713</distance>
          <takeoffAngle>
            <value>-1.0</value>
          </takeoffAngle>
          <timeResidual>0.1539</timeResidual>
          <timeWeight>1.0</timeWeight>
        </arrival>
      </origin>
      <pick publicID="smi:local/1cc1e924-369f-4cb5-9115-2a8da54e2473">
        <time>
          <value>2020-03-18T09:07:38.005200Z</value>
          <uncertainty>0.05</uncertainty>
        </time>
        <waveformID networkCode="XX" stationCode="G6" channelCode="DPZ"></waveformID>
        <phaseHint>S</phaseHint>
      </pick>
      <pick publicID="smi:local/d8577f9f-169d-4c8d-ac02-3e980441e873">
        <time>
          <value>2020-03-18T09:07:38.010200Z</value>
          <uncertainty>0.05</uncertainty>
        </time>
        <waveformID networkCode="XX" stationCode="G2" channelCode="DPZ"></waveformID>
        <phaseHint>S</phaseHint>
      </pick>
      <pick publicID="smi:local/61ddda61-7c98-4f6e-9086-7c8c54466abe">
        <time>
          <value>2020-03-18T09:07:37.998700Z</value>
          <uncertainty>0.05</uncertainty>
        </time>
        <waveformID networkCode="XX" stationCode="G12" channelCode="DPZ"></waveformID>
        <phaseHint>S</phaseHint>
      </pick>
      <pick publicID="smi:local/79dab209-085f-43ca-acc3-2b045bc75457">
        <time>
          <value>2020-03-18T09:07:37.338900Z</value>
          <uncertainty>0.05</uncertainty>
        </time>
        <waveformID networkCode="XX" stationCode="G5" channelCode="DPN"></waveformID>
        <phaseHint>P</phaseHint>
      </pick>
      <pick publicID="smi:local/5595284c-2f02-4483-a80a-131782fb153a">
        <time>
          <value>2020-03-18T09:07:38.199800Z</value>
          <uncertainty>0.05</uncertainty>
        </time>
        <waveformID networkCode="XX" stationCode="G5" channelCode="DPN"></waveformID>
        <phaseHint>S</phaseHint>
      </pick>
      <pick publicID="smi:local/dcc7726e-862f-4157-9eb9-24c7054deb67">
        <time>
          <value>2020-03-18T09:07:37.976400Z</value>
          <uncertainty>0.05</uncertainty>
        </time>
        <waveformID networkCode="XX" stationCode="G14" channelCode="DPZ"></waveformID>
        <phaseHint>S</phaseHint>
      </pick>
      <pick publicID="smi:local/9623405e-2aae-4629-a145-516ef8dd94ee">
        <time>
          <value>2020-03-18T09:07:37.995800Z</value>
          <uncertainty>0.05</uncertainty>
        </time>
        <waveformID networkCode="XX" stationCode="G15" channelCode="DPZ"></waveformID>
        <phaseHint>S</phaseHint>
      </pick>
      <pick publicID="smi:local/4b15e94e-a0b7-4ef9-921a-e91715edb182">
        <time>
          <value>2020-03-18T09:07:37.999200Z</value>
          <uncertainty>0.05</uncertainty>
        </time>
        <waveformID networkCode="XX" stationCode="G11" channelCode="DPZ"></waveformID>
        <phaseHint>S</phaseHint>
      </pick>
      <pick publicID="smi:local/2caad4cc-4462-46dd-b7fe-fb685821af52">
        <time>
          <value>2020-03-18T09:07:37.340600Z</value>
          <uncertainty>0.05</uncertainty>
        </time>
        <waveformID networkCode="XX" stationCode="G4" channelCode="DPN"></waveformID>
        <phaseHint>P</phaseHint>
      </pick>
      <pick publicID="smi:local/9efe00be-7e3c-4982-b83f-aa5a5a5d6a82">
        <time>
          <value>2020-03-18T09:07:38.195800Z</value>
          <uncertainty>0.05</uncertainty>
        </time>
        <waveformID networkCode="XX" stationCode="G4" channelCode="DPN"></waveformID>
        <phaseHint>S</phaseHint>
      </pick>
      <pick publicID="smi:local/964de753-ea01-4f3a-96e0-f2e25d2db020">
        <time>
          <value>2020-03-18T09:07:37.997500Z</value>
          <uncertainty>0.05</uncertainty>
        </time>
        <waveformID networkCode="XX" stationCode="G13" channelCode="DPZ"></waveformID>
        <phaseHint>S</phaseHint>
      </pick>
      <pick publicID="smi:local/c72ffc8f-3ca2-4188-8bc4-c4c3094171de">
        <time>
          <value>2020-03-18T09:07:37.340300Z</value>
          <uncertainty>0.05</uncertainty>
        </time>
        <waveformID networkCode="XX" stationCode="G1" channelCode="DPZ"></waveformID>
        <phaseHint>P</phaseHint>
      </pick>
      <pick publicID="smi:local/c4e7897a-0cfb-429b-8039-6403ca0553f9">
        <time>
          <value>2020-03-18T09:07:37.989000Z</value>
          <uncertainty>0.05</uncertainty>
        </time>
        <waveformID networkCode="XX" stationCode="G1" channelCode="DPZ"></waveformID>
        <phaseHint>S</phaseHint>
      </pick>
      <pick publicID="smi:local/901dc90f-b445-495b-b0c6-adcf8f456b39">
        <time>
          <value>2020-03-18T09:07:37.992700Z</value>
          <uncertainty>0.05</uncertainty>
        </time>
        <waveformID networkCode="XX" stationCode="G18" channelCode="DPZ"></waveformID>
        <phaseHint>S</phaseHint>
      </pick>
      <pick publicID="smi:local/97efba02-0a66-4fff-9a64-02e2af3a3727">
        <time>
          <value>2020-03-18T09:07:37.326200Z</value>
          <uncertainty>0.05</uncertainty>
        </time>
        <waveformID networkCode="XX" stationCode="G17" channelCode="DPE"></waveformID>
        <phaseHint>P</phaseHint>
      </pick>
      <pick publicID="smi:local/bc24670a-e9b3-4609-9454-a5de3993b5a8">
        <time>
          <value>2020-03-18T09:07:37.993700Z</value>
          <uncertainty>0.05</uncertainty>
        </time>
        <waveformID networkCode="XX" stationCode="G17" channelCode="DPZ"></waveformID>
        <phaseHint>S</phaseHint>
      </pick>
      <pick publicID="smi:local/e014c711-3ea3-48a1-a580-f23bd8053d25">
        <time>
          <value>2020-03-18T09:07:38.001800Z</value>
          <uncertainty>0.05</uncertainty>
        </time>
        <waveformID networkCode="XX" stationCode="G8" channelCode="DPZ"></waveformID>
        <phaseHint>S</phaseHint>
      </pick>
    </event>
  </eventParameters>
</q:quakeml>
