<?xml version='1.0' encoding='utf-8'?>
<q:quakeml xmlns="http://quakeml.org/xmlns/bed/1.2" xmlns:q="http://quakeml.org/xmlns/quakeml/1.2">
  <eventParameters publicID="smi:local/cfd5d82e-7860-4884-af7a-9b0445422981">
    <event publicID="smi:local/cf35496a-3462-4c81-b8c4-b4fabc3cac12">
      <preferredOriginID>smi:local/e9b0455f-72a5-4835-b920-23d5674fa511</preferredOriginID>
      <comment>
        <text>CaMI.FRS microseismicity</text>
      </comment>
      <comment id="smi:local/447fa0d1-5a02-4b78-9944-8841c2f6c3bf">
        <text>eqcorrscan_template_2020_03_01t11_17_52</text>
      </comment>
      <creationInfo>
        <author>Genevieve Savard   obs:./obs_picked5/merged.obs   NLLoc:v7.00.00(27Oct2017)</author>
        <creationTime>2020-09-18T19:54:58.000000Z</creationTime>
      </creationInfo>
      <origin publicID="smi:local/e9b0455f-72a5-4835-b920-23d5674fa511">
        <time>
          <value>2020-03-01T11:17:52.252785Z</value>
        </time>
        <latitude>
          <value>50.451093</value>
          <uncertainty>0.0001115862071154789</uncertainty>
        </latitude>
        <longitude>
          <value>-112.126047</value>
          <uncertainty>0.00012043457610949048</uncertainty>
        </longitude>
        <depth>
          <value>0.391</value>
          <uncertainty>1.7549558399002523</uncertainty>
          <confidenceLevel>68.0</confidenceLevel>
        </depth>
        <depthType>from location</depthType>
        <quality>
          <associatedPhaseCount>26</associatedPhaseCount>
          <usedPhaseCount>26</usedPhaseCount>
          <associatedStationCount>-1</associatedStationCount>
          <usedStationCount>21</usedStationCount>
          <depthPhaseCount>-1</depthPhaseCount>
          <standardError>0.156963</standardError>
          <azimuthalGap>262.014</azimuthalGap>
          <secondaryAzimuthalGap>262.014</secondaryAzimuthalGap>
          <groundTruthLevel>-</groundTruthLevel>
          <minimumDistance>0.001912902021869436</minimumDistance>
          <maximumDistance>0.006969265805419025</maximumDistance>
          <medianDistance>0.0033852803482956407</medianDistance>
        </quality>
        <comment>
          <text>Note: Depth/Latitude/Longitude errors are calculated from covariance matrix as 1D marginal (Lon/Lat errors as great circle degrees) while OriginUncertainty min/max horizontal errors are calculated from 2D error ellipsoid and are therefore seemingly higher compared to 1D errors. Error estimates can be reconstructed from the following original NonLinLoc error statistics line:
STATISTICS ExpectX -0.37883 Y 0.0761177 Z 0.00183676  CovXX 0.000179338 XY -8.19479e-06 XZ -1.04624e-06 YY 0.000153954 YZ 5.71207e-08 ZZ 3.07987e-06 EllAz1  270.544 Dip1  -89.6601 Len1  0.00329394 Az2  196.421 Dip2  0.093002 Len2  0.0231286 Len3  2.533004e-02</text>
        </comment>
        <creationInfo>
          <author>Genevieve Savard   obs:./obs_picked5/merged.obs   NLLoc:v7.00.00(27Oct2017)</author>
          <creationTime>2020-09-18T19:54:58.000000Z</creationTime>
        </creationInfo>
        <originUncertainty>
          <preferredDescription>uncertainty ellipse</preferredDescription>
          <minHorizontalUncertainty>18.6692</minHorizontalUncertainty>
          <maxHorizontalUncertainty>20.445899999999998</maxHorizontalUncertainty>
          <azimuthMaxHorizontalUncertainty>106.424</azimuthMaxHorizontalUncertainty>
          <confidenceLevel>68.0</confidenceLevel>
        </originUncertainty>
        <arrival publicID="smi:local/91a1e8c4-4366-44e4-8076-7b993ded06ab">
          <pickID>smi:local/8304c0fc-53f7-4f4d-8d0c-d541ba9690e3</pickID>
          <phase>P</phase>
          <azimuth>359.0</azimuth>
          <distance>0.0019128570557891398</distance>
          <takeoffAngle>
            <value>-1.0</value>
          </takeoffAngle>
          <timeResidual>-0.1304</timeResidual>
          <timeWeight>3.5706</timeWeight>
        </arrival>
        <arrival publicID="smi:local/e68c81b8-4769-4fb9-bac8-b46328f98996">
          <pickID>smi:local/375a588d-3003-4998-9dc6-4d7b3fcaec28</pickID>
          <phase>S</phase>
          <azimuth>359.0</azimuth>
          <distance>0.0019128570557891398</distance>
          <takeoffAngle>
            <value>-1.0</value>
          </takeoffAngle>
          <timeResidual>-0.0278</timeResidual>
          <timeWeight>0.6697</timeWeight>
        </arrival>
        <arrival publicID="smi:local/ffd785ff-95e3-47d4-80b4-99bf64455f97">
          <pickID>smi:local/eb39d841-9160-497f-8c70-9c8198384aa6</pickID>
          <phase>P</phase>
          <azimuth>359.0</azimuth>
          <distance>0.002147579994933929</distance>
          <takeoffAngle>
            <value>-1.0</value>
          </takeoffAngle>
          <timeResidual>-0.1349</timeResidual>
          <timeWeight>2.6762</timeWeight>
        </arrival>
        <arrival publicID="smi:local/93338ad2-0868-4d1f-b568-543f9ab0434f">
          <pickID>smi:local/539f2259-ca38-45fd-9b65-4b32b9ee9a6c</pickID>
          <phase>S</phase>
          <azimuth>359.0</azimuth>
          <distance>0.002147579994933929</distance>
          <takeoffAngle>
            <value>-1.0</value>
          </takeoffAngle>
          <timeResidual>-0.0491</timeResidual>
          <timeWeight>0.2121</timeWeight>
        </arrival>
        <arrival publicID="smi:local/ef17f4cf-c521-43d0-a1e0-b1ad13a4e87e">
          <pickID>smi:local/ec41c6ce-36d4-4324-855b-ce2cbfeeaf18</pickID>
          <phase>P</phase>
          <azimuth>359.0</azimuth>
          <distance>0.002917399289600362</distance>
          <takeoffAngle>
            <value>-1.0</value>
          </takeoffAngle>
          <timeResidual>-0.1889</timeResidual>
          <timeWeight>2.8021</timeWeight>
        </arrival>
        <arrival publicID="smi:local/800ceb5a-22f4-4875-90d4-65e715eeac09">
          <pickID>smi:local/66784603-f96a-4330-a7bf-29362df5f04e</pickID>
          <phase>S</phase>
          <azimuth>359.0</azimuth>
          <distance>0.002917399289600362</distance>
          <takeoffAngle>
            <value>-1.0</value>
          </takeoffAngle>
          <timeResidual>-0.2275</timeResidual>
          <timeWeight>0.2121</timeWeight>
        </arrival>
        <arrival publicID="smi:local/6862b4c8-9360-4022-9d16-5b25817a3083">
          <pickID>smi:local/a67bf7ab-e91e-41ed-bb0d-4786d4157f7f</pickID>
          <phase>P</phase>
          <azimuth>359.0</azimuth>
          <distance>0.003385046524678102</distance>
          <takeoffAngle>
            <value>-1.0</value>
          </takeoffAngle>
          <timeResidual>-0.0388</timeResidual>
          <timeWeight>3.0929</timeWeight>
        </arrival>
        <arrival publicID="smi:local/ff5d85a8-2ec3-4aa0-8a2d-2d02e0921d40">
          <pickID>smi:local/c1bade9e-0a70-4025-bf5a-e822b9cdcd4a</pickID>
          <phase>P</phase>
          <azimuth>359.0</azimuth>
          <distance>0.003385046524678102</distance>
          <takeoffAngle>
            <value>-1.0</value>
          </takeoffAngle>
          <timeResidual>-0.0256</timeResidual>
          <timeWeight>2.5206</timeWeight>
        </arrival>
        <arrival publicID="smi:local/8713c698-d6c8-419e-bbdd-f89a5fbe9171">
          <pickID>smi:local/3aad8936-d21c-4c48-8404-166945e2b3bf</pickID>
          <phase>S</phase>
          <azimuth>359.0</azimuth>
          <distance>0.003385046524678102</distance>
          <takeoffAngle>
            <value>-1.0</value>
          </takeoffAngle>
          <timeResidual>-0.0058</timeResidual>
          <timeWeight>0.2121</timeWeight>
        </arrival>
        <arrival publicID="smi:local/984503c9-8bdb-4f9b-afbc-bd8edcb1e58e">
          <pickID>smi:local/bb2f2a26-db80-4184-a71e-2feeb99d36a2</pickID>
          <phase>P</phase>
          <azimuth>359.0</azimuth>
          <distance>0.003385046524678102</distance>
          <takeoffAngle>
            <value>-1.0</value>
          </takeoffAngle>
          <timeResidual>0.2948</timeResidual>
          <timeWeight>0.2121</timeWeight>
        </arrival>
        <arrival publicID="smi:local/49636c2f-a4e2-421e-b924-dddba89ee217">
          <pickID>smi:local/1821d5d2-e78d-4987-81a2-7f0b323a9392</pickID>
          <phase>P</phase>
          <azimuth>359.0</azimuth>
          <distance>0.003385046524678102</distance>
          <takeoffAngle>
            <value>-1.0</value>
          </takeoffAngle>
          <timeResidual>0.3016</timeResidual>
          <timeWeight>0.2121</timeWeight>
        </arrival>
        <arrival publicID="smi:local/feef998a-25a9-4b4e-a897-5761088b1160">
          <pickID>smi:local/5f2bdde5-acec-4141-afe8-0889406a5c7a</pickID>
          <phase>S</phase>
          <azimuth>359.0</azimuth>
          <distance>0.003385046524678102</distance>
          <takeoffAngle>
            <value>-1.0</value>
          </takeoffAngle>
          <timeResidual>0.0305</timeResidual>
          <timeWeight>0.2121</timeWeight>
        </arrival>
        <arrival publicID="smi:local/d8ad7741-9d47-429d-859a-9844c3f95d84">
          <pickID>smi:local/6a721761-fc0c-4405-a52c-0a013286afd4</pickID>
          <phase>S</phase>
          <azimuth>359.0</azimuth>
          <distance>0.003385046524678102</distance>
          <takeoffAngle>
            <value>-1.0</value>
          </takeoffAngle>
          <timeResidual>0.0156</timeResidual>
          <timeWeight>0.2121</timeWeight>
        </arrival>
        <arrival publicID="smi:local/5f167cfa-801a-41cd-a705-bb8f1dc35b9c">
          <pickID>smi:local/bc22033e-15c0-422b-97b1-94066871b58b</pickID>
          <phase>S</phase>
          <azimuth>359.0</azimuth>
          <distance>0.003385046524678102</distance>
          <takeoffAngle>
            <value>-1.0</value>
          </takeoffAngle>
          <timeResidual>0.0066</timeResidual>
          <timeWeight>0.2121</timeWeight>
        </arrival>
        <arrival publicID="smi:local/5ef80624-277c-4445-baee-96ce3a0f7c40">
          <pickID>smi:local/7b74011d-ebe3-4ea1-bf9e-bf284acd2cfd</pickID>
          <phase>S</phase>
          <azimuth>359.0</azimuth>
          <distance>0.003385046524678102</distance>
          <takeoffAngle>
            <value>-1.0</value>
          </takeoffAngle>
          <timeResidual>0.0164</timeResidual>
          <timeWeight>0.2121</timeWeight>
        </arrival>
        <arrival publicID="smi:local/e0c46ae8-83e1-474f-a2d9-9f0a52fe43d9">
          <pickID>smi:local/cc01cdfc-0273-4fc4-8c11-b7bb5a84af13</pickID>
          <phase>S</phase>
          <azimuth>359.0</azimuth>
          <distance>0.003385046524678102</distance>
          <takeoffAngle>
            <value>-1.0</value>
          </takeoffAngle>
          <timeResidual>0.0119</timeResidual>
          <timeWeight>0.2121</timeWeight>
        </arrival>
        <arrival publicID="smi:local/5813f789-5052-4281-8d7f-c6262d6b8453">
          <pickID>smi:local/59e4217d-c9d8-4044-ad8a-990d90549c0c</pickID>
          <phase>S</phase>
          <azimuth>359.0</azimuth>
          <distance>0.003385046524678102</distance>
          <takeoffAngle>
            <value>-1.0</value>
          </takeoffAngle>
          <timeResidual>0.0413</timeResidual>
          <timeWeight>0.2121</timeWeight>
        </arrival>
        <arrival publicID="smi:local/b116fa86-2530-44ac-a23c-cd170b758e24">
          <pickID>smi:local/2ca6a07e-ebdb-4e13-8d38-77c8802d8040</pickID>
          <phase>S</phase>
          <azimuth>359.0</azimuth>
          <distance>0.003385046524678102</distance>
          <takeoffAngle>
            <value>-1.0</value>
          </takeoffAngle>
          <timeResidual>0.0259</timeResidual>
          <timeWeight>0.2121</timeWeight>
        </arrival>
        <arrival publicID="smi:local/c1e3ac04-4e11-4c99-a3ce-8dc1942143fe">
          <pickID>smi:local/dd4a3bad-fedf-448d-bd21-375fc9c8dc5e</pickID>
          <phase>S</phase>
          <azimuth>359.0</azimuth>
          <distance>0.003385046524678102</distance>
          <takeoffAngle>
            <value>-1.0</value>
          </takeoffAngle>
          <timeResidual>0.0204</timeResidual>
          <timeWeight>0.2121</timeWeight>
        </arrival>
        <arrival publicID="smi:local/fc82c4ef-ecdc-4f97-a803-708781564937">
          <pickID>smi:local/bb9b1d54-f384-4add-91db-79c8e6591bb1</pickID>
          <phase>S</phase>
          <azimuth>359.0</azimuth>
          <distance>0.003385046524678102</distance>
          <takeoffAngle>
            <value>-1.0</value>
          </takeoffAngle>
          <timeResidual>0.5123</timeResidual>
          <timeWeight>0.2121</timeWeight>
        </arrival>
        <arrival publicID="smi:local/c9bf34d7-80a7-4fa0-a9d9-106d3b56bf3b">
          <pickID>smi:local/faaa91be-bcf2-433f-a8ec-a6d764f565c6</pickID>
          <phase>S</phase>
          <azimuth>359.0</azimuth>
          <distance>0.003385046524678102</distance>
          <takeoffAngle>
            <value>-1.0</value>
          </takeoffAngle>
          <timeResidual>0.5133</timeResidual>
          <timeWeight>0.2121</timeWeight>
        </arrival>
        <arrival publicID="smi:local/3473b647-da70-4206-8c91-9293bc49ec66">
          <pickID>smi:local/ce1f3096-7539-45c2-9cab-80de21306108</pickID>
          <phase>P</phase>
          <azimuth>359.0</azimuth>
          <distance>0.004783491621881728</distance>
          <takeoffAngle>
            <value>-1.0</value>
          </takeoffAngle>
          <timeResidual>0.2295</timeResidual>
          <timeWeight>3.5129</timeWeight>
        </arrival>
        <arrival publicID="smi:local/93479eea-3a9c-45a8-b118-d32ac6c02969">
          <pickID>smi:local/088329fa-db80-414b-a16c-b36c453d2c0c</pickID>
          <phase>S</phase>
          <azimuth>359.0</azimuth>
          <distance>0.004783491621881728</distance>
          <takeoffAngle>
            <value>-1.0</value>
          </takeoffAngle>
          <timeResidual>0.0086</timeResidual>
          <timeWeight>0.2121</timeWeight>
        </arrival>
        <arrival publicID="smi:local/f2fdf0e3-0ae2-4b3e-8374-3a0b83b856c6">
          <pickID>smi:local/299a1fdc-f0be-4bef-ba91-b23639c01308</pickID>
          <phase>P</phase>
          <azimuth>359.0</azimuth>
          <distance>0.005841093830442155</distance>
          <takeoffAngle>
            <value>-1.0</value>
          </takeoffAngle>
          <timeResidual>0.1454</timeResidual>
          <timeWeight>3.3368</timeWeight>
        </arrival>
        <arrival publicID="smi:local/692ac11b-fc0a-4ed8-bfba-b9e3918fc17e">
          <pickID>smi:local/b074e21e-ecf2-4226-b827-ebb8e8395d5c</pickID>
          <phase>S</phase>
          <azimuth>359.0</azimuth>
          <distance>0.005841093830442155</distance>
          <takeoffAngle>
            <value>-1.0</value>
          </takeoffAngle>
          <timeResidual>-0.1158</timeResidual>
          <timeWeight>0.2121</timeWeight>
        </arrival>
        <arrival publicID="smi:local/3d585ee7-2783-4900-ad1d-b1eafd07130f">
          <pickID>smi:local/0d2cad36-8f4a-43a0-81aa-4e4065483024</pickID>
          <phase>S</phase>
          <azimuth>359.0</azimuth>
          <distance>0.006968843124264244</distance>
          <takeoffAngle>
            <value>-1.0</value>
          </takeoffAngle>
          <timeResidual>-0.1402</timeResidual>
          <timeWeight>0.2121</timeWeight>
        </arrival>
      </origin>
      <pick publicID="smi:local/cc01cdfc-0273-4fc4-8c11-b7bb5a84af13">
        <time>
          <value>2020-03-01T11:17:52.777900Z</value>
          <uncertainty>0.05</uncertainty>
        </time>
        <waveformID networkCode="XX" stationCode="G17" channelCode="DPZ"></waveformID>
        <phaseHint>S</phaseHint>
      </pick>
      <pick publicID="smi:local/299a1fdc-f0be-4bef-ba91-b23639c01308">
        <time>
          <value>2020-03-01T11:17:52.761900Z</value>
          <uncertainty>0.00808</uncertainty>
        </time>
        <waveformID networkCode="XX" stationCode="F0708" channelCode="DPZ"></waveformID>
        <phaseHint>P</phaseHint>
      </pick>
      <pick publicID="smi:local/b074e21e-ecf2-4226-b827-ebb8e8395d5c">
        <time>
          <value>2020-03-01T11:17:53.018500Z</value>
          <uncertainty>0.05</uncertainty>
        </time>
        <waveformID networkCode="XX" stationCode="F0708" channelCode="DPE"></waveformID>
        <phaseHint>S</phaseHint>
      </pick>
      <pick publicID="smi:local/59e4217d-c9d8-4044-ad8a-990d90549c0c">
        <time>
          <value>2020-03-01T11:17:52.781700Z</value>
          <uncertainty>0.05</uncertainty>
        </time>
        <waveformID networkCode="XX" stationCode="G1" channelCode="DPZ"></waveformID>
        <phaseHint>S</phaseHint>
      </pick>
      <pick publicID="smi:local/eb39d841-9160-497f-8c70-9c8198384aa6">
        <time>
          <value>2020-03-01T11:17:52.283300Z</value>
          <uncertainty>0.0103</uncertainty>
        </time>
        <waveformID networkCode="XX" stationCode="F0307" channelCode="DPZ"></waveformID>
        <phaseHint>P</phaseHint>
      </pick>
      <pick publicID="smi:local/539f2259-ca38-45fd-9b65-4b32b9ee9a6c">
        <time>
          <value>2020-03-01T11:17:52.648400Z</value>
          <uncertainty>0.05</uncertainty>
        </time>
        <waveformID networkCode="XX" stationCode="F0307" channelCode="DPE"></waveformID>
        <phaseHint>S</phaseHint>
      </pick>
      <pick publicID="smi:local/0d2cad36-8f4a-43a0-81aa-4e4065483024">
        <time>
          <value>2020-03-01T11:17:53.094900Z</value>
          <uncertainty>0.05</uncertainty>
        </time>
        <waveformID networkCode="XX" stationCode="F0809" channelCode="DPE"></waveformID>
        <phaseHint>S</phaseHint>
      </pick>
      <pick publicID="smi:local/6a721761-fc0c-4405-a52c-0a013286afd4">
        <time>
          <value>2020-03-01T11:17:52.773500Z</value>
          <uncertainty>0.05</uncertainty>
        </time>
        <waveformID networkCode="XX" stationCode="G13" channelCode="DPZ"></waveformID>
        <phaseHint>S</phaseHint>
      </pick>
      <pick publicID="smi:local/3aad8936-d21c-4c48-8404-166945e2b3bf">
        <time>
          <value>2020-03-01T11:17:52.747400Z</value>
          <uncertainty>0.05</uncertainty>
        </time>
        <waveformID networkCode="XX" stationCode="G6" channelCode="DPZ"></waveformID>
        <phaseHint>S</phaseHint>
      </pick>
      <pick publicID="smi:local/bc22033e-15c0-422b-97b1-94066871b58b">
        <time>
          <value>2020-03-01T11:17:52.775200Z</value>
          <uncertainty>0.05</uncertainty>
        </time>
        <waveformID networkCode="XX" stationCode="G18" channelCode="DPZ"></waveformID>
        <phaseHint>S</phaseHint>
      </pick>
      <pick publicID="smi:local/ec41c6ce-36d4-4324-855b-ce2cbfeeaf18">
        <time>
          <value>2020-03-01T11:17:52.275600Z</value>
          <uncertainty>0.00984</uncertainty>
        </time>
        <waveformID networkCode="XX" stationCode="F0304" channelCode="DPZ"></waveformID>
        <phaseHint>P</phaseHint>
      </pick>
      <pick publicID="smi:local/66784603-f96a-4330-a7bf-29362df5f04e">
        <time>
          <value>2020-03-01T11:17:52.602500Z</value>
          <uncertainty>0.05</uncertainty>
        </time>
        <waveformID networkCode="XX" stationCode="F0304" channelCode="DPN"></waveformID>
        <phaseHint>S</phaseHint>
      </pick>
      <pick publicID="smi:local/a67bf7ab-e91e-41ed-bb0d-4786d4157f7f">
        <time>
          <value>2020-03-01T11:17:52.427300Z</value>
          <uncertainty>0.00885</uncertainty>
        </time>
        <waveformID networkCode="XX" stationCode="G15" channelCode="DPN"></waveformID>
        <phaseHint>P</phaseHint>
      </pick>
      <pick publicID="smi:local/dd4a3bad-fedf-448d-bd21-375fc9c8dc5e">
        <time>
          <value>2020-03-01T11:17:52.782100Z</value>
          <uncertainty>0.05</uncertainty>
        </time>
        <waveformID networkCode="XX" stationCode="G15" channelCode="DPZ"></waveformID>
        <phaseHint>S</phaseHint>
      </pick>
