<?xml version='1.0' encoding='utf-8'?>
<q:quakeml xmlns="http://quakeml.org/xmlns/bed/1.2" xmlns:q="http://quakeml.org/xmlns/quakeml/1.2">
  <eventParameters publicID="smi:local/26373d61-1cef-45ca-acd9-3df90e832b82">
    <event publicID="smi:local/5fade442-10f5-4706-a47e-4fb37eb2e6ae">
      <preferredOriginID>smi:local/c2a5b2c4-7427-4193-942b-3964e458f79e</preferredOriginID>
      <comment>
        <text>CaMI.FRS microseismicity</text>
      </comment>
      <comment id="smi:local/d2d9bf41-fa54-4b74-a3eb-40b6ce1c0158">
        <text>eqcorrscan_template_2020_03_10t05_19_21</text>
      </comment>
      <creationInfo>
        <author>Genevieve Savard   obs:./obs_picked5/merged.obs   NLLoc:v7.00.00(27Oct2017)</author>
        <creationTime>2020-09-18T19:56:53.000000Z</creationTime>
      </creationInfo>
      <origin publicID="smi:local/c2a5b2c4-7427-4193-942b-3964e458f79e">
        <time>
          <value>2020-03-10T05:19:20.899728Z</value>
        </time>
        <latitude>
          <value>50.449882</value>
          <uncertainty>0.0024161961635197613</uncertainty>
        </latitude>
        <longitude>
          <value>-112.126261</value>
          <uncertainty>0.002408837580058963</uncertainty>
        </longitude>
        <depth>
          <value>343.75</value>
          <uncertainty>183.32403006698274</uncertainty>
          <confidenceLevel>68.0</confidenceLevel>
        </depth>
        <depthType>from location</depthType>
        <quality>
          <associatedPhaseCount>16</associatedPhaseCount>
          <usedPhaseCount>16</usedPhaseCount>
          <associatedStationCount>-1</associatedStationCount>
          <usedStationCount>16</usedStationCount>
          <depthPhaseCount>-1</depthPhaseCount>
          <standardError>0.0296735</standardError>
          <azimuthalGap>360.0</azimuthalGap>
          <secondaryAzimuthalGap>360.0</secondaryAzimuthalGap>
          <groundTruthLevel>-</groundTruthLevel>
          <minimumDistance>0.003456947287071304</minimumDistance>
          <maximumDistance>0.003456947287071304</maximumDistance>
          <medianDistance>0.003456947287071304</medianDistance>
        </quality>
        <comment>
          <text>Note: Depth/Latitude/Longitude errors are calculated from covariance matrix as 1D marginal (Lon/Lat errors as great circle degrees) while OriginUncertainty min/max horizontal errors are calculated from 2D error ellipsoid and are therefore seemingly higher compared to 1D errors. Error estimates can be reconstructed from the following original NonLinLoc error statistics line:
STATISTICS ExpectX -0.0178318 Y -0.0138691 Z 0.509128  CovXX 0.0717439 XY -6.6646e-08 XZ 0.000322659 YY 0.0721829 YZ 0.000892833 ZZ 0.0336077 EllAz1  200.08 Dip1  88.5892 Len1  0.344315 Az2  270.938 Dip2  -0.462696 Len2  0.503255 Len3  5.048553e-01</text>
        </comment>
        <creationInfo>
          <author>Genevieve Savard   obs:./obs_picked5/merged.obs   NLLoc:v7.00.00(27Oct2017)</author>
          <creationTime>2020-09-18T19:56:53.000000Z</creationTime>
        </creationInfo>
        <originUncertainty>
          <preferredDescription>uncertainty ellipse</preferredDescription>
          <minHorizontalUncertainty>406.215</minHorizontalUncertainty>
          <maxHorizontalUncertainty>407.45599999999996</maxHorizontalUncertainty>
          <azimuthMaxHorizontalUncertainty>179.991</azimuthMaxHorizontalUncertainty>
          <confidenceLevel>68.0</confidenceLevel>
        </originUncertainty>
        <arrival publicID="smi:local/2f08fbad-cea0-4296-a3ef-43eb71a017c7">
          <pickID>smi:local/6283dd57-b6b9-423c-aafa-ce7cc2157c88</pickID>
          <phase>P</phase>
          <azimuth>359.0</azimuth>
          <distance>0.0034569922531516003</distance>
          <takeoffAngle>
            <value>-1.0</value>
          </takeoffAngle>
          <timeResidual>0.001</timeResidual>
          <timeWeight>1.0</timeWeight>
        </arrival>
        <arrival publicID="smi:local/156e4588-2a91-4170-894b-2791cbef4f29">
          <pickID>smi:local/7516fa7e-9793-484b-aeb0-a5f812e1cae0</pickID>
          <phase>P</phase>
          <azimuth>359.0</azimuth>
          <distance>0.0034569922531516003</distance>
          <takeoffAngle>
            <value>-1.0</value>
          </takeoffAngle>
          <timeResidual>0.0045</timeResidual>
          <timeWeight>1.0</timeWeight>
        </arrival>
        <arrival publicID="smi:local/8f00b9a2-e54e-4cf0-ad5b-7cee18e96235">
          <pickID>smi:local/23d9396f-cd13-4f39-a8a6-2c49a5b2772b</pickID>
          <phase>P</phase>
          <azimuth>359.0</azimuth>
          <distance>0.0034569922531516003</distance>
          <takeoffAngle>
            <value>-1.0</value>
          </takeoffAngle>
          <timeResidual>-0.0015</timeResidual>
          <timeWeight>1.0</timeWeight>
        </arrival>
        <arrival publicID="smi:local/24661c76-40a3-49cf-ac9b-dce9c7d39772">
          <pickID>smi:local/4c6149b0-1d0f-4c4b-970b-60240116270a</pickID>
          <phase>P</phase>
          <azimuth>359.0</azimuth>
          <distance>0.0034569922531516003</distance>
          <takeoffAngle>
            <value>-1.0</value>
          </takeoffAngle>
          <timeResidual>-0.0011</timeResidual>
          <timeWeight>1.0</timeWeight>
        </arrival>
        <arrival publicID="smi:local/eb48837a-4f99-4c40-a4e9-abf50dbdb21f">
          <pickID>smi:local/a17bb1f8-9525-48bd-bbf1-65329fdf9522</pickID>
          <phase>S</phase>
          <azimuth>359.0</azimuth>
          <distance>0.0034569922531516003</distance>
          <takeoffAngle>
            <value>-1.0</value>
          </takeoffAngle>
          <timeResidual>-0.0898</timeResidual>
          <timeWeight>1.0</timeWeight>
        </arrival>
        <arrival publicID="smi:local/4172bc7e-dfe9-443f-ab5b-6855aa9dc860">
          <pickID>smi:local/095dd0d8-0d1e-49fc-b62a-86fcaf749c30</pickID>
          <phase>S</phase>
          <azimuth>359.0</azimuth>
          <distance>0.0034569922531516003</distance>
          <takeoffAngle>
            <value>-1.0</value>
          </takeoffAngle>
          <timeResidual>-0.0279</timeResidual>
          <timeWeight>1.0</timeWeight>
        </arrival>
        <arrival publicID="smi:local/f2eeecc9-e963-4915-8171-e86cf5657eac">
          <pickID>smi:local/4a3d4ac1-8925-402e-8b6c-6f098f17aa4c</pickID>
          <phase>S</phase>
          <azimuth>359.0</azimuth>
          <distance>0.0034569922531516003</distance>
          <takeoffAngle>
            <value>-1.0</value>
          </takeoffAngle>
          <timeResidual>-0.0026</timeResidual>
          <timeWeight>1.0</timeWeight>
        </arrival>
        <arrival publicID="smi:local/81be881c-0571-485c-ab1c-e0ea4734c882">
          <pickID>smi:local/1b42415e-4ac9-4a30-973b-229a6d781da9</pickID>
          <phase>S</phase>
          <azimuth>359.0</azimuth>
          <distance>0.0034569922531516003</distance>
          <takeoffAngle>
            <value>-1.0</value>
          </takeoffAngle>
          <timeResidual>-0.0026</timeResidual>
          <timeWeight>1.0</timeWeight>
        </arrival>
        <arrival publicID="smi:local/21692006-52fc-45fc-8336-bca9479ef2a9">
          <pickID>smi:local/28aacf36-e82e-4455-8149-71f42bc3e045</pickID>
          <phase>S</phase>
          <azimuth>359.0</azimuth>
          <distance>0.0034569922531516003</distance>
          <takeoffAngle>
            <value>-1.0</value>
          </takeoffAngle>
          <timeResidual>-0.0161</timeResidual>
          <timeWeight>1.0</timeWeight>
        </arrival>
        <arrival publicID="smi:local/ad89cb94-c631-4d4d-bc62-cd317ea1f332">
          <pickID>smi:local/b5cb9058-75b9-4ec3-9788-f89d6fa2c577</pickID>
          <phase>S</phase>
          <azimuth>359.0</azimuth>
          <distance>0.0034569922531516003</distance>
          <takeoffAngle>
            <value>-1.0</value>
          </takeoffAngle>
          <timeResidual>0.0192</timeResidual>
          <timeWeight>1.0</timeWeight>
        </arrival>
        <arrival publicID="smi:local/0ffa0891-2528-45bd-a2d0-b4bd33007d80">
          <pickID>smi:local/d4ce5051-0075-4494-8e7c-0fc657813e1d</pickID>
          <phase>S</phase>
          <azimuth>359.0</azimuth>
          <distance>0.0034569922531516003</distance>
          <takeoffAngle>
            <value>-1.0</value>
          </takeoffAngle>
          <timeResidual>-0.0054</timeResidual>
          <timeWeight>1.0</timeWeight>
        </arrival>
        <arrival publicID="smi:local/5d5e781c-1bdc-4b8f-8d39-ac548a6438a5">
          <pickID>smi:local/17b1fc44-1506-4219-84a6-6c80a6fc1190</pickID>
          <phase>S</phase>
          <azimuth>359.0</azimuth>
          <distance>0.0034569922531516003</distance>
          <takeoffAngle>
            <value>-1.0</value>
          </takeoffAngle>
          <timeResidual>0.0058</timeResidual>
          <timeWeight>1.0</timeWeight>
        </arrival>
        <arrival publicID="smi:local/5df9a547-b2a3-4531-bbe4-da32f8d4bb19">
          <pickID>smi:local/a80141ea-c397-4b7a-b853-e7edbb68decd</pickID>
          <phase>S</phase>
          <azimuth>359.0</azimuth>
          <distance>0.0034569922531516003</distance>
          <takeoffAngle>
            <value>-1.0</value>
          </takeoffAngle>
          <timeResidual>0.0336</timeResidual>
          <timeWeight>1.0</timeWeight>
        </arrival>
        <arrival publicID="smi:local/2890d6e4-dcb9-4e6b-8771-247e99f94bcf">
          <pickID>smi:local/6eca867f-2e5a-48c0-8640-38a011c32a03</pickID>
          <phase>S</phase>
          <azimuth>359.0</azimuth>
          <distance>0.0034569922531516003</distance>
          <takeoffAngle>
            <value>-1.0</value>
          </takeoffAngle>
          <timeResidual>0.0128</timeResidual>
          <timeWeight>1.0</timeWeight>
        </arrival>
        <arrival publicID="smi:local/b73fd946-1743-4e8f-a56a-5054e1b27682">
          <pickID>smi:local/62656047-cd4b-4050-bb33-d5c7af45d925</pickID>
          <phase>S</phase>
          <azimuth>359.0</azimuth>
          <distance>0.0034569922531516003</distance>
          <takeoffAngle>
            <value>-1.0</value>
          </takeoffAngle>
          <timeResidual>0.0157</timeResidual>
          <timeWeight>1.0</timeWeight>
        </arrival>
        <arrival publicID="smi:local/6aa56963-2a14-4515-a518-8f50dc41596e">
          <pickID>smi:local/01427d1e-f950-4a4f-b297-9c45e6abccb4</pickID>
          <phase>S</phase>
          <azimuth>359.0</azimuth>
          <distance>0.0034569922531516003</distance>
          <takeoffAngle>
            <value>-1.0</value>
          </takeoffAngle>
          <timeResidual>0.0545</timeResidual>
          <timeWeight>1.0</timeWeight>
        </arrival>
      </origin>
      <pick publicID="smi:local/23d9396f-cd13-4f39-a8a6-2c49a5b2772b">
        <time>
          <value>2020-03-10T05:19:21.052800Z</value>
          <uncertainty>0.05</uncertainty>
        </time>
        <waveformID networkCode="XX" stationCode="G6" channelCode="DPN"></waveformID>
        <phaseHint>P</phaseHint>
      </pick>
      <pick publicID="smi:local/62656047-cd4b-4050-bb33-d5c7af45d925">
        <time>
          <value>2020-03-10T05:19:21.261000Z</value>
          <uncertainty>0.05</uncertainty>
        </time>
        <waveformID networkCode="XX" stationCode="G6" channelCode="DPZ"></waveformID>
        <phaseHint>S</phaseHint>
      </pick>
      <pick publicID="smi:local/b5cb9058-75b9-4ec3-9788-f89d6fa2c577">
        <time>
          <value>2020-03-10T05:19:21.238800Z</value>
          <uncertainty>0.05</uncertainty>
        </time>
        <waveformID networkCode="XX" stationCode="G14" channelCode="DPZ"></waveformID>
        <phaseHint>S</phaseHint>
      </pick>
      <pick publicID="smi:local/a17bb1f8-9525-48bd-bbf1-65329fdf9522">
        <time>
          <value>2020-03-10T05:19:21.127200Z</value>
          <uncertainty>0.05</uncertainty>
        </time>
        <waveformID networkCode="XX" stationCode="G15" channelCode="DPN"></waveformID>
        <phaseHint>S</phaseHint>
      </pick>
      <pick publicID="smi:local/6283dd57-b6b9-423c-aafa-ce7cc2157c88">
        <time>
          <value>2020-03-10T05:19:21.045500Z</value>
          <uncertainty>0.05</uncertainty>
        </time>
        <waveformID networkCode="XX" stationCode="G17" channelCode="DPN"></waveformID>
        <phaseHint>P</phaseHint>
      </pick>
      <pick publicID="smi:local/a80141ea-c397-4b7a-b853-e7edbb68decd">
        <time>
          <value>2020-03-10T05:19:21.245900Z</value>
          <uncertainty>0.05</uncertainty>
        </time>
        <waveformID networkCode="XX" stationCode="G17" channelCode="DPZ"></waveformID>
        <phaseHint>S</phaseHint>
      </pick>
      <pick publicID="smi:local/4a3d4ac1-8925-402e-8b6c-6f098f17aa4c">
        <time>
          <value>2020-03-10T05:19:21.219500Z</value>
          <uncertainty>0.05</uncertainty>
        </time>
        <waveformID networkCode="XX" stationCode="G13" channelCode="DPZ"></waveformID>
        <phaseHint>S</phaseHint>
      </pick>
      <pick publicID="smi:local/095dd0d8-0d1e-49fc-b62a-86fcaf749c30">
        <time>
          <value>2020-03-10T05:19:21.182000Z</value>
          <uncertainty>0.05</uncertainty>
        </time>
        <waveformID networkCode="XX" stationCode="G18" channelCode="DPN"></waveformID>
        <phaseHint>S</phaseHint>
      </pick>
      <pick publicID="smi:local/17b1fc44-1506-4219-84a6-6c80a6fc1190">
        <time>
          <value>2020-03-10T05:19:21.241100Z</value>
          <uncertainty>0.05</uncertainty>
        </time>
        <waveformID networkCode="XX" stationCode="G8" channelCode="DPZ"></waveformID>
        <phaseHint>S</phaseHint>
      </pick>
      <pick publicID="smi:local/d4ce5051-0075-4494-8e7c-0fc657813e1d">
        <time>
          <value>2020-03-10T05:19:21.239600Z</value>
          <uncertainty>0.05</uncertainty>
        </time>
        <waveformID networkCode="XX" stationCode="G1" channelCode="DPZ"></waveformID>
        <phaseHint>S</phaseHint>
      </pick>
      <pick publicID="smi:local/1b42415e-4ac9-4a30-973b-229a6d781da9">
        <time>
          <value>2020-03-10T05:19:21.222100Z</value>
          <uncertainty>0.05</uncertainty>
        </time>
        <waveformID networkCode="XX" stationCode="G12" channelCode="DPZ"></waveformID>
        <phaseHint>S</phaseHint>
      </pick>
      <pick publicID="smi:local/7516fa7e-9793-484b-aeb0-a5f812e1cae0">
        <time>
          <value>2020-03-10T05:19:21.052400Z</value>
          <uncertainty>0.05</uncertainty>
        </time>
        <waveformID networkCode="XX" stationCode="G11" channelCode="DPN"></waveformID>
        <phaseHint>P</phaseHint>
      </pick>
      <pick publicID="smi:local/01427d1e-f950-4a4f-b297-9c45e6abccb4">
        <time>
          <value>2020-03-10T05:19:21.282000Z</value>
          <uncertainty>0.05</uncertainty>
        </time>
        <waveformID networkCode="XX" stationCode="G11" channelCode="DPZ"></waveformID>
        <phaseHint>S</phaseHint>
      </pick>
      <pick publicID="smi:local/28aacf36-e82e-4455-8149-71f42bc3e045">
        <time>
          <value>2020-03-10T05:19:21.228200Z</value>
          <uncertainty>0.05</uncertainty>
        </time>
        <waveformID networkCode="XX" stationCode="G2" channelCode="DPZ"></waveformID>
        <phaseHint>S</phaseHint>
      </pick>
      <pick publicID="smi:local/4c6149b0-1d0f-4c4b-970b-60240116270a">
        <time>
          <value>2020-03-10T05:19:21.054100Z</value>
          <uncertainty>0.05</uncertainty>
        </time>
        <waveformID networkCode="XX" stationCode="G5" channelCode="DPN"></waveformID>
        <phaseHint>P</phaseHint>
      </pick>
      <pick publicID="smi:local/6eca867f-2e5a-48c0-8640-38a011c32a03">
        <time>
          <value>2020-03-10T05:19:21.259800Z</value>
          <uncertainty>0.05</uncertainty>
        </time>
        <waveformID networkCode="XX" stationCode="G5" channelCode="DPZ"></waveformID>
        <phaseHint>S</phaseHint>
      </pick>
    </event>
  </eventParameters>
</q:quakeml>
