<?xml version='1.0' encoding='utf-8'?>
<q:quakeml xmlns="http://quakeml.org/xmlns/bed/1.2" xmlns:q="http://quakeml.org/xmlns/quakeml/1.2">
  <eventParameters publicID="smi:local/fe5245fc-ae34-4978-95b8-e996b7d25480">
    <event publicID="smi:local/e2841f50-2feb-4425-a355-3f81d3c73641">
      <preferredOriginID>smi:local/0da020fd-3235-4062-b248-c88a14bf9843</preferredOriginID>
      <comment>
        <text>CaMI.FRS microseismicity</text>
      </comment>
      <comment id="smi:local/74f62c38-146e-43f5-935d-6c49901c26c5">
        <text>eqcorrscan_template_2020_03_19t02_27_59</text>
      </comment>
      <creationInfo>
        <author>Genevieve Savard   obs:./obs_picked5/merged.obs   NLLoc:v7.00.00(27Oct2017)</author>
        <creationTime>2020-09-18T19:57:43.000000Z</creationTime>
      </creationInfo>
      <origin publicID="smi:local/0da020fd-3235-4062-b248-c88a14bf9843">
        <time>
          <value>2020-03-19T02:27:59.361802Z</value>
        </time>
        <latitude>
          <value>50.450303</value>
          <uncertainty>0.0009678263300885599</uncertainty>
        </latitude>
        <longitude>
          <value>-112.121631</value>
          <uncertainty>0.0009601495420463043</uncertainty>
        </longitude>
        <depth>
          <value>265.625</value>
          <uncertainty>93.26387296268584</uncertainty>
          <confidenceLevel>68.0</confidenceLevel>
        </depth>
        <depthType>from location</depthType>
        <quality>
          <associatedPhaseCount>13</associatedPhaseCount>
          <usedPhaseCount>13</usedPhaseCount>
          <associatedStationCount>-1</associatedStationCount>
          <usedStationCount>13</usedStationCount>
          <depthPhaseCount>-1</depthPhaseCount>
          <standardError>0.0193667</standardError>
          <azimuthalGap>360.0</azimuthalGap>
          <secondaryAzimuthalGap>360.0</secondaryAzimuthalGap>
          <groundTruthLevel>-</groundTruthLevel>
          <minimumDistance>0.00048447174368126755</minimumDistance>
          <maximumDistance>0.00048447174368126755</maximumDistance>
          <medianDistance>0.00048447174368126755</medianDistance>
        </quality>
        <comment>
          <text>Note: Depth/Latitude/Longitude errors are calculated from covariance matrix as 1D marginal (Lon/Lat errors as great circle degrees) while OriginUncertainty min/max horizontal errors are calculated from 2D error ellipsoid and are therefore seemingly higher compared to 1D errors. Error estimates can be reconstructed from the following original NonLinLoc error statistics line:
STATISTICS ExpectX -0.0162816 Y -0.01273 Z 0.281323  CovXX 0.0113985 XY 4.35229e-05 XZ -4.88106e-05 YY 0.0115815 YZ -0.000246912 ZZ 0.00869815 EllAz1  11.0677 Dip1  85.0647 Len1  0.175008 Az2  282.557 Dip2  -0.128596 Len2  0.200504 Len3  2.024699e-01</text>
        </comment>
        <creationInfo>
          <author>Genevieve Savard   obs:./obs_picked5/merged.obs   NLLoc:v7.00.00(27Oct2017)</author>
          <creationTime>2020-09-18T19:57:43.000000Z</creationTime>
        </creationInfo>
        <originUncertainty>
          <preferredDescription>uncertainty ellipse</preferredDescription>
          <minHorizontalUncertainty>161.845</minHorizontalUncertainty>
          <maxHorizontalUncertainty>163.279</maxHorizontalUncertainty>
          <azimuthMaxHorizontalUncertainty>12.7167</azimuthMaxHorizontalUncertainty>
          <confidenceLevel>68.0</confidenceLevel>
        </originUncertainty>
        <arrival publicID="smi:local/b63bfa6b-c82b-45a4-a256-d8b6e943b4c6">
          <pickID>smi:local/fa3edbe0-26cd-41a5-a272-be6988006b6f</pickID>
          <phase>P</phase>
          <azimuth>359.0</azimuth>
          <distance>0.0004847343455901958</distance>
          <takeoffAngle>
            <value>-1.0</value>
          </takeoffAngle>
          <timeResidual>-0.0416</timeResidual>
          <timeWeight>1.0</timeWeight>
        </arrival>
        <arrival publicID="smi:local/e37d9d0f-1e96-4cd1-bd65-6fba130b3365">
          <pickID>smi:local/09df276b-8c0f-4f85-ad75-18a58ead3cba</pickID>
          <phase>S</phase>
          <azimuth>359.0</azimuth>
          <distance>0.0004847343455901958</distance>
          <takeoffAngle>
            <value>-1.0</value>
          </takeoffAngle>
          <timeResidual>-0.0008</timeResidual>
          <timeWeight>1.0</timeWeight>
        </arrival>
        <arrival publicID="smi:local/2ca1c072-5922-4678-bf2d-93079cbecde0">
          <pickID>smi:local/b9d8bbe3-c771-4402-8777-a10ae000bda3</pickID>
          <phase>S</phase>
          <azimuth>359.0</azimuth>
          <distance>0.0004847343455901958</distance>
          <takeoffAngle>
            <value>-1.0</value>
          </takeoffAngle>
          <timeResidual>-0.0014</timeResidual>
          <timeWeight>1.0</timeWeight>
        </arrival>
        <arrival publicID="smi:local/92e08283-136d-4449-9dcc-c1c4e1940a82">
          <pickID>smi:local/e4284a51-8d83-4875-8a18-b59b6dac281f</pickID>
          <phase>S</phase>
          <azimuth>359.0</azimuth>
          <distance>0.0004847343455901958</distance>
          <takeoffAngle>
            <value>-1.0</value>
          </takeoffAngle>
          <timeResidual>0.0064</timeResidual>
          <timeWeight>1.0</timeWeight>
        </arrival>
        <arrival publicID="smi:local/ee33f346-b6d8-49c2-a801-6f90addc2d30">
          <pickID>smi:local/4acabd78-2c2c-4160-816d-0820cb17f416</pickID>
          <phase>S</phase>
          <azimuth>359.0</azimuth>
          <distance>0.0004847343455901958</distance>
          <takeoffAngle>
            <value>-1.0</value>
          </takeoffAngle>
          <timeResidual>0.0059</timeResidual>
          <timeWeight>1.0</timeWeight>
        </arrival>
        <arrival publicID="smi:local/26a060c9-e890-4a28-bb39-3d0e9745c93f">
          <pickID>smi:local/d68c6105-83f6-4601-951e-eb45c8763589</pickID>
          <phase>S</phase>
          <azimuth>359.0</azimuth>
          <distance>0.0004847343455901958</distance>
          <takeoffAngle>
            <value>-1.0</value>
          </takeoffAngle>
          <timeResidual>0.0051</timeResidual>
          <timeWeight>1.0</timeWeight>
        </arrival>
        <arrival publicID="smi:local/3d7f0266-65fb-4ddc-a66c-ab5892ae36fc">
          <pickID>smi:local/3b8f6873-1b05-43b9-9a14-d4120511ad02</pickID>
          <phase>S</phase>
          <azimuth>359.0</azimuth>
          <distance>0.0004847343455901958</distance>
          <takeoffAngle>
            <value>-1.0</value>
          </takeoffAngle>
          <timeResidual>0.0072</timeResidual>
          <timeWeight>1.0</timeWeight>
        </arrival>
        <arrival publicID="smi:local/233a0617-91a0-460b-abde-12fee47b3a55">
          <pickID>smi:local/fb2223d4-ac9b-4268-a31f-bd784cd8372f</pickID>
          <phase>S</phase>
          <azimuth>359.0</azimuth>
          <distance>0.0004847343455901958</distance>
          <takeoffAngle>
            <value>-1.0</value>
          </takeoffAngle>
          <timeResidual>0.0013</timeResidual>
          <timeWeight>1.0</timeWeight>
        </arrival>
        <arrival publicID="smi:local/b8a562b7-1e27-4cf0-a6ee-81fdfe28a4a7">
          <pickID>smi:local/5b882f8d-ae4e-4648-9968-3130cf8ed939</pickID>
          <phase>S</phase>
          <azimuth>359.0</azimuth>
          <distance>0.0004847343455901958</distance>
          <takeoffAngle>
            <value>-1.0</value>
          </takeoffAngle>
          <timeResidual>-0.0172</timeResidual>
          <timeWeight>1.0</timeWeight>
        </arrival>
        <arrival publicID="smi:local/aabe507a-ef33-476b-8844-28ad57f8951b">
          <pickID>smi:local/4f809553-3b42-49ad-90b6-9f17da963750</pickID>
          <phase>S</phase>
          <azimuth>359.0</azimuth>
          <distance>0.0004847343455901958</distance>
          <takeoffAngle>
            <value>-1.0</value>
          </takeoffAngle>
          <timeResidual>-0.0042</timeResidual>
          <timeWeight>1.0</timeWeight>
        </arrival>
        <arrival publicID="smi:local/42285f60-3d5c-48a5-b550-20c920771cc1">
          <pickID>smi:local/f57c6041-c7af-4064-a526-e9346c5bfce0</pickID>
          <phase>S</phase>
          <azimuth>359.0</azimuth>
          <distance>0.0004847343455901958</distance>
          <takeoffAngle>
            <value>-1.0</value>
          </takeoffAngle>
          <timeResidual>-0.0063</timeResidual>
          <timeWeight>1.0</timeWeight>
        </arrival>
        <arrival publicID="smi:local/a2f6b03e-b881-4b50-87a3-28b8fa9f7caa">
          <pickID>smi:local/fec193ff-cabc-4ca9-bc2d-bbf923e4479a</pickID>
          <phase>S</phase>
          <azimuth>359.0</azimuth>
          <distance>0.0004847343455901958</distance>
          <takeoffAngle>
            <value>-1.0</value>
          </takeoffAngle>
          <timeResidual>-0.0054</timeResidual>
          <timeWeight>1.0</timeWeight>
        </arrival>
        <arrival publicID="smi:local/601b519f-ebaf-45d8-a61f-5490b0591111">
          <pickID>smi:local/53b90371-0d58-4788-99f1-9a359392a239</pickID>
          <phase>P</phase>
          <azimuth>359.0</azimuth>
          <distance>0.0004847343455901958</distance>
          <takeoffAngle>
            <value>-1.0</value>
          </takeoffAngle>
          <timeResidual>0.051</timeResidual>
          <timeWeight>1.0</timeWeight>
        </arrival>
      </origin>
      <pick publicID="smi:local/fb2223d4-ac9b-4268-a31f-bd784cd8372f">
        <time>
          <value>2020-03-19T02:27:59.421700Z</value>
          <uncertainty>0.05</uncertainty>
        </time>
        <waveformID networkCode="XX" stationCode="G8" channelCode="DPN"></waveformID>
        <phaseHint>S</phaseHint>
      </pick>
      <pick publicID="smi:local/fec193ff-cabc-4ca9-bc2d-bbf923e4479a">
        <time>
          <value>2020-03-19T02:27:59.430900Z</value>
          <uncertainty>0.05</uncertainty>
        </time>
        <waveformID networkCode="XX" stationCode="G2" channelCode="DPZ"></waveformID>
        <phaseHint>S</phaseHint>
      </pick>
      <pick publicID="smi:local/d68c6105-83f6-4601-951e-eb45c8763589">
        <time>
          <value>2020-03-19T02:27:59.419000Z</value>
          <uncertainty>0.05</uncertainty>
        </time>
        <waveformID networkCode="XX" stationCode="G11" channelCode="DPN"></waveformID>
        <phaseHint>S</phaseHint>
      </pick>
      <pick publicID="smi:local/53b90371-0d58-4788-99f1-9a359392a239">
        <time>
          <value>2020-03-19T02:27:59.445900Z</value>
          <uncertainty>0.05</uncertainty>
        </time>
        <waveformID networkCode="XX" stationCode="G4" channelCode="DPN"></waveformID>
        <phaseHint>P</phaseHint>
      </pick>
      <pick publicID="smi:local/fa3edbe0-26cd-41a5-a272-be6988006b6f">
        <time>
          <value>2020-03-19T02:27:59.341400Z</value>
          <uncertainty>0.05</uncertainty>
        </time>
        <waveformID networkCode="XX" stationCode="G17" channelCode="DPZ"></waveformID>
        <phaseHint>P</phaseHint>
      </pick>
      <pick publicID="smi:local/4f809553-3b42-49ad-90b6-9f17da963750">
        <time>
          <value>2020-03-19T02:27:59.426300Z</value>
          <uncertainty>0.05</uncertainty>
        </time>
        <waveformID networkCode="XX" stationCode="G6" channelCode="DPN"></waveformID>
        <phaseHint>S</phaseHint>
      </pick>
      <pick publicID="smi:local/3b8f6873-1b05-43b9-9a14-d4120511ad02">
        <time>
          <value>2020-03-19T02:27:59.419000Z</value>
          <uncertainty>0.05</uncertainty>
        </time>
        <waveformID networkCode="XX" stationCode="G12" channelCode="DPN"></waveformID>
        <phaseHint>S</phaseHint>
      </pick>
      <pick publicID="smi:local/09df276b-8c0f-4f85-ad75-18a58ead3cba">
        <time>
          <value>2020-03-19T02:27:59.408700Z</value>
          <uncertainty>0.05</uncertainty>
        </time>
        <waveformID networkCode="XX" stationCode="G14" channelCode="DPN"></waveformID>
        <phaseHint>S</phaseHint>
      </pick>
      <pick publicID="smi:local/f57c6041-c7af-4064-a526-e9346c5bfce0">
        <time>
          <value>2020-03-19T02:27:59.426900Z</value>
          <uncertainty>0.05</uncertainty>
        </time>
        <waveformID networkCode="XX" stationCode="G5" channelCode="DPZ"></waveformID>
        <phaseHint>S</phaseHint>
      </pick>
      <pick publicID="smi:local/5b882f8d-ae4e-4648-9968-3130cf8ed939">
        <time>
          <value>2020-03-19T02:27:59.422000Z</value>
          <uncertainty>0.05</uncertainty>
        </time>
        <waveformID networkCode="XX" stationCode="G1" channelCode="DPZ"></waveformID>
        <phaseHint>S</phaseHint>
      </pick>
      <pick publicID="smi:local/b9d8bbe3-c771-4402-8777-a10ae000bda3">
        <time>
          <value>2020-03-19T02:27:59.409900Z</value>
          <uncertainty>0.05</uncertainty>
        </time>
        <waveformID networkCode="XX" stationCode="G18" channelCode="DPE"></waveformID>
        <phaseHint>S</phaseHint>
      </pick>
      <pick publicID="smi:local/e4284a51-8d83-4875-8a18-b59b6dac281f">
        <time>
          <value>2020-03-19T02:27:59.415200Z</value>
          <uncertainty>0.05</uncertainty>
        </time>
        <waveformID networkCode="XX" stationCode="G15" channelCode="DPN"></waveformID>
        <phaseHint>S</phaseHint>
      </pick>
      <pick publicID="smi:local/4acabd78-2c2c-4160-816d-0820cb17f416">
        <time>
          <value>2020-03-19T02:27:59.416400Z</value>
          <uncertainty>0.05</uncertainty>
        </time>
        <waveformID networkCode="XX" stationCode="G13" channelCode="DPN"></waveformID>
        <phaseHint>S</phaseHint>
      </pick>
    </event>
  </eventParameters>
</q:quakeml>
