<?xml version='1.0' encoding='utf-8'?>
<q:quakeml xmlns="http://quakeml.org/xmlns/bed/1.2" xmlns:q="http://quakeml.org/xmlns/quakeml/1.2">
  <eventParameters publicID="smi:local/b4138c61-b75d-4b45-98ea-7990f7d9a0d4">
    <event publicID="smi:local/7e449cca-d4a9-4abb-a9a2-29e1ba844afe">
      <preferredOriginID>smi:local/c22e610c-0b20-4d4b-9e56-f2c4aa8a1f94</preferredOriginID>
      <comment>
        <text>CaMI.FRS microseismicity</text>
      </comment>
      <comment id="smi:local/62c662f4-567c-4945-bcce-8d79a329be75">
        <text>eqcorrscan_template_2020_03_10t05_47_42</text>
      </comment>
      <creationInfo>
        <author>Genevieve Savard   obs:./obs_picked1/merged.obs   NLLoc:v7.00.00(27Oct2017)</author>
        <creationTime>2020-08-21T16:08:36.000000Z</creationTime>
      </creationInfo>
      <origin publicID="smi:local/c22e610c-0b20-4d4b-9e56-f2c4aa8a1f94">
        <time>
          <value>2020-03-10T05:47:42.350490Z</value>
        </time>
        <latitude>
          <value>50.449493</value>
          <uncertainty>6.25783748779788e-05</uncertainty>
        </latitude>
        <longitude>
          <value>-112.120656</value>
          <uncertainty>9.375228249775684e-05</uncertainty>
        </longitude>
        <depth>
          <value>80.078</value>
          <uncertainty>8.499888234559322</uncertainty>
          <confidenceLevel>68.0</confidenceLevel>
        </depth>
        <depthType>from location</depthType>
        <quality>
          <associatedPhaseCount>19</associatedPhaseCount>
          <usedPhaseCount>19</usedPhaseCount>
          <associatedStationCount>-1</associatedStationCount>
          <usedStationCount>13</usedStationCount>
          <depthPhaseCount>-1</depthPhaseCount>
          <standardError>0.334003</standardError>
          <azimuthalGap>145.242</azimuthalGap>
          <secondaryAzimuthalGap>145.242</secondaryAzimuthalGap>
          <groundTruthLevel>-</groundTruthLevel>
          <minimumDistance>0.0006840761741149298</minimumDistance>
          <maximumDistance>0.003888630651128354</maximumDistance>
          <medianDistance>0.0012834668298869164</medianDistance>
        </quality>
        <comment>
          <text>Note: Depth/Latitude/Longitude errors are calculated from covariance matrix as 1D marginal (Lon/Lat errors as great circle degrees) while OriginUncertainty min/max horizontal errors are calculated from 2D error ellipsoid and are therefore seemingly higher compared to 1D errors. Error estimates can be reconstructed from the following original NonLinLoc error statistics line:
STATISTICS ExpectX 0.00350714 Y -0.105576 Z 0.0813374  CovXX 0.000108676 XY 4.22182e-06 XZ -8.80733e-06 YY 4.84193e-05 YZ -3.84467e-06 ZZ 7.22481e-05 EllAz1  357.185 Dip1  7.89577 Len1  0.0129732 Az2  297.343 Dip2  -74.5673 Len2  0.0157839 Len3  1.980265e-02</text>
        </comment>
        <creationInfo>
          <author>Genevieve Savard   obs:./obs_picked1/merged.obs   NLLoc:v7.00.00(27Oct2017)</author>
          <creationTime>2020-08-21T16:08:36.000000Z</creationTime>
        </creationInfo>
        <originUncertainty>
          <preferredDescription>uncertainty ellipse</preferredDescription>
          <minHorizontalUncertainty>10.5208</minHorizontalUncertainty>
          <maxHorizontalUncertainty>15.831299999999999</maxHorizontalUncertainty>
          <azimuthMaxHorizontalUncertainty>86.0116</azimuthMaxHorizontalUncertainty>
          <confidenceLevel>68.0</confidenceLevel>
        </originUncertainty>
        <arrival publicID="smi:local/bb5a20fb-4e0f-4c51-88d7-6b7efc669f77">
          <pickID>smi:local/f7ac1291-25fb-48e4-b731-284f72f7435f</pickID>
          <phase>S</phase>
          <azimuth>359.0</azimuth>
          <distance>0.000684383742104154</distance>
          <takeoffAngle>
            <value>-1.0</value>
          </takeoffAngle>
          <timeResidual>-0.1297</timeResidual>
          <timeWeight>0.5201</timeWeight>
        </arrival>
        <arrival publicID="smi:local/1db1a9a9-b692-4c5b-a126-c0c15c736bf5">
          <pickID>smi:local/4e9c834d-3a15-45f9-9487-983ea44f7442</pickID>
          <phase>S</phase>
          <azimuth>359.0</azimuth>
          <distance>0.00069427627976926</distance>
          <takeoffAngle>
            <value>-1.0</value>
          </takeoffAngle>
          <timeResidual>-0.1373</timeResidual>
          <timeWeight>2.2309</timeWeight>
        </arrival>
        <arrival publicID="smi:local/4193032e-a43d-463f-847d-50b6fc8f812a">
          <pickID>smi:local/5585a4b1-0c61-42b3-a710-5553efb59d46</pickID>
          <phase>P</phase>
          <azimuth>359.0</azimuth>
          <distance>0.0008021948724795077</distance>
          <takeoffAngle>
            <value>-1.0</value>
          </takeoffAngle>
          <timeResidual>-0.1456</timeResidual>
          <timeWeight>0.9811</timeWeight>
        </arrival>
        <arrival publicID="smi:local/1caf7491-fce9-4d51-8ed8-e03dc1325f1d">
          <pickID>smi:local/ba30de92-c500-4cc9-8c3e-15cd350df733</pickID>
          <phase>S</phase>
          <azimuth>359.0</azimuth>
          <distance>0.0008021948724795077</distance>
          <takeoffAngle>
            <value>-1.0</value>
          </takeoffAngle>
          <timeResidual>-0.1156</timeResidual>
          <timeWeight>0.6342</timeWeight>
        </arrival>
        <arrival publicID="smi:local/39c780b9-ad51-4d87-b1d2-2465be50c12d">
          <pickID>smi:local/4f3477c3-70e2-4558-998f-2feb1ed7c0b1</pickID>
          <phase>P</phase>
          <azimuth>359.0</azimuth>
          <distance>0.000817483339780126</distance>
          <takeoffAngle>
            <value>-1.0</value>
          </takeoffAngle>
          <timeResidual>-0.1377</timeResidual>
          <timeWeight>2.2309</timeWeight>
        </arrival>
        <arrival publicID="smi:local/a290dae8-1309-4cc1-a1eb-9739f5971926">
          <pickID>smi:local/845f307f-22f2-4ae5-b5af-c00815e33845</pickID>
          <phase>S</phase>
          <azimuth>359.0</azimuth>
          <distance>0.000817483339780126</distance>
          <takeoffAngle>
            <value>-1.0</value>
          </takeoffAngle>
          <timeResidual>-0.121</timeResidual>
          <timeWeight>0.7814</timeWeight>
        </arrival>
        <arrival publicID="smi:local/130b7d79-e0a1-4b3d-9135-3a24bfdf55a9">
          <pickID>smi:local/831a6a1b-f503-4da6-893b-a02e774285ee</pickID>
          <phase>P</phase>
          <azimuth>359.0</azimuth>
          <distance>0.0010719913542551268</distance>
          <takeoffAngle>
            <value>-1.0</value>
          </takeoffAngle>
          <timeResidual>0.8495</timeResidual>
          <timeWeight>1.9218</timeWeight>
        </arrival>
        <arrival publicID="smi:local/6f1f75bc-b012-462c-ac31-e735a2d7401e">
          <pickID>smi:local/c2cea0ae-7007-4745-a7bd-f770b3a4fd65</pickID>
          <phase>S</phase>
          <azimuth>359.0</azimuth>
          <distance>0.0010719913542551268</distance>
          <takeoffAngle>
            <value>-1.0</value>
          </takeoffAngle>
          <timeResidual>0.8849</timeResidual>
          <timeWeight>0.5731</timeWeight>
        </arrival>
        <arrival publicID="smi:local/d06c7d59-1992-4634-af35-24d477c71d09">
          <pickID>smi:local/5950ee8d-ff49-4237-ad0a-3804254eca94</pickID>
          <phase>P</phase>
          <azimuth>359.0</azimuth>
          <distance>0.0012779360020105162</distance>
          <takeoffAngle>
            <value>-1.0</value>
          </takeoffAngle>
          <timeResidual>-0.109</timeResidual>
          <timeWeight>2.9793</timeWeight>
        </arrival>
        <arrival publicID="smi:local/4f051fc3-e8fe-41fa-a2f0-56f0a7597f6d">
          <pickID>smi:local/8b26d43e-f773-499f-a6ed-2c564a331907</pickID>
          <phase>S</phase>
          <azimuth>359.0</azimuth>
          <distance>0.0012779360020105162</distance>
          <takeoffAngle>
            <value>-1.0</value>
          </takeoffAngle>
          <timeResidual>-0.098</timeResidual>
          <timeWeight>1.6605</timeWeight>
        </arrival>
        <arrival publicID="smi:local/30112da9-9f8f-4cdb-8059-1e76e7287f1b">
          <pickID>smi:local/55723fd5-a736-442e-8767-016e6d29e530</pickID>
          <phase>S</phase>
          <azimuth>359.0</azimuth>
          <distance>0.0012833319316460285</distance>
          <takeoffAngle>
            <value>-1.0</value>
          </takeoffAngle>
          <timeResidual>-0.1408</timeResidual>
          <timeWeight>0.9811</timeWeight>
        </arrival>
        <arrival publicID="smi:local/3e5f367b-f0f7-4eca-8b32-9db3c5b71283">
          <pickID>smi:local/6a5f90b2-57e2-4191-8898-0cb57caf88fd</pickID>
          <phase>P</phase>
          <azimuth>359.0</azimuth>
          <distance>0.001401143062021382</distance>
          <takeoffAngle>
            <value>-1.0</value>
          </takeoffAngle>
          <timeResidual>-0.1317</timeResidual>
          <timeWeight>0.3999</timeWeight>
        </arrival>
        <arrival publicID="smi:local/55409156-6ca0-423a-8d81-8faa063b6c36">
          <pickID>smi:local/dd4c6d70-3be8-41d7-8fc5-747b8b606a31</pickID>
          <phase>S</phase>
          <azimuth>359.0</azimuth>
          <distance>0.001401143062021382</distance>
          <takeoffAngle>
            <value>-1.0</value>
          </takeoffAngle>
          <timeResidual>-0.1129</timeResidual>
          <timeWeight>0.2338</timeWeight>
        </arrival>
        <arrival publicID="smi:local/3de90c47-22b5-4e07-b998-a56563717ea2">
          <pickID>smi:local/ad09ae28-63fd-4989-92ba-cfb8f4f4722a</pickID>
          <phase>P</phase>
          <azimuth>359.0</azimuth>
          <distance>0.001415532207716082</distance>
          <takeoffAngle>
            <value>-1.0</value>
          </takeoffAngle>
          <timeResidual>-0.139</timeResidual>
          <timeWeight>1.0843</timeWeight>
        </arrival>
        <arrival publicID="smi:local/063e0458-5692-4713-85a7-981f22d9b18e">
          <pickID>smi:local/e808c5c9-6ff6-4443-9d55-3c3d07bfa078</pickID>
          <phase>S</phase>
          <azimuth>359.0</azimuth>
          <distance>0.001415532207716082</distance>
          <takeoffAngle>
            <value>-1.0</value>
          </takeoffAngle>
          <timeResidual>-0.1827</timeResidual>
          <timeWeight>0.3999</timeWeight>
        </arrival>
        <arrival publicID="smi:local/f7554d6b-bdb0-4bb1-830f-446c2405fc85">
          <pickID>smi:local/81424480-03e3-4817-878c-b2ff79b1499a</pickID>
          <phase>S</phase>
          <azimuth>359.0</azimuth>
          <distance>0.0026386095917655555</distance>
          <takeoffAngle>
            <value>-1.0</value>
          </takeoffAngle>
          <timeResidual>-0.1461</timeResidual>
          <timeWeight>0.3293</timeWeight>
        </arrival>
        <arrival publicID="smi:local/a28d87a4-4272-4548-82d1-58486eff9051">
          <pickID>smi:local/d0cc7f9d-0f3b-4517-80ed-d50eba368340</pickID>
          <phase>S</phase>
          <azimuth>359.0</azimuth>
          <distance>0.002646703486218824</distance>
          <takeoffAngle>
            <value>-1.0</value>
          </takeoffAngle>
          <timeResidual>-0.1894</timeResidual>
          <timeWeight>0.3293</timeWeight>
        </arrival>
        <arrival publicID="smi:local/ad83ece0-e695-42d1-9d38-cf91381452f8">
          <pickID>smi:local/96c746b3-1a8a-4d08-b78f-d69c10b3f595</pickID>
          <phase>S</phase>
          <azimuth>359.0</azimuth>
          <distance>0.0038805727295393223</distance>
          <takeoffAngle>
            <value>-1.0</value>
          </takeoffAngle>
          <timeResidual>-0.1549</timeResidual>
          <timeWeight>0.3293</timeWeight>
        </arrival>
        <arrival publicID="smi:local/d022b7c9-34a2-468c-9013-3ecc8bbee20c">
          <pickID>smi:local/4ff7085b-d508-496f-9bad-03827641249e</pickID>
          <phase>S</phase>
          <azimuth>359.0</azimuth>
          <distance>0.003888666623992591</distance>
          <takeoffAngle>
            <value>-1.0</value>
          </takeoffAngle>
          <timeResidual>-0.145</timeResidual>
          <timeWeight>0.3999</timeWeight>
        </arrival>
      </origin>
      <pick publicID="smi:local/4f3477c3-70e2-4558-998f-2feb1ed7c0b1">
        <time>
          <value>2020-03-10T05:47:42.292500Z</value>
          <uncertainty>0.0103</uncertainty>
        </time>
        <waveformID networkCode="XX" stationCode="C0404" channelCode="DPN"></waveformID>
        <phaseHint>P</phaseHint>
      </pick>
      <pick publicID="smi:local/845f307f-22f2-4ae5-b5af-c00815e33845">
        <time>
          <value>2020-03-10T05:47:42.442700Z</value>
          <uncertainty>0.0221</uncertainty>
        </time>
        <waveformID networkCode="XX" stationCode="C0404" channelCode="DPZ"></waveformID>
        <phaseHint>S</phaseHint>
      </pick>
      <pick publicID="smi:local/831a6a1b-f503-4da6-893b-a02e774285ee">
        <time>
          <value>2020-03-10T05:47:43.292900Z</value>
          <uncertainty>0.0118</uncertainty>
        </time>
        <waveformID networkCode="XX" stationCode="C0407" channelCode="DPN"></waveformID>
        <phaseHint>P</phaseHint>
      </pick>
      <pick publicID="smi:local/c2cea0ae-7007-4745-a7bd-f770b3a4fd65">
        <time>
          <value>2020-03-10T05:47:43.487400Z</value>
          <uncertainty>0.0265</uncertainty>
        </time>
        <waveformID networkCode="XX" stationCode="C0407" channelCode="DPZ"></waveformID>
        <phaseHint>S</phaseHint>
      </pick>
      <pick publicID="smi:local/55723fd5-a736-442e-8767-016e6d29e530">
        <time>
          <value>2020-03-10T05:47:42.495800Z</value>
          <uncertainty>0.0192</uncertainty>
        </time>
        <waveformID networkCode="XX" stationCode="C0209" channelCode="DPE"></waveformID>
        <phaseHint>S</phaseHint>
      </pick>
      <pick publicID="smi:local/ad09ae28-63fd-4989-92ba-cfb8f4f4722a">
        <time>
          <value>2020-03-10T05:47:42.323200Z</value>
          <uncertainty>0.018</uncertainty>
        </time>
        <waveformID networkCode="XX" stationCode="F0304" channelCode="DPZ"></waveformID>
        <phaseHint>P</phaseHint>
      </pick>
      <pick publicID="smi:local/e808c5c9-6ff6-4443-9d55-3c3d07bfa078">
        <time>
          <value>2020-03-10T05:47:42.474400Z</value>
          <uncertainty>0.0324</uncertainty>
        </time>
        <waveformID networkCode="XX" stationCode="F0304" channelCode="DPE"></waveformID>
        <phaseHint>S</phaseHint>
      </pick>
      <pick publicID="smi:local/4e9c834d-3a15-45f9-9487-983ea44f7442">
        <time>
          <value>2020-03-10T05:47:42.410300Z</value>
          <uncertainty>0.0103</uncertainty>
        </time>
        <waveformID networkCode="XX" stationCode="C0202" channelCode="DPN"></waveformID>
        <phaseHint>S</phaseHint>
      </pick>
      <pick publicID="smi:local/81424480-03e3-4817-878c-b2ff79b1499a">
        <time>
          <value>2020-03-10T05:47:42.679700Z</value>
          <uncertainty>0.036</uncertainty>
        </time>
        <waveformID networkCode="XX" stationCode="F0607" channelCode="DPE"></waveformID>
        <phaseHint>S</phaseHint>
      </pick>
      <pick publicID="smi:local/4ff7085b-d508-496f-9bad-03827641249e">
        <time>
          <value>2020-03-10T05:47:42.791300Z</value>
          <uncertainty>0.0324</uncertainty>
        </time>
        <waveformID networkCode="XX" stationCode="F0208" channelCode="DPZ"></waveformID>
        <phaseHint>S</phaseHint>
      </pick>
      <pick publicID="smi:local/d0cc7f9d-0f3b-4517-80ed-d50eba368340">
        <time>
          <value>2020-03-10T05:47:42.636500Z</value>
          <uncertainty>0.036</uncertainty>
        </time>
        <waveformID networkCode="XX" stationCode="F0307" channelCode="DPN"></waveformID>
        <phaseHint>S</phaseHint>
      </pick>
      <pick publicID="smi:local/5950ee8d-ff49-4237-ad0a-3804254eca94">
        <time>
          <value>2020-03-10T05:47:42.345500Z</value>
          <uncertainty>0.00737</uncertainty>
        </time>
        <waveformID networkCode="XX" stationCode="C0909" channelCode="DPZ"></waveformID>
        <phaseHint>P</phaseHint>
      </pick>
      <pick publicID="smi:local/8b26d43e-f773-499f-a6ed-2c564a331907">
        <time>
          <value>2020-03-10T05:47:42.537000Z</value>
          <uncertainty>0.0133</uncertainty>
        </time>
        <waveformID networkCode="XX" stationCode="C0909" channelCode="DPN"></waveformID>
        <phaseHint>S</phaseHint>
      </pick>
      <pick publicID="smi:local/f7ac1291-25fb-48e4-b731-284f72f7435f">
        <time>
          <value>2020-03-10T05:47:42.416200Z</value>
          <uncertainty>0.028</uncertainty>
        </time>
        <waveformID networkCode="XX" stationCode="C0902" channelCode="DPZ"></waveformID>
        <phaseHint>S</phaseHint>
      </pick>
      <pick publicID="smi:local/6a5f90b2-57e2-4191-8898-0cb57caf88fd">
        <time>
          <value>2020-03-10T05:47:42.330400Z</value>
          <uncertainty>0.0324</uncertainty>
        </time>
        <waveformID networkCode="XX" stationCode="F0604" channelCode="DPZ"></waveformID>
        <phaseHint>P</phaseHint>
      </pick>
      <pick publicID="smi:local/dd4c6d70-3be8-41d7-8fc5-747b8b606a31">
        <time>
          <value>2020-03-10T05:47:42.542800Z</value>
          <uncertainty>0.0432</uncertainty>
        </time>
        <waveformID networkCode="XX" stationCode="F0604" channelCode="DPE"></waveformID>
        <phaseHint>S</phaseHint>
      </pick>
      <pick publicID="smi:local/5585a4b1-0c61-42b3-a710-5553efb59d46">
        <time>
          <value>2020-03-10T05:47:42.283600Z</value>
          <uncertainty>0.0192</uncertainty>
        </time>
        <waveformID networkCode="XX" stationCode="C0704" channelCode="DPZ"></waveformID>
        <phaseHint>P</phaseHint>
      </pick>
      <pick publicID="smi:local/ba30de92-c500-4cc9-8c3e-15cd350df733">
        <time>
          <value>2020-03-10T05:47:42.445700Z</value>
          <uncertainty>0.025</uncertainty>
        </time>
        <waveformID networkCode="XX" stationCode="C0704" channelCode="DPZ"></waveformID>
        <phaseHint>S</phaseHint>
      </pick>
      <pick publicID="smi:local/96c746b3-1a8a-4d08-b78f-d69c10b3f595">
        <time>
          <value>2020-03-10T05:47:42.780500Z</value>
          <uncertainty>0.036</uncertainty>
        </time>
        <waveformID networkCode="XX" stationCode="F0708" channelCode="DPZ"></waveformID>
        <phaseHint>S</phaseHint>
      </pick>
    </event>
  </eventParameters>
</q:quakeml>
