<?xml version='1.0' encoding='utf-8'?>
<q:quakeml xmlns="http://quakeml.org/xmlns/bed/1.2" xmlns:q="http://quakeml.org/xmlns/quakeml/1.2">
  <eventParameters publicID="smi:local/5e1c5f03-4ae0-40ff-a851-d75504fd2508">
    <event publicID="smi:local/83429358-2c5c-4135-8792-d06fcd07afcb">
      <preferredOriginID>smi:local/2704d1ea-93f5-48d4-81f3-8d6e3252b136</preferredOriginID>
      <comment>
        <text>CaMI.FRS microseismicity</text>
      </comment>
      <comment id="smi:local/bf4eccec-61d3-4957-a02a-84cf3fa46693">
        <text>eqcorrscan_template_2020_02_18t01_54_25</text>
      </comment>
      <creationInfo>
        <author>Genevieve Savard   obs:./obs_picked5/merged.obs   NLLoc:v7.00.00(27Oct2017)</author>
        <creationTime>2020-09-18T19:51:08.000000Z</creationTime>
      </creationInfo>
      <origin publicID="smi:local/2704d1ea-93f5-48d4-81f3-8d6e3252b136">
        <time>
          <value>2020-02-18T01:54:25.520358Z</value>
        </time>
        <latitude>
          <value>50.44646</value>
          <uncertainty>0.0011115957018939515</uncertainty>
        </latitude>
        <longitude>
          <value>-112.121185</value>
          <uncertainty>0.0005441148411879086</uncertainty>
        </longitude>
        <depth>
          <value>0.391</value>
          <uncertainty>40.66964469970201</uncertainty>
          <confidenceLevel>68.0</confidenceLevel>
        </depth>
        <depthType>from location</depthType>
        <quality>
          <associatedPhaseCount>22</associatedPhaseCount>
          <usedPhaseCount>22</usedPhaseCount>
          <associatedStationCount>-1</associatedStationCount>
          <usedStationCount>21</usedStationCount>
          <depthPhaseCount>-1</depthPhaseCount>
          <standardError>0.0437568</standardError>
          <azimuthalGap>279.02</azimuthalGap>
          <secondaryAzimuthalGap>301.99</secondaryAzimuthalGap>
          <groundTruthLevel>-</groundTruthLevel>
          <minimumDistance>0.0025275793462988293</minimumDistance>
          <maximumDistance>0.008791714060165155</maximumDistance>
          <medianDistance>0.0038522440989528822</medianDistance>
        </quality>
        <comment>
          <text>Note: Depth/Latitude/Longitude errors are calculated from covariance matrix as 1D marginal (Lon/Lat errors as great circle degrees) while OriginUncertainty min/max horizontal errors are calculated from 2D error ellipsoid and are therefore seemingly higher compared to 1D errors. Error estimates can be reconstructed from the following original NonLinLoc error statistics line:
STATISTICS ExpectX -0.0554022 Y -0.548337 Z 0.0280407  CovXX 0.00366059 XY -0.00120246 XZ 0.000420128 YY 0.0152779 YZ -0.00468389 ZZ 0.00165402 EllAz1  177.438 Dip1  -72.786 Len1  0.02647 Az2  264.511 Dip2  0.906147 Len2  0.111761 Len3  2.439272e-01</text>
        </comment>
        <creationInfo>
          <author>Genevieve Savard   obs:./obs_picked5/merged.obs   NLLoc:v7.00.00(27Oct2017)</author>
          <creationTime>2020-09-18T19:51:08.000000Z</creationTime>
        </creationInfo>
        <originUncertainty>
          <preferredDescription>uncertainty ellipse</preferredDescription>
          <minHorizontalUncertainty>90.2004</minHorizontalUncertainty>
          <maxHorizontalUncertainty>188.20899999999997</maxHorizontalUncertainty>
          <azimuthMaxHorizontalUncertainty>174.152</azimuthMaxHorizontalUncertainty>
          <confidenceLevel>68.0</confidenceLevel>
        </originUncertainty>
        <arrival publicID="smi:local/1d4bd613-9261-4796-a207-e06408a0f935">
          <pickID>smi:local/c777c830-1277-42c8-a7f7-a3f15699d400</pickID>
          <phase>S</phase>
          <azimuth>359.0</azimuth>
          <distance>0.0025279930342375517</distance>
          <takeoffAngle>
            <value>-1.0</value>
          </takeoffAngle>
          <timeResidual>-0.0321</timeResidual>
          <timeWeight>0.3478</timeWeight>
        </arrival>
        <arrival publicID="smi:local/3c477c82-c642-405a-adfe-6e10bcc33101">
          <pickID>smi:local/5cf10ff7-c4e3-4c9e-8359-51e06f95be62</pickID>
          <phase>P</phase>
          <azimuth>359.0</azimuth>
          <distance>0.0027780044406829586</distance>
          <takeoffAngle>
            <value>-1.0</value>
          </takeoffAngle>
          <timeResidual>-0.0372</timeResidual>
          <timeWeight>3.1429</timeWeight>
        </arrival>
        <arrival publicID="smi:local/9f1cf9a7-9235-43d5-b5f1-406c1152890f">
          <pickID>smi:local/f62c61f3-62cd-4038-b80d-500574bf9e44</pickID>
          <phase>S</phase>
          <azimuth>359.0</azimuth>
          <distance>0.0027780044406829586</distance>
          <takeoffAngle>
            <value>-1.0</value>
          </takeoffAngle>
          <timeResidual>-0.0485</timeResidual>
          <timeWeight>0.3478</timeWeight>
        </arrival>
        <arrival publicID="smi:local/5fa4a9fd-df13-4f04-883b-0aeb366e6866">
          <pickID>smi:local/262da06e-056b-4fdb-966d-b1f80f4ab712</pickID>
          <phase>S</phase>
          <azimuth>359.0</azimuth>
          <distance>0.0031206459725379946</distance>
          <takeoffAngle>
            <value>-1.0</value>
          </takeoffAngle>
          <timeResidual>-0.199</timeResidual>
          <timeWeight>0.2351</timeWeight>
        </arrival>
        <arrival publicID="smi:local/b9963698-85a4-4f73-8416-8c9d033f4bd6">
          <pickID>smi:local/907ce8e3-533d-4380-8760-c7359219dc6e</pickID>
          <phase>P</phase>
          <azimuth>359.0</azimuth>
          <distance>0.003851794438149923</distance>
          <takeoffAngle>
            <value>-1.0</value>
          </takeoffAngle>
          <timeResidual>-0.0441</timeResidual>
          <timeWeight>0.686</timeWeight>
        </arrival>
        <arrival publicID="smi:local/35a3a17e-c38a-4e8b-9a9b-37ed7d2974a1">
          <pickID>smi:local/f5426e9b-aac7-4a73-a674-db846b81e2b9</pickID>
          <phase>P</phase>
          <azimuth>359.0</azimuth>
          <distance>0.003851794438149923</distance>
          <takeoffAngle>
            <value>-1.0</value>
          </takeoffAngle>
          <timeResidual>-0.0124</timeResidual>
          <timeWeight>2.5398</timeWeight>
        </arrival>
        <arrival publicID="smi:local/5d1a1795-8567-44f0-b0ca-674e69b7b884">
          <pickID>smi:local/c9e72ee7-b883-4067-afbb-eddf29e7c2fb</pickID>
          <phase>P</phase>
          <azimuth>359.0</azimuth>
          <distance>0.003851794438149923</distance>
          <takeoffAngle>
            <value>-1.0</value>
          </takeoffAngle>
          <timeResidual>0.021</timeResidual>
          <timeWeight>1.4804</timeWeight>
        </arrival>
        <arrival publicID="smi:local/b5c1e689-f564-43f6-a9dc-c7921cc6b4e1">
          <pickID>smi:local/71104315-5729-4e06-b100-1bdf2dd58677</pickID>
          <phase>S</phase>
          <azimuth>359.0</azimuth>
          <distance>0.003851794438149923</distance>
          <takeoffAngle>
            <value>-1.0</value>
          </takeoffAngle>
          <timeResidual>-0.0033</timeResidual>
          <timeWeight>0.7953</timeWeight>
        </arrival>
        <arrival publicID="smi:local/e0dd3454-2a47-42b3-b681-c1d297aadaf1">
          <pickID>smi:local/34f66e10-ded3-42ca-8488-b86962502bab</pickID>
          <phase>S</phase>
          <azimuth>359.0</azimuth>
          <distance>0.003851794438149923</distance>
          <takeoffAngle>
            <value>-1.0</value>
          </takeoffAngle>
          <timeResidual>0.0136</timeResidual>
          <timeWeight>3.8548</timeWeight>
        </arrival>
        <arrival publicID="smi:local/c07a2c70-ce42-4180-bb92-2bcb2a669517">
          <pickID>smi:local/010c2ff9-efb1-4ed5-a9aa-462029b8847b</pickID>
          <phase>S</phase>
          <azimuth>359.0</azimuth>
          <distance>0.003851794438149923</distance>
          <takeoffAngle>
            <value>-1.0</value>
          </takeoffAngle>
          <timeResidual>0.0064</timeResidual>
          <timeWeight>0.6717</timeWeight>
        </arrival>
        <arrival publicID="smi:local/0b2a32fa-681b-422f-b023-459f2be1f923">
          <pickID>smi:local/f2a8d361-1f81-4c6b-9c2f-5ba9f205a4a5</pickID>
          <phase>S</phase>
          <azimuth>359.0</azimuth>
          <distance>0.003851794438149923</distance>
          <takeoffAngle>
            <value>-1.0</value>
          </takeoffAngle>
          <timeResidual>-0.0008</timeResidual>
          <timeWeight>0.9433</timeWeight>
        </arrival>
        <arrival publicID="smi:local/7a5c391f-76be-4ca7-b015-f7d3d93a5cfd">
          <pickID>smi:local/cdad9186-9400-4d13-89b5-8838d324a128</pickID>
          <phase>S</phase>
          <azimuth>359.0</azimuth>
          <distance>0.003851794438149923</distance>
          <takeoffAngle>
            <value>-1.0</value>
          </takeoffAngle>
          <timeResidual>0.0183</timeResidual>
          <timeWeight>0.7357</timeWeight>
        </arrival>
        <arrival publicID="smi:local/3210ddb7-7de4-4cfa-95cc-a9c75edad6f4">
          <pickID>smi:local/4d13f251-4bea-424c-b917-3bf4e23a69f4</pickID>
          <phase>S</phase>
          <azimuth>359.0</azimuth>
          <distance>0.003851794438149923</distance>
          <takeoffAngle>
            <value>-1.0</value>
          </takeoffAngle>
          <timeResidual>0.0135</timeResidual>
          <timeWeight>0.7776</timeWeight>
        </arrival>
        <arrival publicID="smi:local/66974f5a-3269-4886-8440-8054e179bb56">
          <pickID>smi:local/486726cb-46b4-4817-bdfc-f85f023eda71</pickID>
          <phase>S</phase>
          <azimuth>359.0</azimuth>
          <distance>0.003851794438149923</distance>
          <takeoffAngle>
            <value>-1.0</value>
          </takeoffAngle>
          <timeResidual>0.0112</timeResidual>
          <timeWeight>0.8472</timeWeight>
        </arrival>
        <arrival publicID="smi:local/e1d89689-dc02-44d8-a054-0f538cd0d06c">
          <pickID>smi:local/8e5008cb-a15d-4657-b11c-8c4afa1c6f1b</pickID>
          <phase>S</phase>
          <azimuth>359.0</azimuth>
          <distance>0.003851794438149923</distance>
          <takeoffAngle>
            <value>-1.0</value>
          </takeoffAngle>
          <timeResidual>0.0255</timeResidual>
          <timeWeight>0.3731</timeWeight>
        </arrival>
        <arrival publicID="smi:local/31a605bd-7a03-4f42-ae9b-5c312739377c">
          <pickID>smi:local/5ef28ca0-6b46-4610-8713-ec39b016d5a1</pickID>
          <phase>S</phase>
          <azimuth>359.0</azimuth>
          <distance>0.003851794438149923</distance>
          <takeoffAngle>
            <value>-1.0</value>
          </takeoffAngle>
          <timeResidual>0.0331</timeResidual>
          <timeWeight>0.6033</timeWeight>
        </arrival>
        <arrival publicID="smi:local/e7002f75-49ac-492b-a002-17c62a316a62">
          <pickID>smi:local/4a76443a-8930-49ce-83cc-86fe19574cc7</pickID>
          <phase>S</phase>
          <azimuth>359.0</azimuth>
          <distance>0.003851794438149923</distance>
          <takeoffAngle>
            <value>-1.0</value>
          </takeoffAngle>
          <timeResidual>0.0337</timeResidual>
          <timeWeight>0.8988</timeWeight>
        </arrival>
        <arrival publicID="smi:local/0f0e1dab-1bce-4a5c-98a6-434d690f51f3">
          <pickID>smi:local/a98bdebb-0530-41bd-bd98-e15c05194804</pickID>
          <phase>S</phase>
          <azimuth>359.0</azimuth>
          <distance>0.003851794438149923</distance>
          <takeoffAngle>
            <value>-1.0</value>
          </takeoffAngle>
          <timeResidual>0.0827</timeResidual>
          <timeWeight>1.3281</timeWeight>
        </arrival>
        <arrival publicID="smi:local/88d815d9-f06a-473e-b5b7-921f17013183">
          <pickID>smi:local/9a9ed4d8-d394-4e73-9336-b76997fbf3b4</pickID>
          <phase>S</phase>
          <azimuth>359.0</azimuth>
          <distance>0.003851794438149923</distance>
          <takeoffAngle>
            <value>-1.0</value>
          </takeoffAngle>
          <timeResidual>0.0928</timeResidual>
          <timeWeight>0.3478</timeWeight>
        </arrival>
        <arrival publicID="smi:local/6339b3c4-c6e6-4658-80a8-cd9144125346">
          <pickID>smi:local/2d69a588-b2ac-40ff-8d80-90f050cee53c</pickID>
          <phase>S</phase>
          <azimuth>359.0</azimuth>
          <distance>0.005571297348666536</distance>
          <takeoffAngle>
            <value>-1.0</value>
          </takeoffAngle>
          <timeResidual>-0.1341</timeResidual>
          <timeWeight>0.3478</timeWeight>
        </arrival>
        <arrival publicID="smi:local/3b201d34-9af3-4129-b096-6d4f334ea5a3">
          <pickID>smi:local/f06454b3-5181-40e8-95cd-f561f0b5950b</pickID>
          <phase>S</phase>
          <azimuth>359.0</azimuth>
          <distance>0.006727824933878023</distance>
          <takeoffAngle>
            <value>-1.0</value>
          </takeoffAngle>
          <timeResidual>-0.0924</timeResidual>
          <timeWeight>0.3478</timeWeight>
        </arrival>
        <arrival publicID="smi:local/5412c6ec-a50b-4152-82a4-566ca31ab62f">
          <pickID>smi:local/9c23b20e-c755-476d-a7d4-9f05a0bc9378</pickID>
          <phase>S</phase>
          <azimuth>359.0</azimuth>
          <distance>0.00879176801946151</distance>
          <takeoffAngle>
            <value>-1.0</value>
          </takeoffAngle>
          <timeResidual>0.0361</timeResidual>
          <timeWeight>0.3478</timeWeight>
        </arrival>
      </origin>
      <pick publicID="smi:local/c777c830-1277-42c8-a7f7-a3f15699d400">
        <time>
          <value>2020-02-18T01:54:25.996400Z</value>
          <uncertainty>0.05</uncertainty>
        </time>
        <waveformID networkCode="XX" stationCode="F0203" channelCode="DPE"></waveformID>
        <phaseHint>S</phaseHint>
      </pick>
      <pick publicID="smi:local/f06454b3-5181-40e8-95cd-f561f0b5950b">
        <time>
          <value>2020-02-18T01:54:26.388400Z</value>
          <uncertainty>0.05</uncertainty>
        </time>
        <waveformID networkCode="XX" stationCode="F0708" channelCode="DPE"></waveformID>
        <phaseHint>S</phaseHint>
      </pick>
      <pick publicID="smi:local/262da06e-056b-4fdb-966d-b1f80f4ab712">
        <time>
          <value>2020-02-18T01:54:25.937700Z</value>
          <uncertainty>0.0612</uncertainty>
        </time>
        <waveformID networkCode="XX" stationCode="F0604" channelCode="DPE"></waveformID>
        <phaseHint>S</phaseHint>
      </pick>
      <pick publicID="smi:local/71104315-5729-4e06-b100-1bdf2dd58677">
        <time>
          <value>2020-02-18T01:54:26.052300Z</value>
          <uncertainty>0.0322</uncertainty>
        </time>
        <waveformID networkCode="XX" stationCode="G8" channelCode="DPN"></waveformID>
        <phaseHint>S</phaseHint>
      </pick>
      <pick publicID="smi:local/2d69a588-b2ac-40ff-8d80-90f050cee53c">
        <time>
          <value>2020-02-18T01:54:26.244400Z</value>
          <uncertainty>0.05</uncertainty>
        </time>
        <waveformID networkCode="XX" stationCode="F0607" channelCode="DPE"></waveformID>
        <phaseHint>S</phaseHint>
      </pick>
      <pick publicID="smi:local/5ef28ca0-6b46-4610-8713-ec39b016d5a1">
        <time>
          <value>2020-02-18T01:54:26.094800Z</value>
          <uncertainty>0.0374</uncertainty>
        </time>
        <waveformID networkCode="XX" stationCode="G12" channelCode="DPN"></waveformID>
        <phaseHint>S</phaseHint>
      </pick>
      <pick publicID="smi:local/4a76443a-8930-49ce-83cc-86fe19574cc7">
        <time>
          <value>2020-02-18T01:54:26.099000Z</value>
          <uncertainty>0.0301</uncertainty>
        </time>
        <waveformID networkCode="XX" stationCode="G14" channelCode="DPN"></waveformID>
        <phaseHint>S</phaseHint>
      </pick>
      <pick publicID="smi:local/9a9ed4d8-d394-4e73-9336-b76997fbf3b4">
        <time>
          <value>2020-02-18T01:54:26.148400Z</value>
          <uncertainty>0.05</uncertainty>
        </time>
        <waveformID networkCode="XX" stationCode="G5" channelCode="DPN"></waveformID>
        <phaseHint>S</phaseHint>
      </pick>
      <pick publicID="smi:local/907ce8e3-533d-4380-8760-c7359219dc6e">
        <time>
          <value>2020-02-18T01:54:25.700000Z</value>
          <uncertainty>0.0349</uncertainty>
        </time>
        <waveformID networkCode="XX" stationCode="G1" channelCode="DPE"></waveformID>
        <phaseHint>P</phaseHint>
      </pick>
      <pick publicID="smi:local/34f66e10-ded3-42ca-8488-b86962502bab">
        <time>
          <value>2020-02-18T01:54:26.060800Z</value>
          <uncertainty>0.0116</uncertainty>
        </time>
        <waveformID networkCode="XX" stationCode="G1" channelCode="DPN"></waveformID>
        <phaseHint>S</phaseHint>
      </pick>
      <pick publicID="smi:local/9c23b20e-c755-476d-a7d4-9f05a0bc9378">
        <time>
          <value>2020-02-18T01:54:26.700400Z</value>
          <uncertainty>0.05</uncertainty>
        </time>
        <waveformID networkCode="XX" stationCode="F0010" channelCode="DPZ"></waveformID>
        <phaseHint>S</phaseHint>
      </pick>
      <pick publicID="smi:local/c9e72ee7-b883-4067-afbb-eddf29e7c2fb">
        <time>
          <value>2020-02-18T01:54:25.772000Z</value>
          <uncertainty>0.0226</uncertainty>
        </time>
        <waveformID networkCode="XX" stationCode="G15" channelCode="DPE"></waveformID>
        <phaseHint>P</phaseHint>
      </pick>
      <pick publicID="smi:local/f2a8d361-1f81-4c6b-9c2f-5ba9f205a4a5">
        <time>
          <value>2020-02-18T01:54:26.066300Z</value>
          <uncertainty>0.0293</uncertainty>
        </time>
        <waveformID networkCode="XX" stationCode="G15" channelCode="DPN"></waveformID>
        <phaseHint>S</phaseHint>
      </pick>
      <pick publicID="smi:local/486726cb-46b4-4817-bdfc-f85f023eda71">
        <time>
          <value>2020-02-18T01:54:26.085100Z</value>
          <uncertainty>0.0311</uncertainty>
        </time>
        <waveformID networkCode="XX" stationCode="G18" channelCode="DPN"></waveformID>
        <phaseHint>S</phaseHint>
      </pick>
      <pick publicID="smi:local/f5426e9b-aac7-4a73-a674-db846b81e2b9">
        <time>
          <value>2020-02-18T01:54:25.740200Z</value>
          <uncertainty>0.016</uncertainty>
        </time>
        <waveformID networkCode="XX" stationCode="G17" channelCode="DPE"></waveformID>
        <phaseHint>P</phaseHint>
      </pick>
      <pick publicID="smi:local/4d13f251-4bea-424c-b917-3bf4e23a69f4">
        <time>
          <value>2020-02-18T01:54:26.084700Z</value>
          <uncertainty>0.0326</uncertainty>
        </time>
        <waveformID networkCode="XX" stationCode="G17" channelCode="DPN"></waveformID>
        <phaseHint>S</phaseHint>
      </pick>
      <pick publicID="smi:local/cdad9186-9400-4d13-89b5-8838d324a128">
        <time>
          <value>2020-02-18T01:54:26.067400Z</value>
          <uncertainty>0.0336</uncertainty>
        </time>
        <waveformID networkCode="XX" stationCode="G2" channelCode="DPN"></waveformID>
        <phaseHint>S</phaseHint>
      </pick>
      <pick publicID="smi:local/5cf10ff7-c4e3-4c9e-8359-51e06f95be62">
        <time>
          <value>2020-02-18T01:54:25.687200Z</value>
          <uncertainty>0.0137</uncertainty>
        </time>
        <waveformID networkCode="XX" stationCode="F0304" channelCode="DPZ"></waveformID>
        <phaseHint>P</phaseHint>
      </pick>
      <pick publicID="smi:local/f62c61f3-62cd-4038-b80d-500574bf9e44">
        <time>
          <value>2020-02-18T01:54:26.028400Z</value>
          <uncertainty>0.05</uncertainty>
        </time>
        <waveformID networkCode="XX" stationCode="F0304" channelCode="DPN"></waveformID>
        <phaseHint>S</phaseHint>
      </pick>
      <pick publicID="smi:local/010c2ff9-efb1-4ed5-a9aa-462029b8847b">
        <time>
          <value>2020-02-18T01:54:26.064000Z</value>
