<?xml version='1.0' encoding='utf-8'?>
<q:quakeml xmlns="http://quakeml.org/xmlns/bed/1.2" xmlns:q="http://quakeml.org/xmlns/quakeml/1.2">
  <eventParameters publicID="smi:local/dfcf6b93-219c-4062-b399-955b2eba2355">
    <event publicID="smi:local/3f394775-7a8f-4481-ab57-219670d7a724">
      <preferredOriginID>smi:local/ffa134f9-8dbb-4d26-8410-ba6ed3cf15fc</preferredOriginID>
      <comment>
        <text>CaMI.FRS microseismicity</text>
      </comment>
      <comment id="smi:local/fad42300-ad09-4d42-af47-fa3c5a99cb0e">
        <text>eqcorrscan_template_2020_03_10t05_36_36</text>
      </comment>
      <creationInfo>
        <author>Genevieve Savard   obs:./obs_picked1/merged.obs   NLLoc:v7.00.00(27Oct2017)</author>
        <creationTime>2020-08-21T16:08:32.000000Z</creationTime>
      </creationInfo>
      <origin publicID="smi:local/ffa134f9-8dbb-4d26-8410-ba6ed3cf15fc">
        <time>
          <value>2020-03-10T05:36:36.054799Z</value>
        </time>
        <latitude>
          <value>50.449745</value>
          <uncertainty>0.00010033019824006649</uncertainty>
        </latitude>
        <longitude>
          <value>-112.120391</value>
          <uncertainty>9.224909458603194e-05</uncertainty>
        </longitude>
        <depth>
          <value>1.953</value>
          <uncertainty>17.729523400249654</uncertainty>
          <confidenceLevel>68.0</confidenceLevel>
        </depth>
        <depthType>from location</depthType>
        <quality>
          <associatedPhaseCount>10</associatedPhaseCount>
          <usedPhaseCount>10</usedPhaseCount>
          <associatedStationCount>-1</associatedStationCount>
          <usedStationCount>9</usedStationCount>
          <depthPhaseCount>-1</depthPhaseCount>
          <standardError>0.0637345</standardError>
          <azimuthalGap>117.119</azimuthalGap>
          <secondaryAzimuthalGap>216.286</secondaryAzimuthalGap>
          <groundTruthLevel>-</groundTruthLevel>
          <minimumDistance>0.0003855112934875763</minimumDistance>
          <maximumDistance>0.0028835218447054033</maximumDistance>
          <medianDistance>0.000999263215984479</medianDistance>
        </quality>
        <comment>
          <text>Note: Depth/Latitude/Longitude errors are calculated from covariance matrix as 1D marginal (Lon/Lat errors as great circle degrees) while OriginUncertainty min/max horizontal errors are calculated from 2D error ellipsoid and are therefore seemingly higher compared to 1D errors. Error estimates can be reconstructed from the following original NonLinLoc error statistics line:
STATISTICS ExpectX 0.0173112 Y -0.0751184 Z 0.0244314  CovXX 0.000105219 XY 3.31417e-05 XZ -4.12846e-05 YY 0.000124461 YZ 1.06919e-05 ZZ 0.000314336 EllAz1  304.859 Dip1  -9.43765 Len1  0.0161373 Az2  214.043 Dip2  -4.89612 Len2  0.0228536 Len3  3.372943e-02</text>
        </comment>
        <creationInfo>
          <author>Genevieve Savard   obs:./obs_picked1/merged.obs   NLLoc:v7.00.00(27Oct2017)</author>
          <creationTime>2020-08-21T16:08:32.000000Z</creationTime>
        </creationInfo>
        <originUncertainty>
          <preferredDescription>uncertainty ellipse</preferredDescription>
          <minHorizontalUncertainty>13.5926</minHorizontalUncertainty>
          <maxHorizontalUncertainty>18.5339</maxHorizontalUncertainty>
          <azimuthMaxHorizontalUncertainty>36.9061</azimuthMaxHorizontalUncertainty>
          <confidenceLevel>68.0</confidenceLevel>
        </originUncertainty>
        <arrival publicID="smi:local/7690dbd1-8dba-46d0-9e9c-44bd15843709">
          <pickID>smi:local/19cc056b-0aa9-4228-991e-350c25e77a74</pickID>
          <phase>P</phase>
          <azimuth>359.0</azimuth>
          <distance>0.00038580896893913543</distance>
          <takeoffAngle>
            <value>-1.0</value>
          </takeoffAngle>
          <timeResidual>-0.0423</timeResidual>
          <timeWeight>1.4772</timeWeight>
        </arrival>
        <arrival publicID="smi:local/56a00978-d85c-4b73-ba1a-f3af64c6665f">
          <pickID>smi:local/6056b073-a5c5-417b-9af6-6e802d56e4d5</pickID>
          <phase>S</phase>
          <azimuth>359.0</azimuth>
          <distance>0.0005422909283689945</distance>
          <takeoffAngle>
            <value>-1.0</value>
          </takeoffAngle>
          <timeResidual>-0.0041</timeResidual>
          <timeWeight>0.4999</timeWeight>
        </arrival>
        <arrival publicID="smi:local/c00f5864-6abf-4759-ade7-027d72795a9b">
          <pickID>smi:local/0126f03e-b229-40b2-9034-3c124b3625fe</pickID>
          <phase>S</phase>
          <azimuth>359.0</azimuth>
          <distance>0.0006133373352365742</distance>
          <takeoffAngle>
            <value>-1.0</value>
          </takeoffAngle>
          <timeResidual>0.0005</timeResidual>
          <timeWeight>3.2844</timeWeight>
        </arrival>
        <arrival publicID="smi:local/88b2bfd9-ac36-41ac-84bd-ecaa3dae3397">
          <pickID>smi:local/ed27f6b4-43f4-4d19-8fa9-9d1be1b567bc</pickID>
          <phase>P</phase>
          <azimuth>359.0</azimuth>
          <distance>0.0006367196969904612</distance>
          <takeoffAngle>
            <value>-1.0</value>
          </takeoffAngle>
          <timeResidual>-0.0139</timeResidual>
          <timeWeight>1.294</timeWeight>
        </arrival>
        <arrival publicID="smi:local/f9d68722-8b52-49f9-8aad-57e92ed6ad4b">
          <pickID>smi:local/a1f26561-29b7-4e0b-82d8-9b8d3659e4d3</pickID>
          <phase>S</phase>
          <azimuth>359.0</azimuth>
          <distance>0.0006367196969904612</distance>
          <takeoffAngle>
            <value>-1.0</value>
          </takeoffAngle>
          <timeResidual>0.0295</timeResidual>
          <timeWeight>0.9708</timeWeight>
        </arrival>
        <arrival publicID="smi:local/29364661-9ec7-43f0-baf1-8ef8936d104f">
          <pickID>smi:local/7b8764f7-5a30-4590-87d5-03816e20f9d7</pickID>
          <phase>S</phase>
          <azimuth>359.0</azimuth>
          <distance>0.0009991463041757096</distance>
          <takeoffAngle>
            <value>-1.0</value>
          </takeoffAngle>
          <timeResidual>-0.0024</timeResidual>
          <timeWeight>0.1261</timeWeight>
        </arrival>
        <arrival publicID="smi:local/e1b23699-8352-458f-9439-9a17233dfe73">
          <pickID>smi:local/6fa9b756-d508-4951-a6d9-acb5e2a29001</pickID>
          <phase>S</phase>
          <azimuth>359.0</azimuth>
          <distance>0.0011061655752800385</distance>
          <takeoffAngle>
            <value>-1.0</value>
          </takeoffAngle>
          <timeResidual>0.01</timeResidual>
          <timeWeight>0.8286</timeWeight>
        </arrival>
        <arrival publicID="smi:local/b53d8182-d990-4f0d-8faf-2e5a7addc990">
          <pickID>smi:local/6a7457dc-2364-452d-826a-2cdc14773ec6</pickID>
          <phase>S</phase>
          <azimuth>359.0</azimuth>
          <distance>0.0013435864792425835</distance>
          <takeoffAngle>
            <value>-1.0</value>
          </takeoffAngle>
          <timeResidual>-0.0053</timeResidual>
          <timeWeight>0.4744</timeWeight>
        </arrival>
        <arrival publicID="smi:local/f4d32aa2-3b9c-44bb-85db-d12f9ccd478a">
          <pickID>smi:local/cbfd2d90-cbdf-44e6-8851-7f11de81ff55</pickID>
          <phase>S</phase>
          <azimuth>359.0</azimuth>
          <distance>0.0016646442925555701</distance>
          <takeoffAngle>
            <value>-1.0</value>
          </takeoffAngle>
          <timeResidual>-0.1096</timeResidual>
          <timeWeight>0.6087</timeWeight>
        </arrival>
        <arrival publicID="smi:local/62298276-8c10-4ff6-a2da-49ccaf44859f">
          <pickID>smi:local/8652511a-12f0-40f2-86ba-bb745aee0b39</pickID>
          <phase>P</phase>
          <azimuth>359.0</azimuth>
          <distance>0.00288322506857545</distance>
          <takeoffAngle>
            <value>-1.0</value>
          </takeoffAngle>
          <timeResidual>0.26</timeResidual>
          <timeWeight>0.4359</timeWeight>
        </arrival>
      </origin>
      <pick publicID="smi:local/8652511a-12f0-40f2-86ba-bb745aee0b39">
        <time>
          <value>2020-03-10T05:36:36.523300Z</value>
          <uncertainty>0.0331</uncertainty>
        </time>
        <waveformID networkCode="XX" stationCode="F0203" channelCode="DPZ"></waveformID>
        <phaseHint>P</phaseHint>
      </pick>
      <pick publicID="smi:local/cbfd2d90-cbdf-44e6-8851-7f11de81ff55">
        <time>
          <value>2020-03-10T05:36:36.301100Z</value>
          <uncertainty>0.0275</uncertainty>
        </time>
        <waveformID networkCode="XX" stationCode="F0304" channelCode="DPE"></waveformID>
        <phaseHint>S</phaseHint>
      </pick>
      <pick publicID="smi:local/6fa9b756-d508-4951-a6d9-acb5e2a29001">
        <time>
          <value>2020-03-10T05:36:36.321600Z</value>
          <uncertainty>0.023</uncertainty>
        </time>
        <waveformID networkCode="XX" stationCode="C0209" channelCode="DPZ"></waveformID>
        <phaseHint>S</phaseHint>
      </pick>
      <pick publicID="smi:local/0126f03e-b229-40b2-9034-3c124b3625fe">
        <time>
          <value>2020-03-10T05:36:36.206000Z</value>
          <uncertainty>0.00766</uncertainty>
        </time>
        <waveformID networkCode="XX" stationCode="C0202" channelCode="DPZ"></waveformID>
        <phaseHint>S</phaseHint>
      </pick>
      <pick publicID="smi:local/7b8764f7-5a30-4590-87d5-03816e20f9d7">
        <time>
          <value>2020-03-10T05:36:36.288400Z</value>
          <uncertainty>0.0635</uncertainty>
        </time>
        <waveformID networkCode="XX" stationCode="C0909" channelCode="DPN"></waveformID>
        <phaseHint>S</phaseHint>
      </pick>
      <pick publicID="smi:local/6a7457dc-2364-452d-826a-2cdc14773ec6">
        <time>
          <value>2020-03-10T05:36:36.347900Z</value>
          <uncertainty>0.0316</uncertainty>
        </time>
        <waveformID networkCode="XX" stationCode="F0604" channelCode="DPZ"></waveformID>
        <phaseHint>S</phaseHint>
      </pick>
      <pick publicID="smi:local/6056b073-a5c5-417b-9af6-6e802d56e4d5">
        <time>
          <value>2020-03-10T05:36:36.185700Z</value>
          <uncertainty>0.0307</uncertainty>
        </time>
        <waveformID networkCode="XX" stationCode="C0704" channelCode="DPN"></waveformID>
        <phaseHint>S</phaseHint>
      </pick>
      <pick publicID="smi:local/19cc056b-0aa9-4228-991e-350c25e77a74">
        <time>
          <value>2020-03-10T05:36:36.056600Z</value>
          <uncertainty>0.0159</uncertainty>
        </time>
        <waveformID networkCode="XX" stationCode="C0902" channelCode="DPE"></waveformID>
        <phaseHint>P</phaseHint>
      </pick>
      <pick publicID="smi:local/ed27f6b4-43f4-4d19-8fa9-9d1be1b567bc">
        <time>
          <value>2020-03-10T05:36:36.111200Z</value>
          <uncertainty>0.0174</uncertainty>
        </time>
        <waveformID networkCode="XX" stationCode="C0404" channelCode="DPN"></waveformID>
        <phaseHint>P</phaseHint>
      </pick>
      <pick publicID="smi:local/a1f26561-29b7-4e0b-82d8-9b8d3659e4d3">
        <time>
          <value>2020-03-10T05:36:36.241500Z</value>
          <uncertainty>0.0209</uncertainty>
        </time>
        <waveformID networkCode="XX" stationCode="C0404" channelCode="DPE"></waveformID>
        <phaseHint>S</phaseHint>
      </pick>
    </event>
  </eventParameters>
</q:quakeml>
