<?xml version='1.0' encoding='utf-8'?>
<q:quakeml xmlns="http://quakeml.org/xmlns/bed/1.2" xmlns:q="http://quakeml.org/xmlns/quakeml/1.2">
  <eventParameters publicID="smi:local/14e39800-242e-43bb-8351-559c08dafddd">
    <event publicID="smi:local/a919de04-ba06-4946-aca1-c5d49ac4330a">
      <preferredOriginID>smi:local/6293d304-3f60-4900-91ed-5a1610effc83</preferredOriginID>
      <comment>
        <text>CaMI.FRS microseismicity</text>
      </comment>
      <comment id="smi:local/69ef4b21-ae7a-4118-8779-288bc4e0eb37">
        <text>eqcorrscan_template_2020_03_15t04_46_20</text>
      </comment>
      <creationInfo>
        <author>Genevieve Savard   obs:./obs_picked5/merged.obs   NLLoc:v7.00.00(27Oct2017)</author>
        <creationTime>2020-09-18T19:56:59.000000Z</creationTime>
      </creationInfo>
      <origin publicID="smi:local/6293d304-3f60-4900-91ed-5a1610effc83">
        <time>
          <value>2020-03-15T04:46:19.754973Z</value>
        </time>
        <latitude>
          <value>50.437205</value>
          <uncertainty>0.012478326288728673</uncertainty>
        </latitude>
        <longitude>
          <value>-112.1418</value>
          <uncertainty>0.012170748922432863</uncertainty>
        </longitude>
        <depth>
          <value>1.563</value>
          <uncertainty>13.259600295634856</uncertainty>
          <confidenceLevel>68.0</confidenceLevel>
        </depth>
        <depthType>from location</depthType>
        <quality>
          <associatedPhaseCount>13</associatedPhaseCount>
          <usedPhaseCount>13</usedPhaseCount>
          <associatedStationCount>-1</associatedStationCount>
          <usedStationCount>13</usedStationCount>
          <depthPhaseCount>-1</depthPhaseCount>
          <standardError>0.271713</standardError>
          <azimuthalGap>360.0</azimuthalGap>
          <secondaryAzimuthalGap>360.0</secondaryAzimuthalGap>
          <groundTruthLevel>-</groundTruthLevel>
          <minimumDistance>0.018679449347895585</minimumDistance>
          <maximumDistance>0.018679449347895585</maximumDistance>
          <medianDistance>0.018679449347895585</medianDistance>
        </quality>
        <comment>
          <text>Note: Depth/Latitude/Longitude errors are calculated from covariance matrix as 1D marginal (Lon/Lat errors as great circle degrees) while OriginUncertainty min/max horizontal errors are calculated from 2D error ellipsoid and are therefore seemingly higher compared to 1D errors. Error estimates can be reconstructed from the following original NonLinLoc error statistics line:
STATISTICS ExpectX -0.323154 Y -0.0441803 Z 0.0146657  CovXX 1.83149 XY -0.0443777 XZ 0.00030232 YY 1.92523 YZ 0.000360737 ZZ 0.000175817 EllAz1  41.5787 Dip1  -89.9853 Len1  0.024904 Az2  248.283 Dip2  -0.0130898 Len2  2.53037 Len3  2.618867e+00</text>
        </comment>
        <creationInfo>
          <author>Genevieve Savard   obs:./obs_picked5/merged.obs   NLLoc:v7.00.00(27Oct2017)</author>
          <creationTime>2020-09-18T19:56:59.000000Z</creationTime>
        </creationInfo>
        <originUncertainty>
          <preferredDescription>uncertainty ellipse</preferredDescription>
          <minHorizontalUncertainty>2042.49</minHorizontalUncertainty>
          <maxHorizontalUncertainty>2113.93</maxHorizontalUncertainty>
          <azimuthMaxHorizontalUncertainty>158.283</azimuthMaxHorizontalUncertainty>
          <confidenceLevel>68.0</confidenceLevel>
        </originUncertainty>
        <arrival publicID="smi:local/e71a3aca-f771-428c-b87f-7ea1f0d85e93">
          <pickID>smi:local/24496e85-b059-4cee-8297-56170b3f7680</pickID>
          <phase>P</phase>
          <azimuth>359.0</azimuth>
          <distance>0.018679809076537955</distance>
          <takeoffAngle>
            <value>-1.0</value>
          </takeoffAngle>
          <timeResidual>-0.2238</timeResidual>
          <timeWeight>1.0</timeWeight>
        </arrival>
        <arrival publicID="smi:local/111330be-1004-4482-9008-0ad1204862d0">
          <pickID>smi:local/e25b753b-810e-41d4-829d-0b0e35ccbf47</pickID>
          <phase>P</phase>
          <azimuth>359.0</azimuth>
          <distance>0.018679809076537955</distance>
          <takeoffAngle>
            <value>-1.0</value>
          </takeoffAngle>
          <timeResidual>-0.2238</timeResidual>
          <timeWeight>1.0</timeWeight>
        </arrival>
        <arrival publicID="smi:local/fffd41eb-40df-4d33-bf9a-8e3537fda45b">
          <pickID>smi:local/4409e8dd-e41e-44b4-9af3-e6962a5f35aa</pickID>
          <phase>P</phase>
          <azimuth>359.0</azimuth>
          <distance>0.018679809076537955</distance>
          <takeoffAngle>
            <value>-1.0</value>
          </takeoffAngle>
          <timeResidual>-0.217</timeResidual>
          <timeWeight>1.0</timeWeight>
        </arrival>
        <arrival publicID="smi:local/f689bd79-5485-4db1-8fe4-d9493a8b4ca9">
          <pickID>smi:local/448452f1-a60f-4a62-b239-3fea40cb08ef</pickID>
          <phase>P</phase>
          <azimuth>359.0</azimuth>
          <distance>0.018679809076537955</distance>
          <takeoffAngle>
            <value>-1.0</value>
          </takeoffAngle>
          <timeResidual>-0.2107</timeResidual>
          <timeWeight>1.0</timeWeight>
        </arrival>
        <arrival publicID="smi:local/b8ec6a6a-c60c-46fa-9916-ef841b9860a8">
          <pickID>smi:local/6d2f8054-b2f4-48ca-9cd9-15eec025d349</pickID>
          <phase>S</phase>
          <azimuth>359.0</azimuth>
          <distance>0.018679809076537955</distance>
          <takeoffAngle>
            <value>-1.0</value>
          </takeoffAngle>
          <timeResidual>-0.0273</timeResidual>
          <timeWeight>1.0</timeWeight>
        </arrival>
        <arrival publicID="smi:local/2bdef157-0f76-4b3d-8e67-a004cf6be802">
          <pickID>smi:local/6eecf0e1-24e0-4938-b8e6-0f1211c79631</pickID>
          <phase>S</phase>
          <azimuth>359.0</azimuth>
          <distance>0.018679809076537955</distance>
          <takeoffAngle>
            <value>-1.0</value>
          </takeoffAngle>
          <timeResidual>-0.0225</timeResidual>
          <timeWeight>1.0</timeWeight>
        </arrival>
        <arrival publicID="smi:local/a5981acb-2690-454d-bfce-da22cd116b66">
          <pickID>smi:local/6c085e2b-996f-4721-8694-d9dc062c3061</pickID>
          <phase>S</phase>
          <azimuth>359.0</azimuth>
          <distance>0.018679809076537955</distance>
          <takeoffAngle>
            <value>-1.0</value>
          </takeoffAngle>
          <timeResidual>-0.0276</timeResidual>
          <timeWeight>1.0</timeWeight>
        </arrival>
        <arrival publicID="smi:local/557230c4-5bff-4b2a-bc78-24d31e994ef5">
          <pickID>smi:local/2e254125-0674-40a2-b834-6cc2842b3856</pickID>
          <phase>S</phase>
          <azimuth>359.0</azimuth>
          <distance>0.018679809076537955</distance>
          <takeoffAngle>
            <value>-1.0</value>
          </takeoffAngle>
          <timeResidual>-0.0062</timeResidual>
          <timeWeight>1.0</timeWeight>
        </arrival>
        <arrival publicID="smi:local/d2811693-69f5-43fb-aa85-71e5092e9412">
          <pickID>smi:local/f263b5af-5d34-42e7-8e83-22b496749856</pickID>
          <phase>P</phase>
          <azimuth>359.0</azimuth>
          <distance>0.018679809076537955</distance>
          <takeoffAngle>
            <value>-1.0</value>
          </takeoffAngle>
          <timeResidual>0.8733</timeResidual>
          <timeWeight>1.0</timeWeight>
        </arrival>
        <arrival publicID="smi:local/006f9378-af16-4118-aec4-f89700b23f37">
          <pickID>smi:local/68acbf3a-afae-4a61-9906-d3801187b52f</pickID>
          <phase>S</phase>
          <azimuth>359.0</azimuth>
          <distance>0.018679809076537955</distance>
          <takeoffAngle>
            <value>-1.0</value>
          </takeoffAngle>
          <timeResidual>-0.0079</timeResidual>
          <timeWeight>1.0</timeWeight>
        </arrival>
        <arrival publicID="smi:local/0822a1ea-721d-4246-8765-315acd4ace2b">
          <pickID>smi:local/ecb593d4-c8a3-4506-8f69-98682c76d9e8</pickID>
          <phase>S</phase>
          <azimuth>359.0</azimuth>
          <distance>0.018679809076537955</distance>
          <takeoffAngle>
            <value>-1.0</value>
          </takeoffAngle>
          <timeResidual>0.0157</timeResidual>
          <timeWeight>1.0</timeWeight>
        </arrival>
        <arrival publicID="smi:local/fc08db9b-b346-4529-9d74-c509e4f1326c">
          <pickID>smi:local/4cd513ab-a6c6-4e06-b843-51b101f2b130</pickID>
          <phase>S</phase>
          <azimuth>359.0</azimuth>
          <distance>0.018679809076537955</distance>
          <takeoffAngle>
            <value>-1.0</value>
          </takeoffAngle>
          <timeResidual>0.0359</timeResidual>
          <timeWeight>1.0</timeWeight>
        </arrival>
        <arrival publicID="smi:local/f3256464-8a9d-46d2-8238-da40071fb728">
          <pickID>smi:local/6ce2387f-2870-46cb-9c6a-baf196f33979</pickID>
          <phase>S</phase>
          <azimuth>359.0</azimuth>
          <distance>0.018679809076537955</distance>
          <takeoffAngle>
            <value>-1.0</value>
          </takeoffAngle>
          <timeResidual>0.0418</timeResidual>
          <timeWeight>1.0</timeWeight>
        </arrival>
      </origin>
      <pick publicID="smi:local/2e254125-0674-40a2-b834-6cc2842b3856">
        <time>
          <value>2020-03-15T04:46:21.442400Z</value>
          <uncertainty>0.05</uncertainty>
        </time>
        <waveformID networkCode="XX" stationCode="G6" channelCode="DPZ"></waveformID>
        <phaseHint>S</phaseHint>
      </pick>
      <pick publicID="smi:local/f263b5af-5d34-42e7-8e83-22b496749856">
        <time>
          <value>2020-03-15T04:46:21.443100Z</value>
          <uncertainty>0.05</uncertainty>
        </time>
        <waveformID networkCode="XX" stationCode="G4" channelCode="DPN"></waveformID>
        <phaseHint>P</phaseHint>
      </pick>
      <pick publicID="smi:local/ecb593d4-c8a3-4506-8f69-98682c76d9e8">
        <time>
          <value>2020-03-15T04:46:21.454100Z</value>
          <uncertainty>0.05</uncertainty>
        </time>
        <waveformID networkCode="XX" stationCode="G8" channelCode="DPZ"></waveformID>
        <phaseHint>S</phaseHint>
      </pick>
      <pick publicID="smi:local/448452f1-a60f-4a62-b239-3fea40cb08ef">
        <time>
          <value>2020-03-15T04:46:20.343600Z</value>
          <uncertainty>0.05</uncertainty>
        </time>
        <waveformID networkCode="XX" stationCode="G17" channelCode="DPZ"></waveformID>
        <phaseHint>P</phaseHint>
      </pick>
      <pick publicID="smi:local/68acbf3a-afae-4a61-9906-d3801187b52f">
        <time>
          <value>2020-03-15T04:46:21.444000Z</value>
          <uncertainty>0.05</uncertainty>
        </time>
        <waveformID networkCode="XX" stationCode="G5" channelCode="DPZ"></waveformID>
        <phaseHint>S</phaseHint>
      </pick>
      <pick publicID="smi:local/6c085e2b-996f-4721-8694-d9dc062c3061">
        <time>
          <value>2020-03-15T04:46:21.401200Z</value>
          <uncertainty>0.05</uncertainty>
        </time>
        <waveformID networkCode="XX" stationCode="G11" channelCode="DPZ"></waveformID>
        <phaseHint>S</phaseHint>
      </pick>
      <pick publicID="smi:local/4cd513ab-a6c6-4e06-b843-51b101f2b130">
        <time>
          <value>2020-03-15T04:46:21.490600Z</value>
          <uncertainty>0.05</uncertainty>
        </time>
        <waveformID networkCode="XX" stationCode="G2" channelCode="DPZ"></waveformID>
        <phaseHint>S</phaseHint>
      </pick>
      <pick publicID="smi:local/6ce2387f-2870-46cb-9c6a-baf196f33979">
        <time>
          <value>2020-03-15T04:46:21.498700Z</value>
          <uncertainty>0.05</uncertainty>
        </time>
        <waveformID networkCode="XX" stationCode="G1" channelCode="DPZ"></waveformID>
        <phaseHint>S</phaseHint>
      </pick>
      <pick publicID="smi:local/e25b753b-810e-41d4-829d-0b0e35ccbf47">
        <time>
          <value>2020-03-15T04:46:20.335300Z</value>
          <uncertainty>0.05</uncertainty>
        </time>
        <waveformID networkCode="XX" stationCode="G12" channelCode="DPZ"></waveformID>
        <phaseHint>P</phaseHint>
      </pick>
      <pick publicID="smi:local/6d2f8054-b2f4-48ca-9cd9-15eec025d349">
        <time>
          <value>2020-03-15T04:46:21.398300Z</value>
          <uncertainty>0.05</uncertainty>
        </time>
        <waveformID networkCode="XX" stationCode="G12" channelCode="DPZ"></waveformID>
        <phaseHint>S</phaseHint>
      </pick>
      <pick publicID="smi:local/24496e85-b059-4cee-8297-56170b3f7680">
        <time>
          <value>2020-03-15T04:46:20.333400Z</value>
          <uncertainty>0.05</uncertainty>
        </time>
        <waveformID networkCode="XX" stationCode="G14" channelCode="DPZ"></waveformID>
        <phaseHint>P</phaseHint>
      </pick>
      <pick publicID="smi:local/4409e8dd-e41e-44b4-9af3-e6962a5f35aa">
        <time>
          <value>2020-03-15T04:46:20.341200Z</value>
          <uncertainty>0.05</uncertainty>
        </time>
        <waveformID networkCode="XX" stationCode="G13" channelCode="DPZ"></waveformID>
        <phaseHint>P</phaseHint>
      </pick>
      <pick publicID="smi:local/6eecf0e1-24e0-4938-b8e6-0f1211c79631">
        <time>
          <value>2020-03-15T04:46:21.400100Z</value>
          <uncertainty>0.05</uncertainty>
        </time>
        <waveformID networkCode="XX" stationCode="G13" channelCode="DPZ"></waveformID>
        <phaseHint>S</phaseHint>
      </pick>
    </event>
  </eventParameters>
</q:quakeml>
