<?xml version='1.0' encoding='utf-8'?>
<q:quakeml xmlns="http://quakeml.org/xmlns/bed/1.2" xmlns:q="http://quakeml.org/xmlns/quakeml/1.2">
  <eventParameters publicID="smi:local/809c0867-f507-42f9-b02f-2155ec477489">
    <event publicID="smi:local/68e595ea-a79d-43e6-9ab1-808035afb4a0">
      <preferredOriginID>smi:local/20cbe2bf-da7f-40ad-9732-93bcf2414259</preferredOriginID>
      <comment>
        <text>CaMI.FRS microseismicity</text>
      </comment>
      <comment id="smi:local/1db478c9-5178-4f52-9dc3-f2eb8cab9cf7">
        <text>eqcorrscan_template_2020_02_18t15_24_57</text>
      </comment>
      <creationInfo>
        <author>Genevieve Savard   obs:./obs_picked5/merged.obs   NLLoc:v7.00.00(27Oct2017)</author>
        <creationTime>2020-09-18T19:53:13.000000Z</creationTime>
      </creationInfo>
      <origin publicID="smi:local/20cbe2bf-da7f-40ad-9732-93bcf2414259">
        <time>
          <value>2020-02-18T15:24:57.296970Z</value>
        </time>
        <latitude>
          <value>50.450261</value>
          <uncertainty>0.0006842501898598114</uncertainty>
        </latitude>
        <longitude>
          <value>-112.120904</value>
          <uncertainty>0.0006662340528004391</uncertainty>
        </longitude>
        <depth>
          <value>226.563</value>
          <uncertainty>57.7481601438522</uncertainty>
          <confidenceLevel>68.0</confidenceLevel>
        </depth>
        <depthType>from location</depthType>
        <quality>
          <associatedPhaseCount>14</associatedPhaseCount>
          <usedPhaseCount>14</usedPhaseCount>
          <associatedStationCount>-1</associatedStationCount>
          <usedStationCount>14</usedStationCount>
          <depthPhaseCount>-1</depthPhaseCount>
          <standardError>0.0192124</standardError>
          <azimuthalGap>347.075</azimuthalGap>
          <secondaryAzimuthalGap>360.0</secondaryAzimuthalGap>
          <groundTruthLevel>-</groundTruthLevel>
          <minimumDistance>3.647027901698287e-05</minimumDistance>
          <maximumDistance>5.3334717499813274e-05</maximumDistance>
          <medianDistance>5.3334717499813274e-05</medianDistance>
        </quality>
        <comment>
          <text>Note: Depth/Latitude/Longitude errors are calculated from covariance matrix as 1D marginal (Lon/Lat errors as great circle degrees) while OriginUncertainty min/max horizontal errors are calculated from 2D error ellipsoid and are therefore seemingly higher compared to 1D errors. Error estimates can be reconstructed from the following original NonLinLoc error statistics line:
STATISTICS ExpectX -0.0104768 Y -0.0115057 Z 0.262737  CovXX 0.00548812 XY -5.65641e-05 XZ -1.35185e-05 YY 0.00578895 YZ -8.83267e-05 ZZ 0.00333485 EllAz1  191.3 Dip1  -87.8911 Len1  0.108446 Az2  259.898 Dip2  0.769859 Len2  0.139062 Len3  1.431136e-01</text>
        </comment>
        <creationInfo>
          <author>Genevieve Savard   obs:./obs_picked5/merged.obs   NLLoc:v7.00.00(27Oct2017)</author>
          <creationTime>2020-09-18T19:53:13.000000Z</creationTime>
        </creationInfo>
        <originUncertainty>
          <preferredDescription>uncertainty ellipse</preferredDescription>
          <minHorizontalUncertainty>112.245</minHorizontalUncertainty>
          <maxHorizontalUncertainty>115.491</maxHorizontalUncertainty>
          <azimuthMaxHorizontalUncertainty>169.696</azimuthMaxHorizontalUncertainty>
          <confidenceLevel>68.0</confidenceLevel>
        </originUncertainty>
        <arrival publicID="smi:local/83cccb28-0efb-4d4e-90ed-a835850c23a1">
          <pickID>smi:local/632cf91a-e9ba-4af6-924b-7b72a43e0c5d</pickID>
          <phase>S</phase>
          <azimuth>359.0</azimuth>
          <distance>3.687218584266796e-05</distance>
          <takeoffAngle>
            <value>-1.0</value>
          </takeoffAngle>
          <timeResidual>0.0544</timeResidual>
          <timeWeight>1.0</timeWeight>
        </arrival>
        <arrival publicID="smi:local/9508ed12-052b-475b-b6f6-e99279d85bc2">
          <pickID>smi:local/4723c975-67af-4743-a549-4899e03573bc</pickID>
          <phase>S</phase>
          <azimuth>359.0</azimuth>
          <distance>5.30599747492051e-05</distance>
          <takeoffAngle>
            <value>-1.0</value>
          </takeoffAngle>
          <timeResidual>-0.031</timeResidual>
          <timeWeight>1.0</timeWeight>
        </arrival>
        <arrival publicID="smi:local/21cfa092-8777-4f6b-80af-f371949f248c">
          <pickID>smi:local/d4baa65e-690e-4f90-8c43-99a3e1b1eb70</pickID>
          <phase>S</phase>
          <azimuth>359.0</azimuth>
          <distance>5.30599747492051e-05</distance>
          <takeoffAngle>
            <value>-1.0</value>
          </takeoffAngle>
          <timeResidual>-0.02</timeResidual>
          <timeWeight>1.0</timeWeight>
        </arrival>
        <arrival publicID="smi:local/af487314-6a07-4458-9a6a-07631554a3fa">
          <pickID>smi:local/384e1571-623c-4df1-b049-d4c28273bc84</pickID>
          <phase>S</phase>
          <azimuth>359.0</azimuth>
          <distance>5.30599747492051e-05</distance>
          <takeoffAngle>
            <value>-1.0</value>
          </takeoffAngle>
          <timeResidual>-0.0034</timeResidual>
          <timeWeight>1.0</timeWeight>
        </arrival>
        <arrival publicID="smi:local/01189b0a-4481-4c81-92f8-02237c41eb4c">
          <pickID>smi:local/d15eeadc-beeb-4d4b-bc8d-87b4d6404e3b</pickID>
          <phase>S</phase>
          <azimuth>359.0</azimuth>
          <distance>5.30599747492051e-05</distance>
          <takeoffAngle>
            <value>-1.0</value>
          </takeoffAngle>
          <timeResidual>-0.0109</timeResidual>
          <timeWeight>1.0</timeWeight>
        </arrival>
        <arrival publicID="smi:local/3d99c1f7-7eae-45d4-9910-1cbe2b2b9546">
          <pickID>smi:local/ad367a6e-5e89-44d2-899b-5df9b0b18e3a</pickID>
          <phase>S</phase>
          <azimuth>359.0</azimuth>
          <distance>5.30599747492051e-05</distance>
          <takeoffAngle>
            <value>-1.0</value>
          </takeoffAngle>
          <timeResidual>-0.0052</timeResidual>
          <timeWeight>1.0</timeWeight>
        </arrival>
        <arrival publicID="smi:local/0069635d-b5c2-43c7-8f24-38b1cf9e4d49">
          <pickID>smi:local/0b1da61d-3b82-4a66-92da-91e55c2fff8d</pickID>
          <phase>P</phase>
          <azimuth>359.0</azimuth>
          <distance>5.30599747492051e-05</distance>
          <takeoffAngle>
            <value>-1.0</value>
          </takeoffAngle>
          <timeResidual>0.0058</timeResidual>
          <timeWeight>1.0</timeWeight>
        </arrival>
        <arrival publicID="smi:local/4c12a9f8-d8e6-4f46-9aaf-66e039873b47">
          <pickID>smi:local/0c91c4e2-6866-4cba-8f31-9c4b35eb7cf0</pickID>
          <phase>S</phase>
          <azimuth>359.0</azimuth>
          <distance>5.30599747492051e-05</distance>
          <takeoffAngle>
            <value>-1.0</value>
          </takeoffAngle>
          <timeResidual>0.0016</timeResidual>
          <timeWeight>1.0</timeWeight>
        </arrival>
        <arrival publicID="smi:local/d757f304-c241-432b-b53d-5fa0f83af0fc">
          <pickID>smi:local/1f130306-dd47-48aa-8ebe-c0705f8d8f58</pickID>
          <phase>S</phase>
          <azimuth>359.0</azimuth>
          <distance>5.30599747492051e-05</distance>
          <takeoffAngle>
            <value>-1.0</value>
          </takeoffAngle>
          <timeResidual>-0.0106</timeResidual>
          <timeWeight>1.0</timeWeight>
        </arrival>
        <arrival publicID="smi:local/487109e5-5926-4528-903a-4dbdd9286335">
          <pickID>smi:local/df150b07-7ef9-48a3-bc12-76f0f897b069</pickID>
          <phase>S</phase>
          <azimuth>359.0</azimuth>
          <distance>5.30599747492051e-05</distance>
          <takeoffAngle>
            <value>-1.0</value>
          </takeoffAngle>
          <timeResidual>-0.0016</timeResidual>
          <timeWeight>1.0</timeWeight>
        </arrival>
        <arrival publicID="smi:local/f5144389-5684-437c-98d8-c0adcf0e756f">
          <pickID>smi:local/1fa704aa-a987-48be-92ba-0c091bf5fb07</pickID>
          <phase>S</phase>
          <azimuth>359.0</azimuth>
          <distance>5.30599747492051e-05</distance>
          <takeoffAngle>
            <value>-1.0</value>
          </takeoffAngle>
          <timeResidual>0.0048</timeResidual>
          <timeWeight>1.0</timeWeight>
        </arrival>
        <arrival publicID="smi:local/853fe808-109b-45b2-9a34-57311d4d54f2">
          <pickID>smi:local/62f0aa1d-3ffe-43c5-8b6d-c8365c6b6048</pickID>
          <phase>S</phase>
          <azimuth>359.0</azimuth>
          <distance>5.30599747492051e-05</distance>
          <takeoffAngle>
            <value>-1.0</value>
          </takeoffAngle>
          <timeResidual>0.002</timeResidual>
          <timeWeight>1.0</timeWeight>
        </arrival>
        <arrival publicID="smi:local/78d633b5-3f0d-4582-adbe-d3f4fd3763bf">
          <pickID>smi:local/9022aa76-b59d-47fe-8cee-bba96868d2ff</pickID>
          <phase>S</phase>
          <azimuth>359.0</azimuth>
          <distance>5.30599747492051e-05</distance>
          <takeoffAngle>
            <value>-1.0</value>
          </takeoffAngle>
          <timeResidual>-0.0074</timeResidual>
          <timeWeight>1.0</timeWeight>
        </arrival>
        <arrival publicID="smi:local/0d5671e9-c9ea-4a23-ad25-d9fc1242daec">
          <pickID>smi:local/0d5cb142-16b6-452a-aee7-d60da198a8ee</pickID>
          <phase>P</phase>
          <azimuth>359.0</azimuth>
          <distance>5.30599747492051e-05</distance>
          <takeoffAngle>
            <value>-1.0</value>
          </takeoffAngle>
          <timeResidual>0.0214</timeResidual>
          <timeWeight>1.0</timeWeight>
        </arrival>
      </origin>
      <pick publicID="smi:local/0d5cb142-16b6-452a-aee7-d60da198a8ee">
        <time>
          <value>2020-02-18T15:24:57.337100Z</value>
          <uncertainty>0.05</uncertainty>
        </time>
        <waveformID networkCode="XX" stationCode="G18" channelCode="DPZ"></waveformID>
        <phaseHint>P</phaseHint>
      </pick>
      <pick publicID="smi:local/ad367a6e-5e89-44d2-899b-5df9b0b18e3a">
        <time>
          <value>2020-02-18T15:24:57.311200Z</value>
          <uncertainty>0.05</uncertainty>
        </time>
        <waveformID networkCode="XX" stationCode="G6" channelCode="DPZ"></waveformID>
        <phaseHint>S</phaseHint>
      </pick>
      <pick publicID="smi:local/1fa704aa-a987-48be-92ba-0c091bf5fb07">
        <time>
          <value>2020-02-18T15:24:57.321300Z</value>
          <uncertainty>0.05</uncertainty>
        </time>
        <waveformID networkCode="XX" stationCode="G12" channelCode="DPZ"></waveformID>
        <phaseHint>S</phaseHint>
      </pick>
      <pick publicID="smi:local/62f0aa1d-3ffe-43c5-8b6d-c8365c6b6048">
        <time>
          <value>2020-02-18T15:24:57.325500Z</value>
          <uncertainty>0.05</uncertainty>
        </time>
        <waveformID networkCode="XX" stationCode="G14" channelCode="DPZ"></waveformID>
        <phaseHint>S</phaseHint>
      </pick>
      <pick publicID="smi:local/0c91c4e2-6866-4cba-8f31-9c4b35eb7cf0">
        <time>
          <value>2020-02-18T15:24:57.315300Z</value>
          <uncertainty>0.05</uncertainty>
        </time>
        <waveformID networkCode="XX" stationCode="G11" channelCode="DPZ"></waveformID>
        <phaseHint>S</phaseHint>
      </pick>
      <pick publicID="smi:local/384e1571-623c-4df1-b049-d4c28273bc84">
        <time>
          <value>2020-02-18T15:24:57.306200Z</value>
          <uncertainty>0.05</uncertainty>
        </time>
        <waveformID networkCode="XX" stationCode="G8" channelCode="DPZ"></waveformID>
        <phaseHint>S</phaseHint>
      </pick>
      <pick publicID="smi:local/df150b07-7ef9-48a3-bc12-76f0f897b069">
        <time>
          <value>2020-02-18T15:24:57.318200Z</value>
          <uncertainty>0.05</uncertainty>
        </time>
        <waveformID networkCode="XX" stationCode="G13" channelCode="DPZ"></waveformID>
        <phaseHint>S</phaseHint>
      </pick>
      <pick publicID="smi:local/d15eeadc-beeb-4d4b-bc8d-87b4d6404e3b">
        <time>
          <value>2020-02-18T15:24:57.307500Z</value>
          <uncertainty>0.05</uncertainty>
        </time>
        <waveformID networkCode="XX" stationCode="G5" channelCode="DPZ"></waveformID>
        <phaseHint>S</phaseHint>
      </pick>
      <pick publicID="smi:local/0b1da61d-3b82-4a66-92da-91e55c2fff8d">
        <time>
          <value>2020-02-18T15:24:57.313700Z</value>
          <uncertainty>0.05</uncertainty>
        </time>
        <waveformID networkCode="XX" stationCode="G4" channelCode="DPZ"></waveformID>
        <phaseHint>P</phaseHint>
      </pick>
      <pick publicID="smi:local/1f130306-dd47-48aa-8ebe-c0705f8d8f58">
        <time>
          <value>2020-02-18T15:24:57.316700Z</value>
          <uncertainty>0.05</uncertainty>
        </time>
        <waveformID networkCode="XX" stationCode="G15" channelCode="DPZ"></waveformID>
        <phaseHint>S</phaseHint>
      </pick>
      <pick publicID="smi:local/632cf91a-e9ba-4af6-924b-7b72a43e0c5d">
        <time>
          <value>2020-02-18T15:24:57.643400Z</value>
          <uncertainty>0.05</uncertainty>
        </time>
        <waveformID networkCode="XX" stationCode="C0404" channelCode="DPN"></waveformID>
        <phaseHint>S</phaseHint>
      </pick>
      <pick publicID="smi:local/4723c975-67af-4743-a549-4899e03573bc">
        <time>
          <value>2020-02-18T15:24:57.297200Z</value>
          <uncertainty>0.05</uncertainty>
        </time>
        <waveformID networkCode="XX" stationCode="G1" channelCode="DPZ"></waveformID>
        <phaseHint>S</phaseHint>
      </pick>
      <pick publicID="smi:local/9022aa76-b59d-47fe-8cee-bba96868d2ff">
        <time>
          <value>2020-02-18T15:24:57.327800Z</value>
          <uncertainty>0.05</uncertainty>
        </time>
        <waveformID networkCode="XX" stationCode="G17" channelCode="DPZ"></waveformID>
        <phaseHint>S</phaseHint>
      </pick>
      <pick publicID="smi:local/d4baa65e-690e-4f90-8c43-99a3e1b1eb70">
        <time>
          <value>2020-02-18T15:24:57.304700Z</value>
          <uncertainty>0.05</uncertainty>
        </time>
        <waveformID networkCode="XX" stationCode="G2" channelCode="DPZ"></waveformID>
        <phaseHint>S</phaseHint>
      </pick>
    </event>
  </eventParameters>
</q:quakeml>
