<?xml version='1.0' encoding='utf-8'?>
<q:quakeml xmlns="http://quakeml.org/xmlns/bed/1.2" xmlns:q="http://quakeml.org/xmlns/quakeml/1.2">
  <eventParameters publicID="smi:local/3753ed46-ecf8-4c36-9b67-16abe257b225">
    <event publicID="smi:local/77dedc35-1af2-4079-ab7d-117d247a0705">
      <preferredOriginID>smi:local/6b510ea2-1f92-4fa9-8ce7-4210724877ba</preferredOriginID>
      <comment>
        <text>CaMI.FRS microseismicity</text>
      </comment>
      <comment id="smi:local/3b313c2b-2940-4ec1-935f-e260d5df5f2c">
        <text>eqcorrscan_template_2020_03_19t03_30_26</text>
      </comment>
      <creationInfo>
        <author>Genevieve Savard   obs:./obs_picked5/merged.obs   NLLoc:v7.00.00(27Oct2017)</author>
        <creationTime>2020-09-18T19:57:44.000000Z</creationTime>
      </creationInfo>
      <origin publicID="smi:local/6b510ea2-1f92-4fa9-8ce7-4210724877ba">
        <time>
          <value>2020-03-19T03:30:26.465024Z</value>
        </time>
        <latitude>
          <value>50.450261</value>
          <uncertainty>0.0005087410737031431</uncertainty>
        </latitude>
        <longitude>
          <value>-112.120904</value>
          <uncertainty>0.0005068768367288398</uncertainty>
        </longitude>
        <depth>
          <value>257.812</value>
          <uncertainty>51.353870350734034</uncertainty>
          <confidenceLevel>68.0</confidenceLevel>
        </depth>
        <depthType>from location</depthType>
        <quality>
          <associatedPhaseCount>13</associatedPhaseCount>
          <usedPhaseCount>13</usedPhaseCount>
          <associatedStationCount>-1</associatedStationCount>
          <usedStationCount>13</usedStationCount>
          <depthPhaseCount>-1</depthPhaseCount>
          <standardError>0.0288239</standardError>
          <azimuthalGap>360.0</azimuthalGap>
          <secondaryAzimuthalGap>360.0</secondaryAzimuthalGap>
          <groundTruthLevel>-</groundTruthLevel>
          <minimumDistance>5.3334717499813274e-05</minimumDistance>
          <maximumDistance>5.3334717499813274e-05</maximumDistance>
          <medianDistance>5.3334717499813274e-05</medianDistance>
        </quality>
        <comment>
          <text>Note: Depth/Latitude/Longitude errors are calculated from covariance matrix as 1D marginal (Lon/Lat errors as great circle degrees) while OriginUncertainty min/max horizontal errors are calculated from 2D error ellipsoid and are therefore seemingly higher compared to 1D errors. Error estimates can be reconstructed from the following original NonLinLoc error statistics line:
STATISTICS ExpectX -0.0171498 Y -0.0127361 Z 0.268549  CovXX 0.00317669 XY -1.19938e-05 XZ -1.71203e-05 YY 0.0032001 YZ 9.64253e-06 ZZ 0.00263722 EllAz1  297.692 Dip1  -87.9736 Len1  0.0964724 Az2  246.556 Dip2  1.27182 Len2  0.105815 Len3  1.063753e-01</text>
        </comment>
        <creationInfo>
          <author>Genevieve Savard   obs:./obs_picked5/merged.obs   NLLoc:v7.00.00(27Oct2017)</author>
          <creationTime>2020-09-18T19:57:44.000000Z</creationTime>
        </creationInfo>
        <originUncertainty>
          <preferredDescription>uncertainty ellipse</preferredDescription>
          <minHorizontalUncertainty>85.40939999999999</minHorizontalUncertainty>
          <maxHorizontalUncertainty>85.85950000000001</maxHorizontalUncertainty>
          <azimuthMaxHorizontalUncertainty>157.15</azimuthMaxHorizontalUncertainty>
          <confidenceLevel>68.0</confidenceLevel>
        </originUncertainty>
        <arrival publicID="smi:local/beea30d6-5b15-4f9e-b7d5-236cee697385">
          <pickID>smi:local/2d403d68-c6c2-41a7-a865-aaadd83d2a80</pickID>
          <phase>S</phase>
          <azimuth>359.0</azimuth>
          <distance>5.30599747492051e-05</distance>
          <takeoffAngle>
            <value>-1.0</value>
          </takeoffAngle>
          <timeResidual>-0.0091</timeResidual>
          <timeWeight>1.0</timeWeight>
        </arrival>
        <arrival publicID="smi:local/8cb0ace8-833d-47ba-8f54-1dc698300e15">
          <pickID>smi:local/e8cc9229-0af8-4e74-8730-1b7386b083c5</pickID>
          <phase>S</phase>
          <azimuth>359.0</azimuth>
          <distance>5.30599747492051e-05</distance>
          <takeoffAngle>
            <value>-1.0</value>
          </takeoffAngle>
          <timeResidual>-0.0149</timeResidual>
          <timeWeight>1.0</timeWeight>
        </arrival>
        <arrival publicID="smi:local/51229590-50dd-4811-ac6d-8f6067f92e78">
          <pickID>smi:local/7307e305-1a8b-4885-a0ec-253f7e987760</pickID>
          <phase>S</phase>
          <azimuth>359.0</azimuth>
          <distance>5.30599747492051e-05</distance>
          <takeoffAngle>
            <value>-1.0</value>
          </takeoffAngle>
          <timeResidual>-0.0098</timeResidual>
          <timeWeight>1.0</timeWeight>
        </arrival>
        <arrival publicID="smi:local/d672b64b-9d0c-4674-be4d-05d068217e50">
          <pickID>smi:local/971831e2-7fae-4acb-8958-91035aec00ea</pickID>
          <phase>S</phase>
          <azimuth>359.0</azimuth>
          <distance>5.30599747492051e-05</distance>
          <takeoffAngle>
            <value>-1.0</value>
          </takeoffAngle>
          <timeResidual>-0.003</timeResidual>
          <timeWeight>1.0</timeWeight>
        </arrival>
        <arrival publicID="smi:local/9e85daa1-c259-477d-8eb6-dbe687768121">
          <pickID>smi:local/b456b345-453b-4b5b-b409-dfd45d913c65</pickID>
          <phase>S</phase>
          <azimuth>359.0</azimuth>
          <distance>5.30599747492051e-05</distance>
          <takeoffAngle>
            <value>-1.0</value>
          </takeoffAngle>
          <timeResidual>-0.0017</timeResidual>
          <timeWeight>1.0</timeWeight>
        </arrival>
        <arrival publicID="smi:local/a5487c65-170c-4e23-b183-937c7c20f03e">
          <pickID>smi:local/b30f195b-73ae-4748-b733-26f39acce0c6</pickID>
          <phase>S</phase>
          <azimuth>359.0</azimuth>
          <distance>5.30599747492051e-05</distance>
          <takeoffAngle>
            <value>-1.0</value>
          </takeoffAngle>
          <timeResidual>-0.0046</timeResidual>
          <timeWeight>1.0</timeWeight>
        </arrival>
        <arrival publicID="smi:local/1f44d11c-7eac-40e5-82ff-7062ac00de27">
          <pickID>smi:local/dc70575f-dd14-4c05-91ee-6ee0e97d95c2</pickID>
          <phase>S</phase>
          <azimuth>359.0</azimuth>
          <distance>5.30599747492051e-05</distance>
          <takeoffAngle>
            <value>-1.0</value>
          </takeoffAngle>
          <timeResidual>-0.0011</timeResidual>
          <timeWeight>1.0</timeWeight>
        </arrival>
        <arrival publicID="smi:local/e89ae09c-8f97-41e6-90a5-994a7e79ee82">
          <pickID>smi:local/915db0e4-6865-4912-a508-f0351933e483</pickID>
          <phase>S</phase>
          <azimuth>359.0</azimuth>
          <distance>5.30599747492051e-05</distance>
          <takeoffAngle>
            <value>-1.0</value>
          </takeoffAngle>
          <timeResidual>-0.0087</timeResidual>
          <timeWeight>1.0</timeWeight>
        </arrival>
        <arrival publicID="smi:local/add20b92-24db-429f-9b84-e62233749447">
          <pickID>smi:local/073608a5-9f50-4e45-8343-358694f388b3</pickID>
          <phase>S</phase>
          <azimuth>359.0</azimuth>
          <distance>5.30599747492051e-05</distance>
          <takeoffAngle>
            <value>-1.0</value>
          </takeoffAngle>
          <timeResidual>-0.0178</timeResidual>
          <timeWeight>1.0</timeWeight>
        </arrival>
        <arrival publicID="smi:local/c50e3c17-f446-4b68-9896-06296e7c7cb9">
          <pickID>smi:local/3cedf9ee-8f67-4014-be72-d2f31234ea5b</pickID>
          <phase>S</phase>
          <azimuth>359.0</azimuth>
          <distance>5.30599747492051e-05</distance>
          <takeoffAngle>
            <value>-1.0</value>
          </takeoffAngle>
          <timeResidual>-0.0343</timeResidual>
          <timeWeight>1.0</timeWeight>
        </arrival>
        <arrival publicID="smi:local/bc3f6ae5-01f0-4f54-a498-47c6ce2ace29">
          <pickID>smi:local/c32c7de8-77d9-4edf-9c2b-d0900ed038a8</pickID>
          <phase>S</phase>
          <azimuth>359.0</azimuth>
          <distance>5.30599747492051e-05</distance>
          <takeoffAngle>
            <value>-1.0</value>
          </takeoffAngle>
          <timeResidual>-0.0234</timeResidual>
          <timeWeight>1.0</timeWeight>
        </arrival>
        <arrival publicID="smi:local/fb8f6d17-5016-4a94-bc9f-c4246585b71f">
          <pickID>smi:local/ea284bfd-66a0-4fa4-92fe-b2edb9a44e7b</pickID>
          <phase>P</phase>
          <azimuth>359.0</azimuth>
          <distance>5.30599747492051e-05</distance>
          <takeoffAngle>
            <value>-1.0</value>
          </takeoffAngle>
          <timeResidual>0.0641</timeResidual>
          <timeWeight>1.0</timeWeight>
        </arrival>
        <arrival publicID="smi:local/b62389a3-9145-4e07-8b52-0ef6b79cf54c">
          <pickID>smi:local/c3d4c1b7-46ff-418c-81df-1536b90e8394</pickID>
          <phase>P</phase>
          <azimuth>359.0</azimuth>
          <distance>5.30599747492051e-05</distance>
          <takeoffAngle>
            <value>-1.0</value>
          </takeoffAngle>
          <timeResidual>0.0643</timeResidual>
          <timeWeight>1.0</timeWeight>
        </arrival>
      </origin>
      <pick publicID="smi:local/c32c7de8-77d9-4edf-9c2b-d0900ed038a8">
        <time>
          <value>2020-03-19T03:30:26.494800Z</value>
          <uncertainty>0.05</uncertainty>
        </time>
        <waveformID networkCode="XX" stationCode="G2" channelCode="DPZ"></waveformID>
        <phaseHint>S</phaseHint>
      </pick>
      <pick publicID="smi:local/ea284bfd-66a0-4fa4-92fe-b2edb9a44e7b">
        <time>
          <value>2020-03-19T03:30:26.548800Z</value>
          <uncertainty>0.05</uncertainty>
        </time>
        <waveformID networkCode="XX" stationCode="G5" channelCode="DPZ"></waveformID>
        <phaseHint>P</phaseHint>
      </pick>
      <pick publicID="smi:local/b456b345-453b-4b5b-b409-dfd45d913c65">
        <time>
          <value>2020-03-19T03:30:26.476100Z</value>
          <uncertainty>0.05</uncertainty>
        </time>
        <waveformID networkCode="XX" stationCode="G13" channelCode="DPZ"></waveformID>
        <phaseHint>S</phaseHint>
      </pick>
      <pick publicID="smi:local/915db0e4-6865-4912-a508-f0351933e483">
        <time>
          <value>2020-03-19T03:30:26.485100Z</value>
          <uncertainty>0.05</uncertainty>
        </time>
        <waveformID networkCode="XX" stationCode="G8" channelCode="DPZ"></waveformID>
        <phaseHint>S</phaseHint>
      </pick>
      <pick publicID="smi:local/e8cc9229-0af8-4e74-8730-1b7386b083c5">
        <time>
          <value>2020-03-19T03:30:26.468300Z</value>
          <uncertainty>0.05</uncertainty>
        </time>
        <waveformID networkCode="XX" stationCode="G18" channelCode="DPZ"></waveformID>
        <phaseHint>S</phaseHint>
      </pick>
      <pick publicID="smi:local/c3d4c1b7-46ff-418c-81df-1536b90e8394">
        <time>
          <value>2020-03-19T03:30:26.550700Z</value>
          <uncertainty>0.05</uncertainty>
        </time>
        <waveformID networkCode="XX" stationCode="G4" channelCode="DPN"></waveformID>
        <phaseHint>P</phaseHint>
      </pick>
      <pick publicID="smi:local/b30f195b-73ae-4748-b733-26f39acce0c6">
        <time>
          <value>2020-03-19T03:30:26.478500Z</value>
          <uncertainty>0.05</uncertainty>
        </time>
        <waveformID networkCode="XX" stationCode="G11" channelCode="DPZ"></waveformID>
        <phaseHint>S</phaseHint>
      </pick>
      <pick publicID="smi:local/073608a5-9f50-4e45-8343-358694f388b3">
        <time>
          <value>2020-03-19T03:30:26.486700Z</value>
          <uncertainty>0.05</uncertainty>
        </time>
        <waveformID networkCode="XX" stationCode="G6" channelCode="DPZ"></waveformID>
        <phaseHint>S</phaseHint>
      </pick>
      <pick publicID="smi:local/971831e2-7fae-4acb-8958-91035aec00ea">
        <time>
          <value>2020-03-19T03:30:26.473100Z</value>
          <uncertainty>0.05</uncertainty>
        </time>
        <waveformID networkCode="XX" stationCode="G15" channelCode="DPZ"></waveformID>
        <phaseHint>S</phaseHint>
      </pick>
      <pick publicID="smi:local/dc70575f-dd14-4c05-91ee-6ee0e97d95c2">
        <time>
          <value>2020-03-19T03:30:26.479100Z</value>
          <uncertainty>0.05</uncertainty>
        </time>
        <waveformID networkCode="XX" stationCode="G12" channelCode="DPZ"></waveformID>
        <phaseHint>S</phaseHint>
      </pick>
      <pick publicID="smi:local/3cedf9ee-8f67-4014-be72-d2f31234ea5b">
        <time>
          <value>2020-03-19T03:30:26.487500Z</value>
          <uncertainty>0.05</uncertainty>
        </time>
        <waveformID networkCode="XX" stationCode="G1" channelCode="DPZ"></waveformID>
        <phaseHint>S</phaseHint>
      </pick>
      <pick publicID="smi:local/2d403d68-c6c2-41a7-a865-aaadd83d2a80">
        <time>
          <value>2020-03-19T03:30:26.467200Z</value>
          <uncertainty>0.05</uncertainty>
        </time>
        <waveformID networkCode="XX" stationCode="G14" channelCode="DPZ"></waveformID>
        <phaseHint>S</phaseHint>
      </pick>
      <pick publicID="smi:local/7307e305-1a8b-4885-a0ec-253f7e987760">
        <time>
          <value>2020-03-19T03:30:26.470200Z</value>
          <uncertainty>0.05</uncertainty>
        </time>
        <waveformID networkCode="XX" stationCode="G17" channelCode="DPZ"></waveformID>
        <phaseHint>S</phaseHint>
      </pick>
    </event>
  </eventParameters>
</q:quakeml>
