<?xml version='1.0' encoding='utf-8'?>
<q:quakeml xmlns="http://quakeml.org/xmlns/bed/1.2" xmlns:q="http://quakeml.org/xmlns/quakeml/1.2">
  <eventParameters publicID="smi:local/fe6c1a0b-5953-4aab-a0d2-c3a845ad54c1">
    <event publicID="smi:local/d7c32285-350c-4224-ab31-012b6cc86def">
      <preferredOriginID>smi:local/53488845-8b35-4a71-ae42-27c917114592</preferredOriginID>
      <comment>
        <text>CaMI.FRS microseismicity</text>
      </comment>
      <comment id="smi:local/0ac3e0d5-0367-4e3c-9034-91b15e65a977">
        <text>eqcorrscan_template_2020_02_18t12_42_24</text>
      </comment>
      <creationInfo>
        <author>Genevieve Savard   obs:./obs_picked5/merged.obs   NLLoc:v7.00.00(27Oct2017)</author>
        <creationTime>2020-09-18T19:52:51.000000Z</creationTime>
      </creationInfo>
      <origin publicID="smi:local/53488845-8b35-4a71-ae42-27c917114592">
        <time>
          <value>2020-02-18T12:42:24.799882Z</value>
        </time>
        <latitude>
          <value>50.44925</value>
          <uncertainty>0.0004638642957203158</uncertainty>
        </latitude>
        <longitude>
          <value>-112.119052</value>
          <uncertainty>0.0004463924816666973</uncertainty>
        </longitude>
        <depth>
          <value>120.313</value>
          <uncertainty>34.916614956206736</uncertainty>
          <confidenceLevel>68.0</confidenceLevel>
        </depth>
        <depthType>from location</depthType>
        <quality>
          <associatedPhaseCount>15</associatedPhaseCount>
          <usedPhaseCount>15</usedPhaseCount>
          <associatedStationCount>-1</associatedStationCount>
          <usedStationCount>15</usedStationCount>
          <depthPhaseCount>-1</depthPhaseCount>
          <standardError>0.0747003</standardError>
          <azimuthalGap>181.499</azimuthalGap>
          <secondaryAzimuthalGap>359.29</secondaryAzimuthalGap>
          <groundTruthLevel>-</groundTruthLevel>
          <minimumDistance>0.001568317955345615</minimumDistance>
          <maximumDistance>0.0016148488552358501</maximumDistance>
          <medianDistance>0.001568317955345615</medianDistance>
        </quality>
        <comment>
          <text>Note: Depth/Latitude/Longitude errors are calculated from covariance matrix as 1D marginal (Lon/Lat errors as great circle degrees) while OriginUncertainty min/max horizontal errors are calculated from 2D error ellipsoid and are therefore seemingly higher compared to 1D errors. Error estimates can be reconstructed from the following original NonLinLoc error statistics line:
STATISTICS ExpectX 0.10925 Y -0.122662 Z 0.122461  CovXX 0.00246379 XY 0.00103754 XZ 0.000466547 YY 0.00266043 YZ -0.000395323 ZZ 0.00121917 EllAz1  311.744 Dip1  51.9142 Len1  0.0511127 Az2  312.895 Dip2  -38.0802 Len2  0.0839986 Len3  1.128003e-01</text>
        </comment>
        <creationInfo>
          <author>Genevieve Savard   obs:./obs_picked5/merged.obs   NLLoc:v7.00.00(27Oct2017)</author>
          <creationTime>2020-09-18T19:52:51.000000Z</creationTime>
        </creationInfo>
        <originUncertainty>
          <preferredDescription>uncertainty ellipse</preferredDescription>
          <minHorizontalUncertainty>59.1256</minHorizontalUncertainty>
          <maxHorizontalUncertainty>91.0488</maxHorizontalUncertainty>
          <azimuthMaxHorizontalUncertainty>42.2933</azimuthMaxHorizontalUncertainty>
          <confidenceLevel>68.0</confidenceLevel>
        </originUncertainty>
        <arrival publicID="smi:local/272a36b7-ce4a-4d18-94d1-c884f664a5d7">
          <pickID>smi:local/3cf6d8ef-d7ba-4031-994c-9cfcbbac0a09</pickID>
          <phase>S</phase>
          <azimuth>359.0</azimuth>
          <distance>0.0015684168807222662</distance>
          <takeoffAngle>
            <value>-1.0</value>
          </takeoffAngle>
          <timeResidual>0.0067</timeResidual>
          <timeWeight>1.0</timeWeight>
        </arrival>
        <arrival publicID="smi:local/d6f47b62-e932-4901-b791-548c896606be">
          <pickID>smi:local/df84497a-188f-432b-8c16-e96646e4a9e4</pickID>
          <phase>S</phase>
          <azimuth>359.0</azimuth>
          <distance>0.0015684168807222662</distance>
          <takeoffAngle>
            <value>-1.0</value>
          </takeoffAngle>
          <timeResidual>0.0009</timeResidual>
          <timeWeight>1.0</timeWeight>
        </arrival>
        <arrival publicID="smi:local/a3454ad3-eee6-4ed3-b5bf-91781f8b01bf">
          <pickID>smi:local/8c21f103-8494-4165-9438-bb16a8a0dc87</pickID>
          <phase>S</phase>
          <azimuth>359.0</azimuth>
          <distance>0.0015684168807222662</distance>
          <takeoffAngle>
            <value>-1.0</value>
          </takeoffAngle>
          <timeResidual>0.0077</timeResidual>
          <timeWeight>1.0</timeWeight>
        </arrival>
        <arrival publicID="smi:local/a25d0526-be81-45f8-8bfc-25527de41b8f">
          <pickID>smi:local/e1df9716-0d0c-4061-8b3a-6783b472b43f</pickID>
          <phase>S</phase>
          <azimuth>359.0</azimuth>
          <distance>0.0015684168807222662</distance>
          <takeoffAngle>
            <value>-1.0</value>
          </takeoffAngle>
          <timeResidual>0.0007</timeResidual>
          <timeWeight>1.0</timeWeight>
        </arrival>
        <arrival publicID="smi:local/aaf153ba-316e-4f33-bee0-49b917c43ac0">
          <pickID>smi:local/78562fbe-c8e3-46e0-89cc-e9115d47e420</pickID>
          <phase>S</phase>
          <azimuth>359.0</azimuth>
          <distance>0.0015684168807222662</distance>
          <takeoffAngle>
            <value>-1.0</value>
          </takeoffAngle>
          <timeResidual>-0.0074</timeResidual>
          <timeWeight>1.0</timeWeight>
        </arrival>
        <arrival publicID="smi:local/4d900d5b-0a84-44a3-881c-44eef69757a3">
          <pickID>smi:local/6641b607-8506-482d-863a-db6b498985c5</pickID>
          <phase>S</phase>
          <azimuth>359.0</azimuth>
          <distance>0.0015684168807222662</distance>
          <takeoffAngle>
            <value>-1.0</value>
          </takeoffAngle>
          <timeResidual>-0.0006</timeResidual>
          <timeWeight>1.0</timeWeight>
        </arrival>
        <arrival publicID="smi:local/4bbce401-6e05-459d-8ae4-b0ca0fbcda48">
          <pickID>smi:local/e5e64676-af56-48c8-94fa-cb43b7ac6e65</pickID>
          <phase>S</phase>
          <azimuth>359.0</azimuth>
          <distance>0.0015684168807222662</distance>
          <takeoffAngle>
            <value>-1.0</value>
          </takeoffAngle>
          <timeResidual>-0.0143</timeResidual>
          <timeWeight>1.0</timeWeight>
        </arrival>
        <arrival publicID="smi:local/332ffdc8-e170-4e86-a856-0a8ecadb0ca5">
          <pickID>smi:local/23e26495-b393-448e-b12f-98303b5fb927</pickID>
          <phase>S</phase>
          <azimuth>359.0</azimuth>
          <distance>0.0015684168807222662</distance>
          <takeoffAngle>
            <value>-1.0</value>
          </takeoffAngle>
          <timeResidual>-0.0075</timeResidual>
          <timeWeight>1.0</timeWeight>
        </arrival>
        <arrival publicID="smi:local/2afcfdd2-10b0-4e1b-9c66-96f1684466d2">
          <pickID>smi:local/99fd3079-e13d-4afe-a0cd-87d24fce9059</pickID>
          <phase>S</phase>
          <azimuth>359.0</azimuth>
          <distance>0.0015684168807222662</distance>
          <takeoffAngle>
            <value>-1.0</value>
          </takeoffAngle>
          <timeResidual>-0.0099</timeResidual>
          <timeWeight>1.0</timeWeight>
        </arrival>
        <arrival publicID="smi:local/e09eba1f-ea7f-474a-b1d3-62b265568ca3">
          <pickID>smi:local/c39a8060-f680-43c3-ada4-1318432fc399</pickID>
          <phase>S</phase>
          <azimuth>359.0</azimuth>
          <distance>0.0015684168807222662</distance>
          <takeoffAngle>
            <value>-1.0</value>
          </takeoffAngle>
          <timeResidual>-0.0163</timeResidual>
          <timeWeight>1.0</timeWeight>
        </arrival>
        <arrival publicID="smi:local/074ca433-b7a3-46d0-8e08-ba26d8ea2c33">
          <pickID>smi:local/0028ae46-cb18-46ad-be35-d02d5bcee862</pickID>
          <phase>S</phase>
          <azimuth>359.0</azimuth>
          <distance>0.0015684168807222662</distance>
          <takeoffAngle>
            <value>-1.0</value>
          </takeoffAngle>
          <timeResidual>-0.0175</timeResidual>
          <timeWeight>1.0</timeWeight>
        </arrival>
        <arrival publicID="smi:local/71560d19-4d2c-4c5c-bd4d-b34d7477fe43">
          <pickID>smi:local/a26913e2-2a54-443c-8aad-8c50276f7cb6</pickID>
          <phase>P</phase>
          <azimuth>359.0</azimuth>
          <distance>0.0015684168807222662</distance>
          <takeoffAngle>
            <value>-1.0</value>
          </takeoffAngle>
          <timeResidual>0.1547</timeResidual>
          <timeWeight>1.0</timeWeight>
        </arrival>
        <arrival publicID="smi:local/a70b0cb6-0bef-49b1-a7b8-7fc2604303b1">
          <pickID>smi:local/b3fbe4ad-6769-4810-b58f-62c6575c42f9</pickID>
          <phase>P</phase>
          <azimuth>359.0</azimuth>
          <distance>0.0015684168807222662</distance>
          <takeoffAngle>
            <value>-1.0</value>
          </takeoffAngle>
          <timeResidual>0.1533</timeResidual>
          <timeWeight>1.0</timeWeight>
        </arrival>
        <arrival publicID="smi:local/aaaaaf41-910f-425a-bded-454037f55e29">
          <pickID>smi:local/613dc3a5-4459-4b3a-b76d-8330b5c9635d</pickID>
          <phase>S</phase>
          <azimuth>359.0</azimuth>
          <distance>0.0015702155239341036</distance>
          <takeoffAngle>
            <value>-1.0</value>
          </takeoffAngle>
          <timeResidual>-0.1687</timeResidual>
          <timeWeight>1.0</timeWeight>
        </arrival>
        <arrival publicID="smi:local/65dafb5e-9ea7-40e7-8206-a6a8abc7ed3b">
          <pickID>smi:local/21eb98a5-b0e3-4c5c-ad09-6964112cd3f7</pickID>
          <phase>S</phase>
          <azimuth>359.0</azimuth>
          <distance>0.0016151816042300402</distance>
          <takeoffAngle>
            <value>-1.0</value>
          </takeoffAngle>
          <timeResidual>-0.0818</timeResidual>
          <timeWeight>1.0</timeWeight>
        </arrival>
      </origin>
      <pick publicID="smi:local/a26913e2-2a54-443c-8aad-8c50276f7cb6">
        <time>
          <value>2020-02-18T12:42:25.029900Z</value>
          <uncertainty>0.05</uncertainty>
        </time>
        <waveformID networkCode="XX" stationCode="G4" channelCode="DPN"></waveformID>
        <phaseHint>P</phaseHint>
      </pick>
      <pick publicID="smi:local/21eb98a5-b0e3-4c5c-ad09-6964112cd3f7">
        <time>
          <value>2020-02-18T12:42:25.046800Z</value>
          <uncertainty>0.05</uncertainty>
        </time>
        <waveformID networkCode="XX" stationCode="F0703" channelCode="DPE"></waveformID>
        <phaseHint>S</phaseHint>
      </pick>
      <pick publicID="smi:local/0028ae46-cb18-46ad-be35-d02d5bcee862">
        <time>
          <value>2020-02-18T12:42:24.972800Z</value>
          <uncertainty>0.05</uncertainty>
        </time>
        <waveformID networkCode="XX" stationCode="G18" channelCode="DPZ"></waveformID>
        <phaseHint>S</phaseHint>
      </pick>
      <pick publicID="smi:local/3cf6d8ef-d7ba-4031-994c-9cfcbbac0a09">
        <time>
          <value>2020-02-18T12:42:24.957600Z</value>
          <uncertainty>0.05</uncertainty>
        </time>
        <waveformID networkCode="XX" stationCode="G1" channelCode="DPZ"></waveformID>
        <phaseHint>S</phaseHint>
      </pick>
      <pick publicID="smi:local/99fd3079-e13d-4afe-a0cd-87d24fce9059">
        <time>
          <value>2020-02-18T12:42:24.965700Z</value>
          <uncertainty>0.05</uncertainty>
        </time>
        <waveformID networkCode="XX" stationCode="G13" channelCode="DPZ"></waveformID>
        <phaseHint>S</phaseHint>
      </pick>
      <pick publicID="smi:local/c39a8060-f680-43c3-ada4-1318432fc399">
        <time>
          <value>2020-02-18T12:42:24.970600Z</value>
          <uncertainty>0.05</uncertainty>
        </time>
        <waveformID networkCode="XX" stationCode="G17" channelCode="DPZ"></waveformID>
        <phaseHint>S</phaseHint>
      </pick>
      <pick publicID="smi:local/613dc3a5-4459-4b3a-b76d-8330b5c9635d">
        <time>
          <value>2020-02-18T12:42:24.956800Z</value>
          <uncertainty>0.05</uncertainty>
        </time>
        <waveformID networkCode="XX" stationCode="C0404" channelCode="DPE"></waveformID>
        <phaseHint>S</phaseHint>
      </pick>
      <pick publicID="smi:local/8c21f103-8494-4165-9438-bb16a8a0dc87">
        <time>
          <value>2020-02-18T12:42:24.960500Z</value>
          <uncertainty>0.05</uncertainty>
        </time>
        <waveformID networkCode="XX" stationCode="G2" channelCode="DPZ"></waveformID>
        <phaseHint>S</phaseHint>
      </pick>
      <pick publicID="smi:local/6641b607-8506-482d-863a-db6b498985c5">
        <time>
          <value>2020-02-18T12:42:24.963300Z</value>
          <uncertainty>0.05</uncertainty>
        </time>
        <waveformID networkCode="XX" stationCode="G8" channelCode="DPZ"></waveformID>
        <phaseHint>S</phaseHint>
      </pick>
      <pick publicID="smi:local/e1df9716-0d0c-4061-8b3a-6783b472b43f">
        <time>
          <value>2020-02-18T12:42:24.962000Z</value>
          <uncertainty>0.05</uncertainty>
        </time>
        <waveformID networkCode="XX" stationCode="G6" channelCode="DPZ"></waveformID>
        <phaseHint>S</phaseHint>
      </pick>
      <pick publicID="smi:local/e5e64676-af56-48c8-94fa-cb43b7ac6e65">
        <time>
          <value>2020-02-18T12:42:24.963900Z</value>
          <uncertainty>0.05</uncertainty>
        </time>
        <waveformID networkCode="XX" stationCode="G14" channelCode="DPZ"></waveformID>
        <phaseHint>S</phaseHint>
      </pick>
      <pick publicID="smi:local/78562fbe-c8e3-46e0-89cc-e9115d47e420">
        <time>
          <value>2020-02-18T12:42:24.963100Z</value>
          <uncertainty>0.05</uncertainty>
        </time>
        <waveformID networkCode="XX" stationCode="G11" channelCode="DPZ"></waveformID>
        <phaseHint>S</phaseHint>
      </pick>
      <pick publicID="smi:local/23e26495-b393-448e-b12f-98303b5fb927">
        <time>
          <value>2020-02-18T12:42:24.965500Z</value>
          <uncertainty>0.05</uncertainty>
        </time>
        <waveformID networkCode="XX" stationCode="G12" channelCode="DPZ"></waveformID>
        <phaseHint>S</phaseHint>
      </pick>
      <pick publicID="smi:local/df84497a-188f-432b-8c16-e96646e4a9e4">
        <time>
          <value>2020-02-18T12:42:24.960000Z</value>
          <uncertainty>0.05</uncertainty>
        </time>
        <waveformID networkCode="XX" stationCode="G5" channelCode="DPZ"></waveformID>
        <phaseHint>S</phaseHint>
      </pick>
      <pick publicID="smi:local/b3fbe4ad-6769-4810-b58f-62c6575c42f9">
        <time>
          <value>2020-02-18T12:42:25.037700Z</value>
          <uncertainty>0.05</uncertainty>
        </time>
        <waveformID networkCode="XX" stationCode="G15" channelCode="DPZ"></waveformID>
        <phaseHint>P</phaseHint>
      </pick>
    </event>
  </eventParameters>
</q:quakeml>
