<?xml version='1.0' encoding='utf-8'?>
<q:quakeml xmlns="http://quakeml.org/xmlns/bed/1.2" xmlns:q="http://quakeml.org/xmlns/quakeml/1.2">
  <eventParameters publicID="smi:local/47157137-e6f1-4249-bc26-ce88dfbd21dc">
    <event publicID="smi:local/0a0b09c9-67a2-4d38-afc0-b4b2a6982615">
      <preferredOriginID>smi:local/016ef734-9185-4b58-b6d9-a2bb14b8db71</preferredOriginID>
      <comment>
        <text>CaMI.FRS microseismicity</text>
      </comment>
      <comment id="smi:local/546c1b43-0e56-4ca7-8206-7ab68eac08bc">
        <text>eqcorrscan_template_2020_03_18t03_45_08</text>
      </comment>
      <creationInfo>
        <author>Genevieve Savard   obs:./obs_picked5/merged.obs   NLLoc:v7.00.00(27Oct2017)</author>
        <creationTime>2020-09-18T19:57:16.000000Z</creationTime>
      </creationInfo>
      <origin publicID="smi:local/016ef734-9185-4b58-b6d9-a2bb14b8db71">
        <time>
          <value>2020-03-18T03:45:09.067555Z</value>
        </time>
        <latitude>
          <value>50.45024</value>
          <uncertainty>0.0004547224745314421</uncertainty>
        </latitude>
        <longitude>
          <value>-112.120937</value>
          <uncertainty>0.00046368205697414283</uncertainty>
        </longitude>
        <depth>
          <value>224.219</value>
          <uncertainty>41.613939972081475</uncertainty>
          <confidenceLevel>68.0</confidenceLevel>
        </depth>
        <depthType>from location</depthType>
        <quality>
          <associatedPhaseCount>13</associatedPhaseCount>
          <usedPhaseCount>13</usedPhaseCount>
          <associatedStationCount>-1</associatedStationCount>
          <usedStationCount>13</usedStationCount>
          <depthPhaseCount>-1</depthPhaseCount>
          <standardError>0.0322906</standardError>
          <azimuthalGap>360.0</azimuthalGap>
          <secondaryAzimuthalGap>360.0</secondaryAzimuthalGap>
          <groundTruthLevel>-</groundTruthLevel>
          <minimumDistance>8.178529609601587e-05</minimumDistance>
          <maximumDistance>8.178529609601587e-05</maximumDistance>
          <medianDistance>8.178529609601587e-05</medianDistance>
        </quality>
        <comment>
          <text>Note: Depth/Latitude/Longitude errors are calculated from covariance matrix as 1D marginal (Lon/Lat errors as great circle degrees) while OriginUncertainty min/max horizontal errors are calculated from 2D error ellipsoid and are therefore seemingly higher compared to 1D errors. Error estimates can be reconstructed from the following original NonLinLoc error statistics line:
STATISTICS ExpectX -0.0167596 Y -0.0112698 Z 0.221953  CovXX 0.00265834 XY -8.76277e-06 XZ 5.04909e-05 YY 0.0025566 YZ -3.16676e-05 ZZ 0.00173172 EllAz1  124.924 Dip1  -86.2384 Len1  0.0780971 Az2  5.83509 Dip2  -1.83078 Len2  0.0950012 Len3  9.693980e-02</text>
        </comment>
        <creationInfo>
          <author>Genevieve Savard   obs:./obs_picked5/merged.obs   NLLoc:v7.00.00(27Oct2017)</author>
          <creationTime>2020-09-18T19:57:16.000000Z</creationTime>
        </creationInfo>
        <originUncertainty>
          <preferredDescription>uncertainty ellipse</preferredDescription>
          <minHorizontalUncertainty>76.67110000000001</minHorizontalUncertainty>
          <maxHorizontalUncertainty>78.2043</maxHorizontalUncertainty>
          <azimuthMaxHorizontalUncertainty>94.8868</azimuthMaxHorizontalUncertainty>
          <confidenceLevel>68.0</confidenceLevel>
        </originUncertainty>
        <arrival publicID="smi:local/e470297d-8a4c-419a-9207-e7589d763d86">
          <pickID>smi:local/c16da2b3-ab11-4fb5-a9d2-22aa0f32ae6a</pickID>
          <phase>S</phase>
          <azimuth>359.0</azimuth>
          <distance>8.183826613860448e-05</distance>
          <takeoffAngle>
            <value>-1.0</value>
          </takeoffAngle>
          <timeResidual>-0.0395</timeResidual>
          <timeWeight>1.0</timeWeight>
        </arrival>
        <arrival publicID="smi:local/d767dce6-36ff-4f08-a0d6-2e3e3acb1eba">
          <pickID>smi:local/4c6d3215-29c9-47cb-bb19-bdb5fc1ab2da</pickID>
          <phase>S</phase>
          <azimuth>359.0</azimuth>
          <distance>8.183826613860448e-05</distance>
          <takeoffAngle>
            <value>-1.0</value>
          </takeoffAngle>
          <timeResidual>-0.0302</timeResidual>
          <timeWeight>1.0</timeWeight>
        </arrival>
        <arrival publicID="smi:local/cdd05441-497e-4b3b-a024-ab646a12725c">
          <pickID>smi:local/1b85e7b5-284d-4f5d-8b0d-afc21d0d945c</pickID>
          <phase>S</phase>
          <azimuth>359.0</azimuth>
          <distance>8.183826613860448e-05</distance>
          <takeoffAngle>
            <value>-1.0</value>
          </takeoffAngle>
          <timeResidual>-0.0164</timeResidual>
          <timeWeight>1.0</timeWeight>
        </arrival>
        <arrival publicID="smi:local/69790093-70d2-4ebe-a3a1-727847c4d774">
          <pickID>smi:local/cd8a7fdc-3b05-40b1-9638-a1ae26ab960b</pickID>
          <phase>S</phase>
          <azimuth>359.0</azimuth>
          <distance>8.183826613860448e-05</distance>
          <takeoffAngle>
            <value>-1.0</value>
          </takeoffAngle>
          <timeResidual>-0.0066</timeResidual>
          <timeWeight>1.0</timeWeight>
        </arrival>
        <arrival publicID="smi:local/462fd045-f56f-485f-8c4a-f970d6778ee2">
          <pickID>smi:local/25b979b2-37c5-4246-aab2-efb04d96b82e</pickID>
          <phase>S</phase>
          <azimuth>359.0</azimuth>
          <distance>8.183826613860448e-05</distance>
          <takeoffAngle>
            <value>-1.0</value>
          </takeoffAngle>
          <timeResidual>-0.007</timeResidual>
          <timeWeight>1.0</timeWeight>
        </arrival>
        <arrival publicID="smi:local/cdd26a1c-4df7-454a-8ac9-b63789c30469">
          <pickID>smi:local/b47227c3-50b4-4ca7-ae98-6002749bec89</pickID>
          <phase>S</phase>
          <azimuth>359.0</azimuth>
          <distance>8.183826613860448e-05</distance>
          <takeoffAngle>
            <value>-1.0</value>
          </takeoffAngle>
          <timeResidual>-0.0086</timeResidual>
          <timeWeight>1.0</timeWeight>
        </arrival>
        <arrival publicID="smi:local/6a567bfc-759c-49f0-b9ab-89a35096db38">
          <pickID>smi:local/cbdd198f-9a7e-4f2b-90f0-83711e76ace3</pickID>
          <phase>S</phase>
          <azimuth>359.0</azimuth>
          <distance>8.183826613860448e-05</distance>
          <takeoffAngle>
            <value>-1.0</value>
          </takeoffAngle>
          <timeResidual>-0.0155</timeResidual>
          <timeWeight>1.0</timeWeight>
        </arrival>
        <arrival publicID="smi:local/8f20be1a-1ab9-463d-a195-58f2713dd223">
          <pickID>smi:local/502d1190-f1ea-4395-ac67-9afb32ba95aa</pickID>
          <phase>S</phase>
          <azimuth>359.0</azimuth>
          <distance>8.183826613860448e-05</distance>
          <takeoffAngle>
            <value>-1.0</value>
          </takeoffAngle>
          <timeResidual>-0.0145</timeResidual>
          <timeWeight>1.0</timeWeight>
        </arrival>
        <arrival publicID="smi:local/eecd1bd6-8360-4488-9899-c23c08fcb12c">
          <pickID>smi:local/40ded2a1-7984-49a7-ac36-65e99a6ce675</pickID>
          <phase>S</phase>
          <azimuth>359.0</azimuth>
          <distance>8.183826613860448e-05</distance>
          <takeoffAngle>
            <value>-1.0</value>
          </takeoffAngle>
          <timeResidual>-0.0147</timeResidual>
          <timeWeight>1.0</timeWeight>
        </arrival>
        <arrival publicID="smi:local/44450897-8ff2-4cd3-ac99-23e07f0067c3">
          <pickID>smi:local/ecc7dfa2-118d-4fff-a28a-1511544ee4b4</pickID>
          <phase>S</phase>
          <azimuth>359.0</azimuth>
          <distance>8.183826613860448e-05</distance>
          <takeoffAngle>
            <value>-1.0</value>
          </takeoffAngle>
          <timeResidual>-0.0165</timeResidual>
          <timeWeight>1.0</timeWeight>
        </arrival>
        <arrival publicID="smi:local/8909f5ee-1515-4d3f-a27c-0c7acc3ca8a7">
          <pickID>smi:local/579c7acf-b292-490b-b739-6e72402abfc5</pickID>
          <phase>P</phase>
          <azimuth>359.0</azimuth>
          <distance>8.183826613860448e-05</distance>
          <takeoffAngle>
            <value>-1.0</value>
          </takeoffAngle>
          <timeResidual>0.0524</timeResidual>
          <timeWeight>1.0</timeWeight>
        </arrival>
        <arrival publicID="smi:local/8aaa2181-c49b-4b85-8507-ec1e0883d316">
          <pickID>smi:local/83fd9d52-d82f-42bf-a4a6-3e03b343d5ce</pickID>
          <phase>P</phase>
          <azimuth>359.0</azimuth>
          <distance>8.183826613860448e-05</distance>
          <takeoffAngle>
            <value>-1.0</value>
          </takeoffAngle>
          <timeResidual>0.0518</timeResidual>
          <timeWeight>1.0</timeWeight>
        </arrival>
        <arrival publicID="smi:local/60c822d8-a37b-4d23-9586-7d32f5f26002">
          <pickID>smi:local/214dea74-61bb-4738-8dae-71a91ad77663</pickID>
          <phase>P</phase>
          <azimuth>359.0</azimuth>
          <distance>8.183826613860448e-05</distance>
          <takeoffAngle>
            <value>-1.0</value>
          </takeoffAngle>
          <timeResidual>0.0654</timeResidual>
          <timeWeight>1.0</timeWeight>
        </arrival>
      </origin>
      <pick publicID="smi:local/cbdd198f-9a7e-4f2b-90f0-83711e76ace3">
        <time>
          <value>2020-03-18T03:45:09.080000Z</value>
          <uncertainty>0.05</uncertainty>
        </time>
        <waveformID networkCode="XX" stationCode="G14" channelCode="DPZ"></waveformID>
        <phaseHint>S</phaseHint>
      </pick>
      <pick publicID="smi:local/502d1190-f1ea-4395-ac67-9afb32ba95aa">
        <time>
          <value>2020-03-18T03:45:09.084900Z</value>
          <uncertainty>0.05</uncertainty>
        </time>
        <waveformID networkCode="XX" stationCode="G15" channelCode="DPZ"></waveformID>
        <phaseHint>S</phaseHint>
      </pick>
      <pick publicID="smi:local/cd8a7fdc-3b05-40b1-9638-a1ae26ab960b">
        <time>
          <value>2020-03-18T03:45:09.072300Z</value>
          <uncertainty>0.05</uncertainty>
        </time>
        <waveformID networkCode="XX" stationCode="G8" channelCode="DPZ"></waveformID>
        <phaseHint>S</phaseHint>
      </pick>
      <pick publicID="smi:local/c16da2b3-ab11-4fb5-a9d2-22aa0f32ae6a">
        <time>
          <value>2020-03-18T03:45:09.057100Z</value>
          <uncertainty>0.05</uncertainty>
        </time>
        <waveformID networkCode="XX" stationCode="G1" channelCode="DPZ"></waveformID>
        <phaseHint>S</phaseHint>
      </pick>
      <pick publicID="smi:local/25b979b2-37c5-4246-aab2-efb04d96b82e">
        <time>
          <value>2020-03-18T03:45:09.077900Z</value>
          <uncertainty>0.05</uncertainty>
        </time>
        <waveformID networkCode="XX" stationCode="G11" channelCode="DPZ"></waveformID>
        <phaseHint>S</phaseHint>
      </pick>
      <pick publicID="smi:local/4c6d3215-29c9-47cb-bb19-bdb5fc1ab2da">
        <time>
          <value>2020-03-18T03:45:09.062900Z</value>
          <uncertainty>0.05</uncertainty>
        </time>
        <waveformID networkCode="XX" stationCode="G2" channelCode="DPZ"></waveformID>
        <phaseHint>S</phaseHint>
      </pick>
      <pick publicID="smi:local/b47227c3-50b4-4ca7-ae98-6002749bec89">
        <time>
          <value>2020-03-18T03:45:09.079500Z</value>
          <uncertainty>0.05</uncertainty>
        </time>
        <waveformID networkCode="XX" stationCode="G12" channelCode="DPZ"></waveformID>
        <phaseHint>S</phaseHint>
      </pick>
      <pick publicID="smi:local/40ded2a1-7984-49a7-ac36-65e99a6ce675">
        <time>
          <value>2020-03-18T03:45:09.092700Z</value>
          <uncertainty>0.05</uncertainty>
        </time>
        <waveformID networkCode="XX" stationCode="G17" channelCode="DPZ"></waveformID>
        <phaseHint>S</phaseHint>
      </pick>
      <pick publicID="smi:local/1b85e7b5-284d-4f5d-8b0d-afc21d0d945c">
        <time>
          <value>2020-03-18T03:45:09.069400Z</value>
          <uncertainty>0.05</uncertainty>
        </time>
        <waveformID networkCode="XX" stationCode="G6" channelCode="DPZ"></waveformID>
        <phaseHint>S</phaseHint>
      </pick>
      <pick publicID="smi:local/214dea74-61bb-4738-8dae-71a91ad77663">
        <time>
          <value>2020-03-18T03:45:09.143700Z</value>
          <uncertainty>0.05</uncertainty>
        </time>
        <waveformID networkCode="XX" stationCode="G13" channelCode="DPZ"></waveformID>
        <phaseHint>P</phaseHint>
      </pick>
      <pick publicID="smi:local/83fd9d52-d82f-42bf-a4a6-3e03b343d5ce">
        <time>
          <value>2020-03-18T03:45:09.129600Z</value>
          <uncertainty>0.05</uncertainty>
        </time>
        <waveformID networkCode="XX" stationCode="G4" channelCode="DPN"></waveformID>
        <phaseHint>P</phaseHint>
      </pick>
      <pick publicID="smi:local/579c7acf-b292-490b-b739-6e72402abfc5">
        <time>
          <value>2020-03-18T03:45:09.129300Z</value>
          <uncertainty>0.05</uncertainty>
        </time>
        <waveformID networkCode="XX" stationCode="G5" channelCode="DPN"></waveformID>
        <phaseHint>P</phaseHint>
      </pick>
      <pick publicID="smi:local/ecc7dfa2-118d-4fff-a28a-1511544ee4b4">
        <time>
          <value>2020-03-18T03:45:09.094900Z</value>
          <uncertainty>0.05</uncertainty>
        </time>
        <waveformID networkCode="XX" stationCode="G18" channelCode="DPZ"></waveformID>
        <phaseHint>S</phaseHint>
      </pick>
    </event>
  </eventParameters>
</q:quakeml>
