<?xml version='1.0' encoding='utf-8'?>
<q:quakeml xmlns="http://quakeml.org/xmlns/bed/1.2" xmlns:q="http://quakeml.org/xmlns/quakeml/1.2">
  <eventParameters publicID="smi:local/43a49b60-907d-408c-a30a-6b86138c4133">
    <event publicID="smi:local/baa56595-769b-4559-b3c3-9f776ab5ddaf">
      <preferredOriginID>smi:local/6971771f-4dc3-4698-b42b-76dcf3f42c7f</preferredOriginID>
      <comment>
        <text>CaMI.FRS microseismicity</text>
      </comment>
      <comment id="smi:local/bb039764-3d44-409a-9ce1-a3d1e6078e9f">
        <text>eqcorrscan_template_2020_03_10t08_05_50</text>
      </comment>
      <creationInfo>
        <author>Genevieve Savard   obs:./obs_picked2/merged.obs   NLLoc:v7.00.00(27Oct2017)</author>
        <creationTime>2020-08-21T16:18:07.000000Z</creationTime>
      </creationInfo>
      <origin publicID="smi:local/6971771f-4dc3-4698-b42b-76dcf3f42c7f">
        <time>
          <value>2020-03-10T08:05:52.372627Z</value>
        </time>
        <latitude>
          <value>50.453473</value>
          <uncertainty>6.097062238319881e-06</uncertainty>
        </latitude>
        <longitude>
          <value>-112.125749</value>
          <uncertainty>6.099283732226305e-06</uncertainty>
        </longitude>
        <depth>
          <value>0.391</value>
          <uncertainty>0.2261333677279848</uncertainty>
          <confidenceLevel>68.0</confidenceLevel>
        </depth>
        <depthType>from location</depthType>
        <quality>
          <associatedPhaseCount>17</associatedPhaseCount>
          <usedPhaseCount>17</usedPhaseCount>
          <associatedStationCount>-1</associatedStationCount>
          <usedStationCount>14</usedStationCount>
          <depthPhaseCount>-1</depthPhaseCount>
          <standardError>0.524173</standardError>
          <azimuthalGap>211.516</azimuthalGap>
          <secondaryAzimuthalGap>284.319</secondaryAzimuthalGap>
          <groundTruthLevel>-</groundTruthLevel>
          <minimumDistance>5.9738696723399964e-05</minimumDistance>
          <maximumDistance>0.0071935835935833334</maximumDistance>
          <medianDistance>0.004720107435096575</medianDistance>
        </quality>
        <comment>
          <text>Note: Depth/Latitude/Longitude errors are calculated from covariance matrix as 1D marginal (Lon/Lat errors as great circle degrees) while OriginUncertainty min/max horizontal errors are calculated from 2D error ellipsoid and are therefore seemingly higher compared to 1D errors. Error estimates can be reconstructed from the following original NonLinLoc error statistics line:
STATISTICS ExpectX -0.359335 Y 0.3403 Z 0.000392766  CovXX 4.59968e-07 XY -1.65049e-09 XZ 2.15791e-09 YY 4.59633e-07 YZ -4.15123e-10 ZZ 5.11363e-08 EllAz1  100.683 Dip1  -89.6925 Len1  0.000424817 Az2  222.01 Dip2  -0.159886 Len2  0.00127171 Len3  1.276316e-03</text>
        </comment>
        <creationInfo>
          <author>Genevieve Savard   obs:./obs_picked2/merged.obs   NLLoc:v7.00.00(27Oct2017)</author>
          <creationTime>2020-08-21T16:18:07.000000Z</creationTime>
        </creationInfo>
        <originUncertainty>
          <preferredDescription>uncertainty ellipse</preferredDescription>
          <minHorizontalUncertainty>1.02651</minHorizontalUncertainty>
          <maxHorizontalUncertainty>1.0302200000000001</maxHorizontalUncertainty>
          <azimuthMaxHorizontalUncertainty>132.101</azimuthMaxHorizontalUncertainty>
          <confidenceLevel>68.0</confidenceLevel>
        </originUncertainty>
        <arrival publicID="smi:local/124bfd86-4d91-4247-b6e1-c6abe77a7b7b">
          <pickID>smi:local/e2d1138b-bb71-4606-87bd-786c24d14f06</pickID>
          <phase>S</phase>
          <azimuth>359.0</azimuth>
          <distance>5.9355225990636215e-05</distance>
          <takeoffAngle>
            <value>-1.0</value>
          </takeoffAngle>
          <timeResidual>-1.4016</timeResidual>
          <timeWeight>1.9284</timeWeight>
        </arrival>
        <arrival publicID="smi:local/c91a5f76-a1ca-4e12-af70-4cfed8be3cb5">
          <pickID>smi:local/7d667e3c-1698-4e20-9c41-6b2ce133c143</pickID>
          <phase>P</phase>
          <azimuth>359.0</azimuth>
          <distance>0.00399568589509692</distance>
          <takeoffAngle>
            <value>-1.0</value>
          </takeoffAngle>
          <timeResidual>0.4063</timeResidual>
          <timeWeight>0.3695</timeWeight>
        </arrival>
        <arrival publicID="smi:local/d767ae6e-51dc-4672-b517-e73b12309650">
          <pickID>smi:local/332d7132-e82c-493d-bfa6-6f5956c13b10</pickID>
          <phase>S</phase>
          <azimuth>359.0</azimuth>
          <distance>0.00399568589509692</distance>
          <takeoffAngle>
            <value>-1.0</value>
          </takeoffAngle>
          <timeResidual>0.1341</timeResidual>
          <timeWeight>0.4149</timeWeight>
        </arrival>
        <arrival publicID="smi:local/28641432-24e9-40c0-840a-0d61fdc89934">
          <pickID>smi:local/4d882e0d-56e2-476b-838b-b6b722190b7f</pickID>
          <phase>S</phase>
          <azimuth>359.0</azimuth>
          <distance>0.004249294587966001</distance>
          <takeoffAngle>
            <value>-1.0</value>
          </takeoffAngle>
          <timeResidual>1.1255</timeResidual>
          <timeWeight>0.2448</timeWeight>
        </arrival>
        <arrival publicID="smi:local/da385e58-6803-4623-90f1-7b7e7bdb5c0e">
          <pickID>smi:local/05800f44-af98-41a9-b2b3-88663cf470ba</pickID>
          <phase>S</phase>
          <azimuth>359.0</azimuth>
          <distance>0.0044291589091497476</distance>
          <takeoffAngle>
            <value>-1.0</value>
          </takeoffAngle>
          <timeResidual>0.1243</timeResidual>
          <timeWeight>0.4689</timeWeight>
        </arrival>
        <arrival publicID="smi:local/07c73cd3-62c9-49a6-8e93-58cd6c1c2c4a">
          <pickID>smi:local/787dc969-6e93-493d-a3fd-79e5a903c90f</pickID>
          <phase>S</phase>
          <azimuth>359.0</azimuth>
          <distance>0.004449843306085879</distance>
          <takeoffAngle>
            <value>-1.0</value>
          </takeoffAngle>
          <timeResidual>0.2246</timeResidual>
          <timeWeight>0.6113</timeWeight>
        </arrival>
        <arrival publicID="smi:local/56e2a45d-4b01-4e22-8522-d7d9db0c7a0c">
          <pickID>smi:local/f84b963f-beda-4b45-ab9a-7de7472bad60</pickID>
          <phase>S</phase>
          <azimuth>359.0</azimuth>
          <distance>0.00447052770302201</distance>
          <takeoffAngle>
            <value>-1.0</value>
          </takeoffAngle>
          <timeResidual>0.1905</timeResidual>
          <timeWeight>0.7062</timeWeight>
        </arrival>
        <arrival publicID="smi:local/6ca126df-20bf-4c94-a835-f33716739b3f">
          <pickID>smi:local/09df0ea5-9998-46ce-b38a-e38e6353cc5e</pickID>
          <phase>S</phase>
          <azimuth>359.0</azimuth>
          <distance>0.004632405592087381</distance>
          <takeoffAngle>
            <value>-1.0</value>
          </takeoffAngle>
          <timeResidual>0.1498</timeResidual>
          <timeWeight>0.9586</timeWeight>
        </arrival>
        <arrival publicID="smi:local/62a6870e-e5a3-4420-b65e-9e01c1e7e040">
          <pickID>smi:local/d26b36b1-9392-4d39-a1b8-b862f5d40d05</pickID>
          <phase>P</phase>
          <azimuth>359.0</azimuth>
          <distance>0.004807773305241533</distance>
          <takeoffAngle>
            <value>-1.0</value>
          </takeoffAngle>
          <timeResidual>0.2381</timeResidual>
          <timeWeight>2.2936</timeWeight>
        </arrival>
        <arrival publicID="smi:local/c0a11720-319e-4e60-95ec-ffbf4b4e6692">
          <pickID>smi:local/7d4d63bc-d065-4bdf-80df-203ab7a9716c</pickID>
          <phase>S</phase>
          <azimuth>359.0</azimuth>
          <distance>0.004807773305241533</distance>
          <takeoffAngle>
            <value>-1.0</value>
          </takeoffAngle>
          <timeResidual>-0.0351</timeResidual>
          <timeWeight>0.5937</timeWeight>
        </arrival>
        <arrival publicID="smi:local/45274d53-ebcc-4349-96a4-5ac6c229f544">
          <pickID>smi:local/c78a41c3-3d96-4894-a3f2-a93535bd6093</pickID>
          <phase>S</phase>
          <azimuth>359.0</azimuth>
          <distance>0.004844645491084201</distance>
          <takeoffAngle>
            <value>-1.0</value>
          </takeoffAngle>
          <timeResidual>0.3053</timeResidual>
          <timeWeight>0.8227</timeWeight>
        </arrival>
        <arrival publicID="smi:local/32d0dfc8-c75f-4548-bb94-0e90621863eb">
          <pickID>smi:local/46d659a7-6778-4fcd-b0fb-b4d2988e3313</pickID>
          <phase>S</phase>
          <azimuth>359.0</azimuth>
          <distance>0.004882416998532788</distance>
          <takeoffAngle>
            <value>-1.0</value>
          </takeoffAngle>
          <timeResidual>0.1506</timeResidual>
          <timeWeight>1.3585</timeWeight>
        </arrival>
        <arrival publicID="smi:local/cea0f089-7313-465d-9d25-26c95b513a8c">
          <pickID>smi:local/4e2c75a6-356e-400a-8dea-fd9dd5932f36</pickID>
          <phase>P</phase>
          <azimuth>359.0</azimuth>
          <distance>0.005424707926901782</distance>
          <takeoffAngle>
            <value>-1.0</value>
          </takeoffAngle>
          <timeResidual>0.2373</timeResidual>
          <timeWeight>2.3387</timeWeight>
        </arrival>
        <arrival publicID="smi:local/44279f23-d889-4c58-9abc-0050389ec7de">
          <pickID>smi:local/1052f6dc-900b-4c55-8e43-d083de0a44c2</pickID>
          <phase>S</phase>
          <azimuth>359.0</azimuth>
          <distance>0.005424707926901782</distance>
          <takeoffAngle>
            <value>-1.0</value>
          </takeoffAngle>
          <timeResidual>-0.0673</timeResidual>
          <timeWeight>1.32</timeWeight>
        </arrival>
        <arrival publicID="smi:local/21eb3782-e2a9-4b42-9109-86918b8bd043">
          <pickID>smi:local/50b794d3-4d07-41bf-81c6-b7cf9435245d</pickID>
          <phase>S</phase>
          <azimuth>359.0</azimuth>
          <distance>0.006243090588287828</distance>
          <takeoffAngle>
            <value>-1.0</value>
          </takeoffAngle>
          <timeResidual>0.0374</timeResidual>
          <timeWeight>0.6113</timeWeight>
        </arrival>
        <arrival publicID="smi:local/31580f90-fe9f-4fa3-a9fd-2aa79f8bff13">
          <pickID>smi:local/43bc011b-3430-413b-a828-fcf8096d1840</pickID>
          <phase>S</phase>
          <azimuth>359.0</azimuth>
          <distance>0.006338418678515213</distance>
          <takeoffAngle>
            <value>-1.0</value>
          </takeoffAngle>
          <timeResidual>0.0991</timeResidual>
          <timeWeight>0.8227</timeWeight>
        </arrival>
        <arrival publicID="smi:local/12d2b754-2613-4479-9ae3-4f5e26b744aa">
          <pickID>smi:local/5e1851d1-8a10-403c-98fa-e619d8c95649</pickID>
          <phase>S</phase>
          <azimuth>359.0</azimuth>
          <distance>0.007193673525743926</distance>
          <takeoffAngle>
            <value>-1.0</value>
          </takeoffAngle>
          <timeResidual>0.1727</timeResidual>
          <timeWeight>1.1363</timeWeight>
        </arrival>
      </origin>
      <pick publicID="smi:local/4e2c75a6-356e-400a-8dea-fd9dd5932f36">
        <time>
          <value>2020-03-10T08:05:52.955600Z</value>
          <uncertainty>0.0078</uncertainty>
        </time>
        <waveformID networkCode="XX" stationCode="F0203" channelCode="DPZ"></waveformID>
        <phaseHint>P</phaseHint>
      </pick>
      <pick publicID="smi:local/1052f6dc-900b-4c55-8e43-d083de0a44c2">
        <time>
          <value>2020-03-10T08:05:53.148600Z</value>
          <uncertainty>0.0136</uncertainty>
        </time>
        <waveformID networkCode="XX" stationCode="F0203" channelCode="DPN"></waveformID>
        <phaseHint>S</phaseHint>
      </pick>
      <pick publicID="smi:local/09df0ea5-9998-46ce-b38a-e38e6353cc5e">
        <time>
          <value>2020-03-10T08:05:53.295800Z</value>
          <uncertainty>0.0171</uncertainty>
        </time>
        <waveformID networkCode="XX" stationCode="C0704" channelCode="DPE"></waveformID>
        <phaseHint>S</phaseHint>
      </pick>
      <pick publicID="smi:local/50b794d3-4d07-41bf-81c6-b7cf9435245d">
        <time>
          <value>2020-03-10T08:05:53.324500Z</value>
          <uncertainty>0.0227</uncertainty>
        </time>
        <waveformID networkCode="XX" stationCode="F0102" channelCode="DPE"></waveformID>
        <phaseHint>S</phaseHint>
      </pick>
      <pick publicID="smi:local/05800f44-af98-41a9-b2b3-88663cf470ba">
        <time>
          <value>2020-03-10T08:05:53.252200Z</value>
          <uncertainty>0.0265</uncertainty>
        </time>
        <waveformID networkCode="XX" stationCode="C0404" channelCode="DPE"></waveformID>
        <phaseHint>S</phaseHint>
      </pick>
      <pick publicID="smi:local/e2d1138b-bb71-4606-87bd-786c24d14f06">
        <time>
          <value>2020-03-10T08:05:50.988500Z</value>
          <uncertainty>0.00975</uncertainty>
        </time>
        <waveformID networkCode="XX" stationCode="F0109" channelCode="DPZ"></waveformID>
        <phaseHint>S</phaseHint>
      </pick>
      <pick publicID="smi:local/4d882e0d-56e2-476b-838b-b6b722190b7f">
        <time>
          <value>2020-03-10T08:05:54.237500Z</value>
          <uncertainty>0.0379</uncertainty>
        </time>
        <waveformID networkCode="XX" stationCode="C0407" channelCode="DPE"></waveformID>
        <phaseHint>S</phaseHint>
      </pick>
      <pick publicID="smi:local/c78a41c3-3d96-4894-a3f2-a93535bd6093">
        <time>
          <value>2020-03-10T08:05:53.471900Z</value>
          <uncertainty>0.0189</uncertainty>
        </time>
        <waveformID networkCode="XX" stationCode="F0607" channelCode="DPZ"></waveformID>
        <phaseHint>S</phaseHint>
      </pick>
      <pick publicID="smi:local/5e1851d1-8a10-403c-98fa-e619d8c95649">
        <time>
          <value>2020-03-10T08:05:53.544000Z</value>
          <uncertainty>0.0152</uncertainty>
        </time>
        <waveformID networkCode="XX" stationCode="F0001" channelCode="DPN"></waveformID>
        <phaseHint>S</phaseHint>
      </pick>
      <pick publicID="smi:local/46d659a7-6778-4fcd-b0fb-b4d2988e3313">
        <time>
          <value>2020-03-10T08:05:53.318500Z</value>
          <uncertainty>0.0133</uncertainty>
        </time>
        <waveformID networkCode="XX" stationCode="C0902" channelCode="DPE"></waveformID>
        <phaseHint>S</phaseHint>
      </pick>
      <pick publicID="smi:local/43bc011b-3430-413b-a828-fcf8096d1840">
        <time>
          <value>2020-03-10T08:05:53.396200Z</value>
          <uncertainty>0.0189</uncertainty>
        </time>
        <waveformID networkCode="XX" stationCode="F0604" channelCode="DPZ"></waveformID>
        <phaseHint>S</phaseHint>
      </pick>
      <pick publicID="smi:local/787dc969-6e93-493d-a3fd-79e5a903c90f">
        <time>
          <value>2020-03-10T08:05:53.354500Z</value>
          <uncertainty>0.0227</uncertainty>
        </time>
        <waveformID networkCode="XX" stationCode="C0202" channelCode="DPE"></waveformID>
        <phaseHint>S</phaseHint>
      </pick>
      <pick publicID="smi:local/d26b36b1-9392-4d39-a1b8-b862f5d40d05">
        <time>
          <value>2020-03-10T08:05:52.930800Z</value>
          <uncertainty>0.008</uncertainty>
        </time>
        <waveformID networkCode="XX" stationCode="F0304" channelCode="DPN"></waveformID>
        <phaseHint>P</phaseHint>
      </pick>
      <pick publicID="smi:local/7d4d63bc-d065-4bdf-80df-203ab7a9716c">
        <time>
          <value>2020-03-10T08:05:53.127100Z</value>
          <uncertainty>0.0231</uncertainty>
        </time>
        <waveformID networkCode="XX" stationCode="F0304" channelCode="DPN"></waveformID>
        <phaseHint>S</phaseHint>
      </pick>
      <pick publicID="smi:local/f84b963f-beda-4b45-ab9a-7de7472bad60">
        <time>
          <value>2020-03-10T08:05:53.322300Z</value>
          <uncertainty>0.0208</uncertainty>
        </time>
        <waveformID networkCode="XX" stationCode="C0909" channelCode="DPE"></waveformID>
        <phaseHint>S</phaseHint>
      </pick>
      <pick publicID="smi:local/7d667e3c-1698-4e20-9c41-6b2ce133c143">
        <time>
          <value>2020-03-10T08:05:53.055100Z</value>
          <uncertainty>0.0303</uncertainty>
        </time>
        <waveformID networkCode="XX" stationCode="C0209" channelCode="DPZ"></waveformID>
        <phaseHint>P</phaseHint>
      </pick>
      <pick publicID="smi:local/332d7132-e82c-493d-bfa6-6f5956c13b10">
        <time>
          <value>2020-03-10T08:05:53.223800Z</value>
          <uncertainty>0.0284</uncertainty>
        </time>
        <waveformID networkCode="XX" stationCode="C0209" channelCode="DPE"></waveformID>
        <phaseHint>S</phaseHint>
      </pick>
    </event>
  </eventParameters>
</q:quakeml>
