<?xml version='1.0' encoding='utf-8'?>
<q:quakeml xmlns="http://quakeml.org/xmlns/bed/1.2" xmlns:q="http://quakeml.org/xmlns/quakeml/1.2">
  <eventParameters publicID="smi:local/f78d4c93-38e5-450f-ac92-05ffbf0821a0">
    <event publicID="smi:local/9c641702-e388-426e-bc66-317b43c4b3c1">
      <preferredOriginID>smi:local/edefd027-e1ff-435e-a893-20da02320412</preferredOriginID>
      <comment>
        <text>CaMI.FRS microseismicity</text>
      </comment>
      <comment id="smi:local/a5afe7c2-0ecc-4f7e-956c-5c7751f29536">
        <text>eqcorrscan_template_2020_03_18t05_59_15</text>
      </comment>
      <creationInfo>
        <author>Genevieve Savard   obs:./obs_picked5/merged.obs   NLLoc:v7.00.00(27Oct2017)</author>
        <creationTime>2020-09-18T19:57:22.000000Z</creationTime>
      </creationInfo>
      <origin publicID="smi:local/edefd027-e1ff-435e-a893-20da02320412">
        <time>
          <value>2020-03-18T05:59:14.880135Z</value>
        </time>
        <latitude>
          <value>50.450219</value>
          <uncertainty>0.002431806197966592</uncertainty>
        </latitude>
        <longitude>
          <value>-112.121499</value>
          <uncertainty>0.002439175067940069</uncertainty>
        </longitude>
        <depth>
          <value>843.75</value>
          <uncertainty>153.19627932818733</uncertainty>
          <confidenceLevel>68.0</confidenceLevel>
        </depth>
        <depthType>from location</depthType>
        <quality>
          <associatedPhaseCount>17</associatedPhaseCount>
          <usedPhaseCount>17</usedPhaseCount>
          <associatedStationCount>-1</associatedStationCount>
          <usedStationCount>17</usedStationCount>
          <depthPhaseCount>-1</depthPhaseCount>
          <standardError>0.118361</standardError>
          <azimuthalGap>360.0</azimuthalGap>
          <secondaryAzimuthalGap>360.0</secondaryAzimuthalGap>
          <groundTruthLevel>-</groundTruthLevel>
          <minimumDistance>0.000410446783654885</minimumDistance>
          <maximumDistance>0.000410446783654885</maximumDistance>
          <medianDistance>0.000410446783654885</medianDistance>
        </quality>
        <comment>
          <text>Note: Depth/Latitude/Longitude errors are calculated from covariance matrix as 1D marginal (Lon/Lat errors as great circle degrees) while OriginUncertainty min/max horizontal errors are calculated from 2D error ellipsoid and are therefore seemingly higher compared to 1D errors. Error estimates can be reconstructed from the following original NonLinLoc error statistics line:
STATISTICS ExpectX -0.05047 Y -0.0243404 Z 0.646027  CovXX 0.0735624 XY -0.000329882 XZ 0.00318709 YY 0.0731186 YZ 0.00112287 ZZ 0.0234691 EllAz1  250.139 Dip1  86.1384 Len1  0.286428 Az2  199.794 Dip2  -2.46657 Len2  0.50781 Len3  5.106056e-01</text>
        </comment>
        <creationInfo>
          <author>Genevieve Savard   obs:./obs_picked5/merged.obs   NLLoc:v7.00.00(27Oct2017)</author>
          <creationTime>2020-09-18T19:57:22.000000Z</creationTime>
        </creationInfo>
        <originUncertainty>
          <preferredDescription>uncertainty ellipse</preferredDescription>
          <minHorizontalUncertainty>409.596</minHorizontalUncertainty>
          <maxHorizontalUncertainty>411.822</maxHorizontalUncertainty>
          <azimuthMaxHorizontalUncertainty>118.035</azimuthMaxHorizontalUncertainty>
          <confidenceLevel>68.0</confidenceLevel>
        </originUncertainty>
        <arrival publicID="smi:local/8aac5405-8b9c-4d66-a501-2b61c3135097">
          <pickID>smi:local/a1a9d0a8-882e-4319-a578-c13b60853803</pickID>
          <phase>P</phase>
          <azimuth>359.0</azimuth>
          <distance>0.00041009065229894115</distance>
          <takeoffAngle>
            <value>-1.0</value>
          </takeoffAngle>
          <timeResidual>-0.03</timeResidual>
          <timeWeight>1.0</timeWeight>
        </arrival>
        <arrival publicID="smi:local/175c85ed-7122-4e1c-958b-ab28938fc2c2">
          <pickID>smi:local/29b22534-07e1-4775-9d9c-8510cfe2e882</pickID>
          <phase>P</phase>
          <azimuth>359.0</azimuth>
          <distance>0.00041009065229894115</distance>
          <takeoffAngle>
            <value>-1.0</value>
          </takeoffAngle>
          <timeResidual>-0.0223</timeResidual>
          <timeWeight>1.0</timeWeight>
        </arrival>
        <arrival publicID="smi:local/cd7c02e5-ee33-46ff-98e1-b3e67482d60c">
          <pickID>smi:local/9b358566-3c61-4298-88c9-6ef236c33410</pickID>
          <phase>P</phase>
          <azimuth>359.0</azimuth>
          <distance>0.00041009065229894115</distance>
          <takeoffAngle>
            <value>-1.0</value>
          </takeoffAngle>
          <timeResidual>-0.0168</timeResidual>
          <timeWeight>1.0</timeWeight>
        </arrival>
        <arrival publicID="smi:local/526f11f0-79e5-4664-8f32-2d3fe805a016">
          <pickID>smi:local/558e57f1-4aaa-4130-a4c1-916fd273dc41</pickID>
          <phase>P</phase>
          <azimuth>359.0</azimuth>
          <distance>0.00041009065229894115</distance>
          <takeoffAngle>
            <value>-1.0</value>
          </takeoffAngle>
          <timeResidual>-0.0114</timeResidual>
          <timeWeight>1.0</timeWeight>
        </arrival>
        <arrival publicID="smi:local/064a7fc8-505d-4b7f-a5ba-09e71480f5c6">
          <pickID>smi:local/3b93c80f-5144-4f37-b5ef-40fd1e63a333</pickID>
          <phase>S</phase>
          <azimuth>359.0</azimuth>
          <distance>0.00041009065229894115</distance>
          <takeoffAngle>
            <value>-1.0</value>
          </takeoffAngle>
          <timeResidual>-0.2069</timeResidual>
          <timeWeight>1.0</timeWeight>
        </arrival>
        <arrival publicID="smi:local/9d984fc3-437f-43e4-836d-719c6cb203f3">
          <pickID>smi:local/8e0f3740-2d76-4263-af21-ccdafad515d7</pickID>
          <phase>P</phase>
          <azimuth>359.0</azimuth>
          <distance>0.00041009065229894115</distance>
          <takeoffAngle>
            <value>-1.0</value>
          </takeoffAngle>
          <timeResidual>0.0077</timeResidual>
          <timeWeight>1.0</timeWeight>
        </arrival>
        <arrival publicID="smi:local/56860830-0ca8-4bc3-8bc5-57faf48f94a0">
          <pickID>smi:local/11f23d7b-c193-4fe2-9896-64f955dd672a</pickID>
          <phase>S</phase>
          <azimuth>359.0</azimuth>
          <distance>0.00041009065229894115</distance>
          <takeoffAngle>
            <value>-1.0</value>
          </takeoffAngle>
          <timeResidual>-0.1827</timeResidual>
          <timeWeight>1.0</timeWeight>
        </arrival>
        <arrival publicID="smi:local/2f816fe2-ba80-4921-a83b-1e02e20f5f70">
          <pickID>smi:local/6450a66e-f9cc-47bf-9475-d17132afbdf4</pickID>
          <phase>P</phase>
          <azimuth>359.0</azimuth>
          <distance>0.00041009065229894115</distance>
          <takeoffAngle>
            <value>-1.0</value>
          </takeoffAngle>
          <timeResidual>0.0166</timeResidual>
          <timeWeight>1.0</timeWeight>
        </arrival>
        <arrival publicID="smi:local/3a46412e-832a-45ef-9526-fa62f1f5ae92">
          <pickID>smi:local/b37a3b94-ee0a-4faa-9a40-17ab1e4f5b82</pickID>
          <phase>S</phase>
          <azimuth>359.0</azimuth>
          <distance>0.00041009065229894115</distance>
          <takeoffAngle>
            <value>-1.0</value>
          </takeoffAngle>
          <timeResidual>-0.1759</timeResidual>
          <timeWeight>1.0</timeWeight>
        </arrival>
        <arrival publicID="smi:local/cf441427-2aa3-48b2-9bab-515ba150dba2">
          <pickID>smi:local/f8ecf80c-7914-4d96-b199-586124db01fc</pickID>
          <phase>P</phase>
          <azimuth>359.0</azimuth>
          <distance>0.00041009065229894115</distance>
          <takeoffAngle>
            <value>-1.0</value>
          </takeoffAngle>
          <timeResidual>0.0235</timeResidual>
          <timeWeight>1.0</timeWeight>
        </arrival>
        <arrival publicID="smi:local/7f927205-a78e-4062-a3bb-9308b0f00f60">
          <pickID>smi:local/0be6dee1-fdc5-4379-b09e-22c46e9fd787</pickID>
          <phase>P</phase>
          <azimuth>359.0</azimuth>
          <distance>0.00041009065229894115</distance>
          <takeoffAngle>
            <value>-1.0</value>
          </takeoffAngle>
          <timeResidual>0.0304</timeResidual>
          <timeWeight>1.0</timeWeight>
        </arrival>
        <arrival publicID="smi:local/71bb227e-aa80-40bc-beae-b866989e0811">
          <pickID>smi:local/22e28de9-af62-432a-8dd7-becbe80b5592</pickID>
          <phase>S</phase>
          <azimuth>359.0</azimuth>
          <distance>0.00041009065229894115</distance>
          <takeoffAngle>
            <value>-1.0</value>
          </takeoffAngle>
          <timeResidual>-0.1463</timeResidual>
          <timeWeight>1.0</timeWeight>
        </arrival>
        <arrival publicID="smi:local/bc3d5f12-6830-40f1-b4ea-096744fecdae">
          <pickID>smi:local/2c1116dd-84c1-4b72-b565-864cd28bba77</pickID>
          <phase>S</phase>
          <azimuth>359.0</azimuth>
          <distance>0.00041009065229894115</distance>
          <takeoffAngle>
            <value>-1.0</value>
          </takeoffAngle>
          <timeResidual>0.1015</timeResidual>
          <timeWeight>1.0</timeWeight>
        </arrival>
        <arrival publicID="smi:local/db377160-eab7-4f3d-93da-8edce942cb29">
          <pickID>smi:local/a302282b-e044-4823-8c24-adb265f85fc1</pickID>
          <phase>S</phase>
          <azimuth>359.0</azimuth>
          <distance>0.00041009065229894115</distance>
          <takeoffAngle>
            <value>-1.0</value>
          </takeoffAngle>
          <timeResidual>0.1325</timeResidual>
          <timeWeight>1.0</timeWeight>
        </arrival>
        <arrival publicID="smi:local/8c02047f-22b0-4629-a093-80a4d5ea8a8a">
          <pickID>smi:local/bdfb4489-7a7a-4764-a04a-0651080eb7ac</pickID>
          <phase>S</phase>
          <azimuth>359.0</azimuth>
          <distance>0.00041009065229894115</distance>
          <takeoffAngle>
            <value>-1.0</value>
          </takeoffAngle>
          <timeResidual>0.1326</timeResidual>
          <timeWeight>1.0</timeWeight>
        </arrival>
        <arrival publicID="smi:local/4521f4c7-921e-4c27-a08c-62fa95a270cb">
          <pickID>smi:local/e68d4655-b088-439f-af4d-2f2a4f8485ca</pickID>
          <phase>S</phase>
          <azimuth>359.0</azimuth>
          <distance>0.00041009065229894115</distance>
          <takeoffAngle>
            <value>-1.0</value>
          </takeoffAngle>
          <timeResidual>0.1633</timeResidual>
          <timeWeight>1.0</timeWeight>
        </arrival>
        <arrival publicID="smi:local/eaa52eed-a7df-4a22-8443-fec1719bf95e">
          <pickID>smi:local/85034da6-e203-4e0e-beda-5f487e4197cc</pickID>
          <phase>S</phase>
          <azimuth>359.0</azimuth>
          <distance>0.00041009065229894115</distance>
          <takeoffAngle>
            <value>-1.0</value>
          </takeoffAngle>
          <timeResidual>0.1842</timeResidual>
          <timeWeight>1.0</timeWeight>
        </arrival>
      </origin>
      <pick publicID="smi:local/6450a66e-f9cc-47bf-9475-d17132afbdf4">
        <time>
          <value>2020-03-18T05:59:15.090400Z</value>
          <uncertainty>0.05</uncertainty>
        </time>
        <waveformID networkCode="XX" stationCode="G14" channelCode="DPZ"></waveformID>
        <phaseHint>P</phaseHint>
      </pick>
      <pick publicID="smi:local/85034da6-e203-4e0e-beda-5f487e4197cc">
        <time>
          <value>2020-03-18T05:59:15.447200Z</value>
          <uncertainty>0.05</uncertainty>
        </time>
        <waveformID networkCode="XX" stationCode="G14" channelCode="DPZ"></waveformID>
        <phaseHint>S</phaseHint>
      </pick>
      <pick publicID="smi:local/f8ecf80c-7914-4d96-b199-586124db01fc">
        <time>
          <value>2020-03-18T05:59:15.095500Z</value>
          <uncertainty>0.05</uncertainty>
        </time>
        <waveformID networkCode="XX" stationCode="G15" channelCode="DPZ"></waveformID>
        <phaseHint>P</phaseHint>
      </pick>
      <pick publicID="smi:local/11f23d7b-c193-4fe2-9896-64f955dd672a">
        <time>
          <value>2020-03-18T05:59:15.088500Z</value>
          <uncertainty>0.05</uncertainty>
        </time>
        <waveformID networkCode="XX" stationCode="G12" channelCode="DPZ"></waveformID>
        <phaseHint>S</phaseHint>
      </pick>
      <pick publicID="smi:local/9b358566-3c61-4298-88c9-6ef236c33410">
        <time>
          <value>2020-03-18T05:59:15.076300Z</value>
          <uncertainty>0.05</uncertainty>
        </time>
        <waveformID networkCode="XX" stationCode="G4" channelCode="DPN"></waveformID>
        <phaseHint>P</phaseHint>
      </pick>
      <pick publicID="smi:local/29b22534-07e1-4775-9d9c-8510cfe2e882">
        <time>
          <value>2020-03-18T05:59:15.074200Z</value>
          <uncertainty>0.05</uncertainty>
        </time>
        <waveformID networkCode="XX" stationCode="G2" channelCode="DPZ"></waveformID>
        <phaseHint>P</phaseHint>
      </pick>
      <pick publicID="smi:local/2c1116dd-84c1-4b72-b565-864cd28bba77">
        <time>
          <value>2020-03-18T05:59:15.414100Z</value>
          <uncertainty>0.05</uncertainty>
        </time>
        <waveformID networkCode="XX" stationCode="G2" channelCode="DPZ"></waveformID>
        <phaseHint>S</phaseHint>
      </pick>
      <pick publicID="smi:local/22e28de9-af62-432a-8dd7-becbe80b5592">
        <time>
          <value>2020-03-18T05:59:15.100700Z</value>
          <uncertainty>0.05</uncertainty>
        </time>
        <waveformID networkCode="XX" stationCode="G18" channelCode="DPZ"></waveformID>
        <phaseHint>S</phaseHint>
      </pick>
      <pick publicID="smi:local/b37a3b94-ee0a-4faa-9a40-17ab1e4f5b82">
        <time>
          <value>2020-03-18T05:59:15.091200Z</value>
          <uncertainty>0.05</uncertainty>
        </time>
        <waveformID networkCode="XX" stationCode="G13" channelCode="DPZ"></waveformID>
        <phaseHint>S</phaseHint>
      </pick>
      <pick publicID="smi:local/8e0f3740-2d76-4263-af21-ccdafad515d7">
        <time>
          <value>2020-03-18T05:59:15.087000Z</value>
          <uncertainty>0.05</uncertainty>
        </time>
        <waveformID networkCode="XX" stationCode="G11" channelCode="DPZ"></waveformID>
        <phaseHint>P</phaseHint>
      </pick>
      <pick publicID="smi:local/e68d4655-b088-439f-af4d-2f2a4f8485ca">
        <time>
          <value>2020-03-18T05:59:15.438600Z</value>
          <uncertainty>0.05</uncertainty>
        </time>
        <waveformID networkCode="XX" stationCode="G11" channelCode="DPZ"></waveformID>
        <phaseHint>S</phaseHint>
      </pick>
      <pick publicID="smi:local/558e57f1-4aaa-4130-a4c1-916fd273dc41">
        <time>
          <value>2020-03-18T05:59:15.078000Z</value>
          <uncertainty>0.05</uncertainty>
        </time>
        <waveformID networkCode="XX" stationCode="G6" channelCode="DPZ"></waveformID>
        <phaseHint>P</phaseHint>
      </pick>
      <pick publicID="smi:local/a302282b-e044-4823-8c24-adb265f85fc1">
        <time>
          <value>2020-03-18T05:59:15.429700Z</value>
          <uncertainty>0.05</uncertainty>
        </time>
        <waveformID networkCode="XX" stationCode="G6" channelCode="DPZ"></waveformID>
        <phaseHint>S</phaseHint>
      </pick>
      <pick publicID="smi:local/a1a9d0a8-882e-4319-a578-c13b60853803">
        <time>
          <value>2020-03-18T05:59:15.068300Z</value>
          <uncertainty>0.05</uncertainty>
        </time>
        <waveformID networkCode="XX" stationCode="G1" channelCode="DPZ"></waveformID>
        <phaseHint>P</phaseHint>
      </pick>
      <pick publicID="smi:local/3b93c80f-5144-4f37-b5ef-40fd1e63a333">
        <time>
          <value>2020-03-18T05:59:15.080800Z</value>
          <uncertainty>0.05</uncertainty>
        </time>
        <waveformID networkCode="XX" stationCode="G8" channelCode="DPZ"></waveformID>
        <phaseHint>S</phaseHint>
      </pick>
      <pick publicID="smi:local/0be6dee1-fdc5-4379-b09e-22c46e9fd787">
        <time>
          <value>2020-03-18T05:59:15.098800Z</value>
          <uncertainty>0.05</uncertainty>
        </time>
        <waveformID networkCode="XX" stationCode="G17" channelCode="DPZ"></waveformID>
        <phaseHint>P</phaseHint>
      </pick>
      <pick publicID="smi:local/bdfb4489-7a7a-4764-a04a-0651080eb7ac">
        <time>
          <value>2020-03-18T05:59:15.434300Z</value>
          <uncertainty>0.05</uncertainty>
        </time>
        <waveformID networkCode="XX" stationCode="G5" channelCode="DPN"></waveformID>
        <phaseHint>S</phaseHint>
      </pick>
    </event>
  </eventParameters>
</q:quakeml>
