<?xml version='1.0' encoding='utf-8'?>
<q:quakeml xmlns="http://quakeml.org/xmlns/bed/1.2" xmlns:q="http://quakeml.org/xmlns/quakeml/1.2">
  <eventParameters publicID="smi:local/f293a840-c63d-41a5-83c8-de08e43b1457">
    <event publicID="smi:local/b6c39d4b-8f76-49f0-9420-66089d3b6cbd">
      <preferredOriginID>smi:local/d7bd8378-bebf-461a-88c6-5c65cfe9e017</preferredOriginID>
      <comment>
        <text>CaMI.FRS microseismicity</text>
      </comment>
      <comment id="smi:local/68f9e6a4-f789-4fac-9ecc-837d104f5d3a">
        <text>eqcorrscan_template_2020_03_10t08_03_28</text>
      </comment>
      <creationInfo>
        <author>Genevieve Savard   obs:./obs_picked2/merged.obs   NLLoc:v7.00.00(27Oct2017)</author>
        <creationTime>2020-08-21T16:18:05.000000Z</creationTime>
      </creationInfo>
      <origin publicID="smi:local/d7bd8378-bebf-461a-88c6-5c65cfe9e017">
        <time>
          <value>2020-03-10T08:03:28.404688Z</value>
        </time>
        <latitude>
          <value>50.449177</value>
          <uncertainty>7.425957226152873e-05</uncertainty>
        </latitude>
        <longitude>
          <value>-112.119796</value>
          <uncertainty>5.418448125981131e-05</uncertainty>
        </longitude>
        <depth>
          <value>19.921999999999997</value>
          <uncertainty>4.787671667940483</uncertainty>
          <confidenceLevel>68.0</confidenceLevel>
        </depth>
        <depthType>from location</depthType>
        <quality>
          <associatedPhaseCount>15</associatedPhaseCount>
          <usedPhaseCount>15</usedPhaseCount>
          <associatedStationCount>-1</associatedStationCount>
          <usedStationCount>9</usedStationCount>
          <depthPhaseCount>-1</depthPhaseCount>
          <standardError>0.362399</standardError>
          <azimuthalGap>170.139</azimuthalGap>
          <secondaryAzimuthalGap>275.341</secondaryAzimuthalGap>
          <groundTruthLevel>-</groundTruthLevel>
          <minimumDistance>0.0008003908333380348</minimumDistance>
          <maximumDistance>0.001895913836733631</maximumDistance>
          <medianDistance>0.0013193317755309552</medianDistance>
        </quality>
        <comment>
          <text>Note: Depth/Latitude/Longitude errors are calculated from covariance matrix as 1D marginal (Lon/Lat errors as great circle degrees) while OriginUncertainty min/max horizontal errors are calculated from 2D error ellipsoid and are therefore seemingly higher compared to 1D errors. Error estimates can be reconstructed from the following original NonLinLoc error statistics line:
STATISTICS ExpectX 0.0643788 Y -0.133249 Z 0.0203207  CovXX 3.63011e-05 XY 1.00441e-05 XZ 1.23977e-06 YY 6.81828e-05 YZ -1.93942e-05 ZZ 2.29218e-05 EllAz1  328.832 Dip1  64.4546 Len1  0.00719956 Az2  277.339 Dip2  -16.5719 Len2  0.0111754 Len3  1.652329e-02</text>
        </comment>
        <creationInfo>
          <author>Genevieve Savard   obs:./obs_picked2/merged.obs   NLLoc:v7.00.00(27Oct2017)</author>
          <creationTime>2020-08-21T16:18:05.000000Z</creationTime>
        </creationInfo>
        <originUncertainty>
          <preferredDescription>uncertainty ellipse</preferredDescription>
          <minHorizontalUncertainty>8.76478</minHorizontalUncertainty>
          <maxHorizontalUncertainty>12.7864</maxHorizontalUncertainty>
          <azimuthMaxHorizontalUncertainty>16.1072</azimuthMaxHorizontalUncertainty>
          <confidenceLevel>68.0</confidenceLevel>
        </originUncertainty>
        <arrival publicID="smi:local/ba216e83-27c8-44cb-b3c2-f9698552bb28">
          <pickID>smi:local/6b69e404-8891-4d6b-82e3-e9967a1a3f3d</pickID>
          <phase>S</phase>
          <azimuth>359.0</azimuth>
          <distance>0.0008003962292676702</distance>
          <takeoffAngle>
            <value>-1.0</value>
          </takeoffAngle>
          <timeResidual>-0.0125</timeResidual>
          <timeWeight>0.4727</timeWeight>
        </arrival>
        <arrival publicID="smi:local/070cce4b-6de6-4f59-a403-383d48debef5">
          <pickID>smi:local/1baefafb-37b5-4a14-a4c4-f354576d3fd5</pickID>
          <phase>P</phase>
          <azimuth>359.0</azimuth>
          <distance>0.0009631734399389604</distance>
          <takeoffAngle>
            <value>-1.0</value>
          </takeoffAngle>
          <timeResidual>-0.2021</timeResidual>
          <timeWeight>1.5644</timeWeight>
        </arrival>
        <arrival publicID="smi:local/998f0d11-82a0-4d93-bd25-65b2e07a01ce">
          <pickID>smi:local/fda02ea2-e22f-4c1e-8f93-25e9e10e3895</pickID>
          <phase>S</phase>
          <azimuth>359.0</azimuth>
          <distance>0.0009631734399389604</distance>
          <takeoffAngle>
            <value>-1.0</value>
          </takeoffAngle>
          <timeResidual>-0.1444</timeResidual>
          <timeWeight>1.5644</timeWeight>
        </arrival>
        <arrival publicID="smi:local/39f573a7-71c8-43a7-84c9-5d4c7cc5ef6a">
          <pickID>smi:local/283398db-61cf-42a6-a3ce-e36e05d3d2c3</pickID>
          <phase>P</phase>
          <azimuth>359.0</azimuth>
          <distance>0.0011862051982068054</distance>
          <takeoffAngle>
            <value>-1.0</value>
          </takeoffAngle>
          <timeResidual>-0.1976</timeResidual>
          <timeWeight>1.5644</timeWeight>
        </arrival>
        <arrival publicID="smi:local/6145b555-0270-4b4b-ac32-f54fd6c03c18">
          <pickID>smi:local/091161d1-99e1-421c-85c0-c7410f5658be</pickID>
          <phase>S</phase>
          <azimuth>359.0</azimuth>
          <distance>0.0011862051982068054</distance>
          <takeoffAngle>
            <value>-1.0</value>
          </takeoffAngle>
          <timeResidual>-0.148</timeResidual>
          <timeWeight>0.7063</timeWeight>
        </arrival>
        <arrival publicID="smi:local/6e1e8872-e14c-4962-adbe-33507105b74e">
          <pickID>smi:local/81a41ef2-2375-4538-a4b4-94f0d1a7706c</pickID>
          <phase>S</phase>
          <azimuth>359.0</azimuth>
          <distance>0.00127523803719276</distance>
          <takeoffAngle>
            <value>-1.0</value>
          </takeoffAngle>
          <timeResidual>-0.0391</timeResidual>
          <timeWeight>0.6669</timeWeight>
        </arrival>
        <arrival publicID="smi:local/ec42ce75-aac9-4950-9c5b-a3cf5a6a5004">
          <pickID>smi:local/e8a548f4-7a10-44ea-90ed-10b354f9aa88</pickID>
          <phase>S</phase>
          <azimuth>359.0</azimuth>
          <distance>0.0013193047958827777</distance>
          <takeoffAngle>
            <value>-1.0</value>
          </takeoffAngle>
          <timeResidual>-0.1663</timeResidual>
          <timeWeight>0.596</timeWeight>
        </arrival>
        <arrival publicID="smi:local/05b335fa-e29f-48d8-b59d-1cbe9da9bc9c">
          <pickID>smi:local/da4e1d37-5311-4acd-97d2-c5ff86a93b74</pickID>
          <phase>P</phase>
          <azimuth>359.0</azimuth>
          <distance>0.0015432358757565417</distance>
          <takeoffAngle>
            <value>-1.0</value>
          </takeoffAngle>
          <timeResidual>0.8363</timeResidual>
          <timeWeight>1.5902</timeWeight>
        </arrival>
        <arrival publicID="smi:local/aa005ad5-e619-4d2c-8381-7be11a877ca5">
          <pickID>smi:local/fd3a83a2-cd95-4451-aa2e-48139c8c0849</pickID>
          <phase>S</phase>
          <azimuth>359.0</azimuth>
          <distance>0.0015432358757565417</distance>
          <takeoffAngle>
            <value>-1.0</value>
          </takeoffAngle>
          <timeResidual>0.8308</timeResidual>
          <timeWeight>0.7633</timeWeight>
        </arrival>
        <arrival publicID="smi:local/c2fff40e-f5ab-4b6e-924a-7b66a35231d8">
          <pickID>smi:local/8ed04577-aa45-439d-b47f-be7b3fbe417d</pickID>
          <phase>P</phase>
          <azimuth>359.0</azimuth>
          <distance>0.001579208739993291</distance>
          <takeoffAngle>
            <value>-1.0</value>
          </takeoffAngle>
          <timeResidual>-0.1459</timeResidual>
          <timeWeight>1.3904</timeWeight>
        </arrival>
        <arrival publicID="smi:local/dd50e35b-4e07-45ca-9e57-84d353572a41">
          <pickID>smi:local/9635d69c-38f5-4b21-a1be-e249c176872d</pickID>
          <phase>S</phase>
          <azimuth>359.0</azimuth>
          <distance>0.001579208739993291</distance>
          <takeoffAngle>
            <value>-1.0</value>
          </takeoffAngle>
          <timeResidual>-0.1527</timeResidual>
          <timeWeight>1.1401</timeWeight>
        </arrival>
        <arrival publicID="smi:local/5b76fb4b-d928-47c2-8eae-ca2e6bb8469a">
          <pickID>smi:local/fa6b799f-3947-4bef-8ee0-eebaf44aaa85</pickID>
          <phase>P</phase>
          <azimuth>359.0</azimuth>
          <distance>0.001786052709354599</distance>
          <takeoffAngle>
            <value>-1.0</value>
          </takeoffAngle>
          <timeResidual>-0.1656</timeResidual>
          <timeWeight>1.2744</timeWeight>
        </arrival>
        <arrival publicID="smi:local/6e36f87d-2b09-4b74-bc9e-009bab603493">
          <pickID>smi:local/4f2f0994-deb4-486c-aedd-da84725f4e4f</pickID>
          <phase>S</phase>
          <azimuth>359.0</azimuth>
          <distance>0.001786052709354599</distance>
          <takeoffAngle>
            <value>-1.0</value>
          </takeoffAngle>
          <timeResidual>-0.1739</timeResidual>
          <timeWeight>0.5067</timeWeight>
        </arrival>
        <arrival publicID="smi:local/d946b1d3-10ac-41bc-bc19-fcbf5beac435">
          <pickID>smi:local/dcda438f-70af-4fbf-b5eb-32ea60aa1ff1</pickID>
          <phase>P</phase>
          <azimuth>359.0</azimuth>
          <distance>0.0018957699452766838</distance>
          <takeoffAngle>
            <value>-1.0</value>
          </takeoffAngle>
          <timeResidual>-0.1751</timeResidual>
          <timeWeight>0.7271</timeWeight>
        </arrival>
        <arrival publicID="smi:local/10e1ddc8-2a88-4c0b-b4b3-8fc6072b54d3">
          <pickID>smi:local/998df1e3-7975-4cbb-b7d6-e0cc8230a378</pickID>
          <phase>S</phase>
          <azimuth>359.0</azimuth>
          <distance>0.0018957699452766838</distance>
          <takeoffAngle>
            <value>-1.0</value>
          </takeoffAngle>
          <timeResidual>-0.1561</timeResidual>
          <timeWeight>0.4727</timeWeight>
        </arrival>
      </origin>
      <pick publicID="smi:local/81a41ef2-2375-4538-a4b4-94f0d1a7706c">
        <time>
          <value>2020-03-10T08:03:28.622800Z</value>
          <uncertainty>0.0138</uncertainty>
        </time>
        <waveformID networkCode="XX" stationCode="C0202" channelCode="DPZ"></waveformID>
        <phaseHint>S</phaseHint>
      </pick>
      <pick publicID="smi:local/8ed04577-aa45-439d-b47f-be7b3fbe417d">
        <time>
          <value>2020-03-10T08:03:28.373000Z</value>
          <uncertainty>0.00627</uncertainty>
        </time>
        <waveformID networkCode="XX" stationCode="C0909" channelCode="DPZ"></waveformID>
        <phaseHint>P</phaseHint>
      </pick>
      <pick publicID="smi:local/9635d69c-38f5-4b21-a1be-e249c176872d">
        <time>
          <value>2020-03-10T08:03:28.566000Z</value>
          <uncertainty>0.00836</uncertainty>
        </time>
        <waveformID networkCode="XX" stationCode="C0909" channelCode="DPE"></waveformID>
        <phaseHint>S</phaseHint>
      </pick>
      <pick publicID="smi:local/dcda438f-70af-4fbf-b5eb-32ea60aa1ff1">
        <time>
          <value>2020-03-10T08:03:28.362000Z</value>
          <uncertainty>0.0129</uncertainty>
        </time>
        <waveformID networkCode="XX" stationCode="F0304" channelCode="DPZ"></waveformID>
        <phaseHint>P</phaseHint>
      </pick>
      <pick publicID="smi:local/998df1e3-7975-4cbb-b7d6-e0cc8230a378">
        <time>
          <value>2020-03-10T08:03:28.615700Z</value>
          <uncertainty>0.0176</uncertainty>
        </time>
        <waveformID networkCode="XX" stationCode="F0304" channelCode="DPE"></waveformID>
        <phaseHint>S</phaseHint>
      </pick>
      <pick publicID="smi:local/6b69e404-8891-4d6b-82e3-e9967a1a3f3d">
        <time>
          <value>2020-03-10T08:03:28.566400Z</value>
          <uncertainty>0.0176</uncertainty>
        </time>
        <waveformID networkCode="XX" stationCode="F0604" channelCode="DPZ"></waveformID>
        <phaseHint>S</phaseHint>
      </pick>
      <pick publicID="smi:local/e8a548f4-7a10-44ea-90ed-10b354f9aa88">
        <time>
          <value>2020-03-10T08:03:28.505000Z</value>
          <uncertainty>0.015</uncertainty>
        </time>
        <waveformID networkCode="XX" stationCode="C0404" channelCode="DPE"></waveformID>
        <phaseHint>S</phaseHint>
      </pick>
      <pick publicID="smi:local/1baefafb-37b5-4a14-a4c4-f354576d3fd5">
        <time>
          <value>2020-03-10T08:03:28.279600Z</value>
          <uncertainty>0.00488</uncertainty>
        </time>
        <waveformID networkCode="XX" stationCode="C0902" channelCode="DPZ"></waveformID>
        <phaseHint>P</phaseHint>
      </pick>
      <pick publicID="smi:local/fda02ea2-e22f-4c1e-8f93-25e9e10e3895">
        <time>
          <value>2020-03-10T08:03:28.465000Z</value>
          <uncertainty>0.00488</uncertainty>
        </time>
        <waveformID networkCode="XX" stationCode="C0902" channelCode="DPZ"></waveformID>
        <phaseHint>S</phaseHint>
      </pick>
      <pick publicID="smi:local/fa6b799f-3947-4bef-8ee0-eebaf44aaa85">
        <time>
          <value>2020-03-10T08:03:28.366200Z</value>
          <uncertainty>0.00721</uncertainty>
        </time>
        <waveformID networkCode="XX" stationCode="C0209" channelCode="DPZ"></waveformID>
        <phaseHint>P</phaseHint>
      </pick>
      <pick publicID="smi:local/4f2f0994-deb4-486c-aedd-da84725f4e4f">
        <time>
          <value>2020-03-10T08:03:28.581300Z</value>
          <uncertainty>0.0168</uncertainty>
        </time>
        <waveformID networkCode="XX" stationCode="C0209" channelCode="DPE"></waveformID>
        <phaseHint>S</phaseHint>
      </pick>
      <pick publicID="smi:local/283398db-61cf-42a6-a3ce-e36e05d3d2c3">
        <time>
          <value>2020-03-10T08:03:28.297700Z</value>
          <uncertainty>0.00488</uncertainty>
        </time>
        <waveformID networkCode="XX" stationCode="C0704" channelCode="DPZ"></waveformID>
        <phaseHint>P</phaseHint>
      </pick>
      <pick publicID="smi:local/091161d1-99e1-421c-85c0-c7410f5658be">
        <time>
          <value>2020-03-10T08:03:28.501200Z</value>
          <uncertainty>0.0132</uncertainty>
        </time>
        <waveformID networkCode="XX" stationCode="C0704" channelCode="DPE"></waveformID>
        <phaseHint>S</phaseHint>
      </pick>
      <pick publicID="smi:local/da4e1d37-5311-4acd-97d2-c5ff86a93b74">
        <time>
          <value>2020-03-10T08:03:29.353400Z</value>
          <uncertainty>0.00467</uncertainty>
        </time>
        <waveformID networkCode="XX" stationCode="C0407" channelCode="DPZ"></waveformID>
        <phaseHint>P</phaseHint>
      </pick>
      <pick publicID="smi:local/fd3a83a2-cd95-4451-aa2e-48139c8c0849">
        <time>
          <value>2020-03-10T08:03:29.543200Z</value>
          <uncertainty>0.0124</uncertainty>
        </time>
        <waveformID networkCode="XX" stationCode="C0407" channelCode="DPE"></waveformID>
        <phaseHint>S</phaseHint>
      </pick>
    </event>
  </eventParameters>
</q:quakeml>
