<?xml version='1.0' encoding='utf-8'?>
<q:quakeml xmlns="http://quakeml.org/xmlns/bed/1.2" xmlns:q="http://quakeml.org/xmlns/quakeml/1.2">
  <eventParameters publicID="smi:local/5918cafc-86d7-4b60-b6e3-08a6e8090490">
    <event publicID="smi:local/a772c5c4-ac11-4bb9-b63e-78a95aadf679">
      <preferredOriginID>smi:local/394ef998-93cd-466d-94e0-f433ae8b0877</preferredOriginID>
      <comment>
        <text>CaMI.FRS microseismicity</text>
      </comment>
      <comment id="smi:local/e82abadf-c61d-477f-9322-4673b49ca644">
        <text>eqcorrscan_template_2020_04_02t10_21_19</text>
      </comment>
      <creationInfo>
        <author>Genevieve Savard   obs:./obs_picked5/merged.obs   NLLoc:v7.00.00(27Oct2017)</author>
        <creationTime>2020-09-18T19:57:58.000000Z</creationTime>
      </creationInfo>
      <origin publicID="smi:local/394ef998-93cd-466d-94e0-f433ae8b0877">
        <time>
          <value>2020-04-02T10:21:19.725027Z</value>
        </time>
        <latitude>
          <value>50.451261</value>
          <uncertainty>0.0031339390235273048</uncertainty>
        </latitude>
        <longitude>
          <value>-112.117679</value>
          <uncertainty>0.0010413701515873445</uncertainty>
        </longitude>
        <depth>
          <value>0.391</value>
          <uncertainty>10.951757849770054</uncertainty>
          <confidenceLevel>68.0</confidenceLevel>
        </depth>
        <depthType>from location</depthType>
        <quality>
          <associatedPhaseCount>23</associatedPhaseCount>
          <usedPhaseCount>23</usedPhaseCount>
          <associatedStationCount>-1</associatedStationCount>
          <usedStationCount>21</usedStationCount>
          <depthPhaseCount>-1</depthPhaseCount>
          <standardError>0.361143</standardError>
          <azimuthalGap>141.075</azimuthalGap>
          <secondaryAzimuthalGap>162.04</secondaryAzimuthalGap>
          <groundTruthLevel>-</groundTruthLevel>
          <minimumDistance>0.0007919417068504281</minimumDistance>
          <maximumDistance>0.006426255419765295</maximumDistance>
          <medianDistance>0.002241756953505738</medianDistance>
        </quality>
        <comment>
          <text>Note: Depth/Latitude/Longitude errors are calculated from covariance matrix as 1D marginal (Lon/Lat errors as great circle degrees) while OriginUncertainty min/max horizontal errors are calculated from 2D error ellipsoid and are therefore seemingly higher compared to 1D errors. Error estimates can be reconstructed from the following original NonLinLoc error statistics line:
STATISTICS ExpectX 0.217443 Y 0.00976836 Z 0.00886964  CovXX 0.0134085 XY -0.0310176 XZ 0.000404166 YY 0.121437 YZ -0.00157025 ZZ 0.000119941 EllAz1  177.706 Dip1  -89.2655 Len1  0.0187524 Az2  255.069 Dip2  0.160699 Len2  0.134649 Len3  6.767158e-01</text>
        </comment>
        <creationInfo>
          <author>Genevieve Savard   obs:./obs_picked5/merged.obs   NLLoc:v7.00.00(27Oct2017)</author>
          <creationTime>2020-09-18T19:57:58.000000Z</creationTime>
        </creationInfo>
        <originUncertainty>
          <preferredDescription>uncertainty ellipse</preferredDescription>
          <minHorizontalUncertainty>108.68700000000001</minHorizontalUncertainty>
          <maxHorizontalUncertainty>546.197</maxHorizontalUncertainty>
          <azimuthMaxHorizontalUncertainty>165.067</azimuthMaxHorizontalUncertainty>
          <confidenceLevel>68.0</confidenceLevel>
        </originUncertainty>
        <arrival publicID="smi:local/0695c2a3-b0af-49ee-8239-d0f18cb7968c">
          <pickID>smi:local/de8bc002-8bb3-4572-97a3-1b93c2415324</pickID>
          <phase>S</phase>
          <azimuth>359.0</azimuth>
          <distance>0.0007923023348144016</distance>
          <takeoffAngle>
            <value>-1.0</value>
          </takeoffAngle>
          <timeResidual>0.1203</timeResidual>
          <timeWeight>1.0</timeWeight>
        </arrival>
        <arrival publicID="smi:local/b5351879-c690-4b35-8fe1-30705276a476">
          <pickID>smi:local/b52cb54c-5cf9-4aa9-b93c-7b15d833b164</pickID>
          <phase>P</phase>
          <azimuth>359.0</azimuth>
          <distance>0.001468592182465287</distance>
          <takeoffAngle>
            <value>-1.0</value>
          </takeoffAngle>
          <timeResidual>-0.388</timeResidual>
          <timeWeight>1.0</timeWeight>
        </arrival>
        <arrival publicID="smi:local/fbbfc198-eb9d-4456-9265-e3a6ddf4e4cf">
          <pickID>smi:local/5af5b293-a0e3-4cc8-bc52-fd2dc842cf6e</pickID>
          <phase>S</phase>
          <azimuth>359.0</azimuth>
          <distance>0.001468592182465287</distance>
          <takeoffAngle>
            <value>-1.0</value>
          </takeoffAngle>
          <timeResidual>-0.1168</timeResidual>
          <timeWeight>1.0</timeWeight>
        </arrival>
        <arrival publicID="smi:local/0655e1bc-38b8-47ee-bdef-44c458e97afa">
          <pickID>smi:local/9176d97b-39d7-4167-95ae-89e345a43896</pickID>
          <phase>S</phase>
          <azimuth>359.0</azimuth>
          <distance>0.0021619691406286282</distance>
          <takeoffAngle>
            <value>-1.0</value>
          </takeoffAngle>
          <timeResidual>0.0454</timeResidual>
          <timeWeight>1.0</timeWeight>
        </arrival>
        <arrival publicID="smi:local/bff540ff-89cf-45c8-9109-1b846c3e846c">
          <pickID>smi:local/0fddadd6-b41e-406d-9ea4-d4676513d704</pickID>
          <phase>S</phase>
          <azimuth>359.0</azimuth>
          <distance>0.002236612833919883</distance>
          <takeoffAngle>
            <value>-1.0</value>
          </takeoffAngle>
          <timeResidual>-0.0056</timeResidual>
          <timeWeight>1.0</timeWeight>
        </arrival>
        <arrival publicID="smi:local/59e884e6-3af8-4d41-8570-88a1983baf69">
          <pickID>smi:local/3ac12db7-dfab-4eb5-876b-3a3abe52ead8</pickID>
          <phase>S</phase>
          <azimuth>359.0</azimuth>
          <distance>0.0022420087635553953</distance>
          <takeoffAngle>
            <value>-1.0</value>
          </takeoffAngle>
          <timeResidual>0.0033</timeResidual>
          <timeWeight>1.0</timeWeight>
        </arrival>
        <arrival publicID="smi:local/63b140bf-5782-464b-86f2-7c437be9fe82">
          <pickID>smi:local/31251397-d282-4a0e-8839-7331988c4ae6</pickID>
          <phase>S</phase>
          <azimuth>359.0</azimuth>
          <distance>0.0022420087635553953</distance>
          <takeoffAngle>
            <value>-1.0</value>
          </takeoffAngle>
          <timeResidual>0.0005</timeResidual>
          <timeWeight>1.0</timeWeight>
        </arrival>
        <arrival publicID="smi:local/71fafaf9-57b4-46f0-92ec-698b88ce5eb4">
          <pickID>smi:local/8f1f9370-0d7d-4095-8c4b-6b7192829228</pickID>
          <phase>S</phase>
          <azimuth>359.0</azimuth>
          <distance>0.0022420087635553953</distance>
          <takeoffAngle>
            <value>-1.0</value>
          </takeoffAngle>
          <timeResidual>0.0197</timeResidual>
          <timeWeight>1.0</timeWeight>
        </arrival>
        <arrival publicID="smi:local/14969d6c-9e66-4e9e-9bb1-540dff92b10a">
          <pickID>smi:local/aa1e6013-c28c-491f-9b49-d67028e271aa</pickID>
          <phase>S</phase>
          <azimuth>359.0</azimuth>
          <distance>0.0022420087635553953</distance>
          <takeoffAngle>
            <value>-1.0</value>
          </takeoffAngle>
          <timeResidual>0.0246</timeResidual>
          <timeWeight>1.0</timeWeight>
        </arrival>
        <arrival publicID="smi:local/a88a5cf1-6597-445d-8976-fd39bfb57966">
          <pickID>smi:local/5718540a-fb7e-48dd-a832-b989d98cffa4</pickID>
          <phase>S</phase>
          <azimuth>359.0</azimuth>
          <distance>0.0022420087635553953</distance>
          <takeoffAngle>
            <value>-1.0</value>
          </takeoffAngle>
          <timeResidual>0.0346</timeResidual>
          <timeWeight>1.0</timeWeight>
        </arrival>
        <arrival publicID="smi:local/6c93702a-acd7-4a95-8bbf-cdc10b319a61">
          <pickID>smi:local/582c89fa-1b24-487d-b1bb-9e130c337110</pickID>
          <phase>S</phase>
          <azimuth>359.0</azimuth>
          <distance>0.0022420087635553953</distance>
          <takeoffAngle>
            <value>-1.0</value>
          </takeoffAngle>
          <timeResidual>0.0278</timeResidual>
          <timeWeight>1.0</timeWeight>
        </arrival>
        <arrival publicID="smi:local/ef25b4e6-a737-4155-9639-65fef2373bba">
          <pickID>smi:local/8babb5cd-55d7-4337-85f0-2db95f6d4f78</pickID>
          <phase>S</phase>
          <azimuth>359.0</azimuth>
          <distance>0.0022420087635553953</distance>
          <takeoffAngle>
            <value>-1.0</value>
          </takeoffAngle>
          <timeResidual>0.0436</timeResidual>
          <timeWeight>1.0</timeWeight>
        </arrival>
        <arrival publicID="smi:local/c90e2f52-928f-4f9d-8a21-26d5d6196266">
          <pickID>smi:local/3017b09a-3f2e-4150-9f46-ed7bd02a2694</pickID>
          <phase>S</phase>
          <azimuth>359.0</azimuth>
          <distance>0.0022420087635553953</distance>
          <takeoffAngle>
            <value>-1.0</value>
          </takeoffAngle>
          <timeResidual>0.0761</timeResidual>
          <timeWeight>1.0</timeWeight>
        </arrival>
        <arrival publicID="smi:local/9fe9e146-7d57-41c6-9481-82a9e3be26f6">
          <pickID>smi:local/7e8c4256-e2c9-464c-a5c7-247e29083c3f</pickID>
          <phase>S</phase>
          <azimuth>359.0</azimuth>
          <distance>0.0022420087635553953</distance>
          <takeoffAngle>
            <value>-1.0</value>
          </takeoffAngle>
          <timeResidual>0.0819</timeResidual>
          <timeWeight>1.0</timeWeight>
        </arrival>
        <arrival publicID="smi:local/e2cf9133-89fc-40e0-bebe-11d78067e6da">
          <pickID>smi:local/ca2a734a-e33c-48e8-ba5c-e89da92e1ff4</pickID>
          <phase>S</phase>
          <azimuth>359.0</azimuth>
          <distance>0.0022608945172796885</distance>
          <takeoffAngle>
            <value>-1.0</value>
          </takeoffAngle>
          <timeResidual>0.0153</timeResidual>
          <timeWeight>1.0</timeWeight>
        </arrival>
        <arrival publicID="smi:local/a06e8cec-2d33-487d-a8db-957c6a8b8a65">
          <pickID>smi:local/9c1f6b96-65ce-458a-b900-656cdfe5e71f</pickID>
          <phase>S</phase>
          <azimuth>359.0</azimuth>
          <distance>0.0025046106724836647</distance>
          <takeoffAngle>
            <value>-1.0</value>
          </takeoffAngle>
          <timeResidual>0.0022</timeResidual>
          <timeWeight>1.0</timeWeight>
        </arrival>
        <arrival publicID="smi:local/b9ec1377-45d6-4121-bc3f-a6d318f53019">
          <pickID>smi:local/a0530f7f-09a3-4832-9b7e-eeb5447746c0</pickID>
          <phase>P</phase>
          <azimuth>359.0</azimuth>
          <distance>0.0026287170541004494</distance>
          <takeoffAngle>
            <value>-1.0</value>
          </takeoffAngle>
          <timeResidual>-0.5077</timeResidual>
          <timeWeight>1.0</timeWeight>
        </arrival>
        <arrival publicID="smi:local/7ee57533-a436-4dd8-aeec-501b0d55f60b">
          <pickID>smi:local/2187f3ff-8568-4b0a-a186-2b8af86a2889</pickID>
          <phase>S</phase>
          <azimuth>359.0</azimuth>
          <distance>0.0026287170541004494</distance>
          <takeoffAngle>
            <value>-1.0</value>
          </takeoffAngle>
          <timeResidual>-0.4246</timeResidual>
          <timeWeight>1.0</timeWeight>
        </arrival>
        <arrival publicID="smi:local/f688a427-028d-4f0e-9373-3ec2b29b2f42">
          <pickID>smi:local/bf80075d-0927-4d76-b807-c095022f408c</pickID>
          <phase>S</phase>
          <azimuth>359.0</azimuth>
          <distance>0.003073881249030221</distance>
          <takeoffAngle>
            <value>-1.0</value>
          </takeoffAngle>
          <timeResidual>-0.1333</timeResidual>
          <timeWeight>1.0</timeWeight>
        </arrival>
        <arrival publicID="smi:local/15654c7e-38c2-4a90-818b-c849f1239dbb">
          <pickID>smi:local/2bbde92e-650e-4d17-a679-2804656f2700</pickID>
          <phase>S</phase>
          <azimuth>359.0</azimuth>
          <distance>0.003314899439416441</distance>
          <takeoffAngle>
            <value>-1.0</value>
          </takeoffAngle>
          <timeResidual>-0.1364</timeResidual>
          <timeWeight>1.0</timeWeight>
        </arrival>
        <arrival publicID="smi:local/368f0083-d17a-4c7a-aa2a-38d756674191">
          <pickID>smi:local/f4a09bc6-4782-4aa8-9516-a7d5b2e1e63d</pickID>
          <phase>S</phase>
          <azimuth>359.0</azimuth>
          <distance>0.0038571903677854353</distance>
          <takeoffAngle>
            <value>-1.0</value>
          </takeoffAngle>
          <timeResidual>1.5083</timeResidual>
          <timeWeight>1.0</timeWeight>
        </arrival>
        <arrival publicID="smi:local/e41c4df6-9605-4248-95cc-b555988dc862">
          <pickID>smi:local/430df55d-f915-4b6e-9f2a-da0294c5f69f</pickID>
          <phase>S</phase>
          <azimuth>359.0</azimuth>
          <distance>0.004407575190607698</distance>
          <takeoffAngle>
            <value>-1.0</value>
          </takeoffAngle>
          <timeResidual>-0.2147</timeResidual>
          <timeWeight>1.0</timeWeight>
        </arrival>
        <arrival publicID="smi:local/a823277a-375c-4f96-8576-b1ef8f9f3cf4">
          <pickID>smi:local/53ee1395-903c-4bdc-92d6-65f7d57599d2</pickID>
          <phase>S</phase>
          <azimuth>359.0</azimuth>
          <distance>0.006426552195895248</distance>
          <takeoffAngle>
            <value>-1.0</value>
          </takeoffAngle>
          <timeResidual>-0.0765</timeResidual>
          <timeWeight>1.0</timeWeight>
        </arrival>
      </origin>
      <pick publicID="smi:local/5718540a-fb7e-48dd-a832-b989d98cffa4">
        <time>
          <value>2020-04-02T10:21:20.167900Z</value>
          <uncertainty>0.1</uncertainty>
        </time>
        <waveformID networkCode="XX" stationCode="G11" channelCode="DPE"></waveformID>
        <phaseHint>S</phaseHint>
      </pick>
      <pick publicID="smi:local/ca2a734a-e33c-48e8-ba5c-e89da92e1ff4">
        <time>
          <value>2020-04-02T10:21:20.205200Z</value>
          <uncertainty>0.1</uncertainty>
        </time>
        <waveformID networkCode="XX" stationCode="C0404" channelCode="DPN"></waveformID>
        <phaseHint>S</phaseHint>
      </pick>
      <pick publicID="smi:local/3ac12db7-dfab-4eb5-876b-3a3abe52ead8">
        <time>
          <value>2020-04-02T10:21:20.151200Z</value>
          <uncertainty>0.1</uncertainty>
        </time>
        <waveformID networkCode="XX" stationCode="G17" channelCode="DPZ"></waveformID>
        <phaseHint>S</phaseHint>
      </pick>
      <pick publicID="smi:local/53ee1395-903c-4bdc-92d6-65f7d57599d2">
        <time>
          <value>2020-04-02T10:21:20.581100Z</value>
          <uncertainty>0.1</uncertainty>
        </time>
        <waveformID networkCode="XX" stationCode="F0102" channelCode="DPN"></waveformID>
        <phaseHint>S</phaseHint>
      </pick>
      <pick publicID="smi:local/9176d97b-39d7-4167-95ae-89e345a43896">
        <time>
          <value>2020-04-02T10:21:20.217700Z</value>
          <uncertainty>0.1</uncertainty>
        </time>
        <waveformID networkCode="XX" stationCode="C0407" channelCode="DPN"></waveformID>
        <phaseHint>S</phaseHint>
      </pick>
      <pick publicID="smi:local/8babb5cd-55d7-4337-85f0-2db95f6d4f78">
        <time>
          <value>2020-04-02T10:21:20.179000Z</value>
          <uncertainty>0.1</uncertainty>
        </time>
        <waveformID networkCode="XX" stationCode="G12" channelCode="DPE"></waveformID>
        <phaseHint>S</phaseHint>
      </pick>
      <pick publicID="smi:local/0fddadd6-b41e-406d-9ea4-d4676513d704">
        <time>
          <value>2020-04-02T10:21:20.179700Z</value>
          <uncertainty>0.1</uncertainty>
        </time>
        <waveformID networkCode="XX" stationCode="F0604" channelCode="DPN"></waveformID>
        <phaseHint>S</phaseHint>
      </pick>
      <pick publicID="smi:local/b52cb54c-5cf9-4aa9-b93c-7b15d833b164">
        <time>
          <value>2020-04-02T10:21:19.460900Z</value>
          <uncertainty>0.1</uncertainty>
        </time>
        <waveformID networkCode="XX" stationCode="F0708" channelCode="DPE"></waveformID>
        <phaseHint>P</phaseHint>
      </pick>
      <pick publicID="smi:local/5af5b293-a0e3-4cc8-bc52-fd2dc842cf6e">
        <time>
          <value>2020-04-02T10:21:19.931200Z</value>
          <uncertainty>0.1</uncertainty>
        </time>
        <waveformID networkCode="XX" stationCode="F0708" channelCode="DPZ"></waveformID>
        <phaseHint>S</phaseHint>
      </pick>
      <pick publicID="smi:local/7e8c4256-e2c9-464c-a5c7-247e29083c3f">
        <time>
          <value>2020-04-02T10:21:20.201300Z</value>
          <uncertainty>0.1</uncertainty>
        </time>
        <waveformID networkCode="XX" stationCode="G4" channelCode="DPE"></waveformID>
        <phaseHint>S</phaseHint>
      </pick>
      <pick publicID="smi:local/31251397-d282-4a0e-8839-7331988c4ae6">
        <time>
          <value>2020-04-02T10:21:20.151200Z</value>
          <uncertainty>0.1</uncertainty>
        </time>
        <waveformID networkCode="XX" stationCode="G18" channelCode="DPE"></waveformID>
        <phaseHint>S</phaseHint>
      </pick>
      <pick publicID="smi:local/f4a09bc6-4782-4aa8-9516-a7d5b2e1e63d">
        <time>
          <value>2020-04-02T10:21:21.939100Z</value>
          <uncertainty>0.1</uncertainty>
        </time>
        <waveformID networkCode="XX" stationCode="F0910" channelCode="DPE"></waveformID>
        <phaseHint>S</phaseHint>
      </pick>
      <pick publicID="smi:local/2bbde92e-650e-4d17-a679-2804656f2700">
        <time>
          <value>2020-04-02T10:21:20.236500Z</value>
          <uncertainty>0.1</uncertainty>
        </time>
        <waveformID networkCode="XX" stationCode="F0307" channelCode="DPN"></waveformID>
        <phaseHint>S</phaseHint>
      </pick>
      <pick publicID="smi:local/430df55d-f915-4b6e-9f2a-da0294c5f69f">
        <time>
          <value>2020-04-02T10:21:20.265000Z</value>
          <uncertainty>0.1</uncertainty>
        </time>
        <waveformID networkCode="XX" stationCode="F0208" channelCode="DPN"></waveformID>
        <phaseHint>S</phaseHint>
      </pick>
      <pick publicID="smi:local/bf80075d-0927-4d76-b807-c095022f408c">
        <time>
          <value>2020-04-02T10:21:20.198500Z</value>
          <uncertainty>0.1</uncertainty>
        </time>
        <waveformID networkCode="XX" stationCode="F0703" channelCode="DPN"></waveformID>
        <phaseHint>S</phaseHint>
      </pick>
      <pick publicID="smi:local/582c89fa-1b24-487d-b1bb-9e130c337110">
        <time>
          <value>2020-04-02T10:21:20.167900Z</value>
          <uncertainty>0.1</uncertainty>
        </time>
        <waveformID networkCode="XX" stationCode="G14" channelCode="DPE"></waveformID>
        <phaseHint>S</phaseHint>
      </pick>
      <pick publicID="smi:local/a0530f7f-09a3-4832-9b7e-eeb5447746c0">
        <time>
          <value>2020-04-02T10:21:19.411900Z</value>
          <uncertainty>0.1</uncertainty>
        </time>
        <waveformID networkCode="XX" stationCode="F0809" channelCode="DPZ"></waveformID>
        <phaseHint>P</phaseHint>
      </pick>
      <pick publicID="smi:local/2187f3ff-8568-4b0a-a186-2b8af86a2889">
        <time>
          <value>2020-04-02T10:21:19.830700Z</value>
          <uncertainty>0.1</uncertainty>
        </time>
        <waveformID networkCode="XX" stationCode="F0809" channelCode="DPN"></waveformID>
        <phaseHint>S</phaseHint>
      </pick>
      <pick publicID="smi:local/8f1f9370-0d7d-4095-8c4b-6b7192829228">
        <time>
