<?xml version='1.0' encoding='utf-8'?>
<q:quakeml xmlns="http://quakeml.org/xmlns/bed/1.2" xmlns:q="http://quakeml.org/xmlns/quakeml/1.2">
  <eventParameters publicID="smi:local/bc6db138-5024-4c20-951e-ed6d14475691">
    <event publicID="smi:local/b8164957-aaa4-4d44-8b05-5bb159073de3">
      <preferredOriginID>smi:local/19365016-3262-4041-b710-2329dc44e46a</preferredOriginID>
      <comment>
        <text>CaMI.FRS microseismicity</text>
      </comment>
      <comment id="smi:local/a3922c7c-1aaa-4ffc-b346-fa274dc34442">
        <text>eqcorrscan_template_2020_02_18t14_29_24</text>
      </comment>
      <creationInfo>
        <author>Genevieve Savard   obs:./obs_picked5/merged.obs   NLLoc:v7.00.00(27Oct2017)</author>
        <creationTime>2020-09-18T19:53:12.000000Z</creationTime>
      </creationInfo>
      <origin publicID="smi:local/19365016-3262-4041-b710-2329dc44e46a">
        <time>
          <value>2020-02-18T14:29:24.577047Z</value>
        </time>
        <latitude>
          <value>50.450008</value>
          <uncertainty>0.0015304461568750349</uncertainty>
        </latitude>
        <longitude>
          <value>-112.116803</value>
          <uncertainty>0.0014292566058848814</uncertainty>
        </longitude>
        <depth>
          <value>10.938</value>
          <uncertainty>68.48423176177127</uncertainty>
          <confidenceLevel>68.0</confidenceLevel>
        </depth>
        <depthType>from location</depthType>
        <quality>
          <associatedPhaseCount>26</associatedPhaseCount>
          <usedPhaseCount>26</usedPhaseCount>
          <associatedStationCount>-1</associatedStationCount>
          <usedStationCount>26</usedStationCount>
          <depthPhaseCount>-1</depthPhaseCount>
          <standardError>0.0076733</standardError>
          <azimuthalGap>269.649</azimuthalGap>
          <secondaryAzimuthalGap>360.0</secondaryAzimuthalGap>
          <groundTruthLevel>-</groundTruthLevel>
          <minimumDistance>0.0018119981376853542</minimumDistance>
          <maximumDistance>0.0026052987194823255</maximumDistance>
          <medianDistance>0.0026052987194823255</medianDistance>
        </quality>
        <comment>
          <text>Note: Depth/Latitude/Longitude errors are calculated from covariance matrix as 1D marginal (Lon/Lat errors as great circle degrees) while OriginUncertainty min/max horizontal errors are calculated from 2D error ellipsoid and are therefore seemingly higher compared to 1D errors. Error estimates can be reconstructed from the following original NonLinLoc error statistics line:
STATISTICS ExpectX 0.315793 Y -0.292751 Z 0.11697  CovXX 0.0252575 XY 0.0158877 XZ 0.00446792 YY 0.0289605 YZ -0.00379918 ZZ 0.00469009 EllAz1  311.369 Dip1  59.3572 Len1  0.0655241 Az2  311.835 Dip2  -30.6419 Len2  0.22692 Len3  3.900762e-01</text>
        </comment>
        <creationInfo>
          <author>Genevieve Savard   obs:./obs_picked5/merged.obs   NLLoc:v7.00.00(27Oct2017)</author>
          <creationTime>2020-09-18T19:53:12.000000Z</creationTime>
        </creationInfo>
        <originUncertainty>
          <preferredDescription>uncertainty ellipse</preferredDescription>
          <minHorizontalUncertainty>159.881</minHorizontalUncertainty>
          <maxHorizontalUncertainty>314.864</maxHorizontalUncertainty>
          <azimuthMaxHorizontalUncertainty>41.6765</azimuthMaxHorizontalUncertainty>
          <confidenceLevel>68.0</confidenceLevel>
        </originUncertainty>
        <arrival publicID="smi:local/52fd004a-b5be-4f8e-97a9-8f7a828a61b0">
          <pickID>smi:local/cb7a695c-3173-446d-8db2-5dfa73d41ade</pickID>
          <phase>S</phase>
          <azimuth>359.0</azimuth>
          <distance>0.001812133035926242</distance>
          <takeoffAngle>
            <value>-1.0</value>
          </takeoffAngle>
          <timeResidual>-0.0051</timeResidual>
          <timeWeight>0.0904</timeWeight>
        </arrival>
        <arrival publicID="smi:local/5ce57891-f311-41bc-b81a-e177c4cac712">
          <pickID>smi:local/4016ee1b-bed3-4d66-b06d-ebbc1ce9f8cc</pickID>
          <phase>P</phase>
          <azimuth>359.0</azimuth>
          <distance>0.0026053346923465624</distance>
          <takeoffAngle>
            <value>-1.0</value>
          </takeoffAngle>
          <timeResidual>-0.0129</timeResidual>
          <timeWeight>1.2886</timeWeight>
        </arrival>
        <arrival publicID="smi:local/767093a2-6c78-48f6-8fac-2c76d3c9a882">
          <pickID>smi:local/e418d057-93f2-4061-8a90-0d7ef2d6c332</pickID>
          <phase>P</phase>
          <azimuth>359.0</azimuth>
          <distance>0.0026053346923465624</distance>
          <takeoffAngle>
            <value>-1.0</value>
          </takeoffAngle>
          <timeResidual>-0.0136</timeResidual>
          <timeWeight>0.0904</timeWeight>
        </arrival>
        <arrival publicID="smi:local/ad68500b-753e-4253-b121-2a2a6701d0ed">
          <pickID>smi:local/d1f83a7d-1fd6-4594-81a2-b0a9849b6b2b</pickID>
          <phase>P</phase>
          <azimuth>359.0</azimuth>
          <distance>0.0026053346923465624</distance>
          <takeoffAngle>
            <value>-1.0</value>
          </takeoffAngle>
          <timeResidual>-0.0141</timeResidual>
          <timeWeight>0.0904</timeWeight>
        </arrival>
        <arrival publicID="smi:local/7cc1390c-7880-401c-909f-f30bf4d1c0c6">
          <pickID>smi:local/93858d25-1df9-4319-98d0-7c4b5020b008</pickID>
          <phase>P</phase>
          <azimuth>359.0</azimuth>
          <distance>0.0026053346923465624</distance>
          <takeoffAngle>
            <value>-1.0</value>
          </takeoffAngle>
          <timeResidual>-0.0076</timeResidual>
          <timeWeight>1.5837</timeWeight>
        </arrival>
        <arrival publicID="smi:local/baf2a70b-3c33-4a9e-ada5-46cf38b30f2c">
          <pickID>smi:local/c6158688-c969-4f00-a821-3023b9a2ff60</pickID>
          <phase>P</phase>
          <azimuth>359.0</azimuth>
          <distance>0.0026053346923465624</distance>
          <takeoffAngle>
            <value>-1.0</value>
          </takeoffAngle>
          <timeResidual>-0.0072</timeResidual>
          <timeWeight>1.6663</timeWeight>
        </arrival>
        <arrival publicID="smi:local/a46c78ff-4b1b-445d-9312-add6e8b6d02a">
          <pickID>smi:local/b8ecd17c-d533-43ab-a5e1-ff1fdcdca951</pickID>
          <phase>P</phase>
          <azimuth>359.0</azimuth>
          <distance>0.0026053346923465624</distance>
          <takeoffAngle>
            <value>-1.0</value>
          </takeoffAngle>
          <timeResidual>0.0034</timeResidual>
          <timeWeight>1.8987</timeWeight>
        </arrival>
        <arrival publicID="smi:local/257cbc07-54d4-4897-ae4d-db9c80086424">
          <pickID>smi:local/19415663-bd0b-4197-ace3-1a1ab9a54df9</pickID>
          <phase>P</phase>
          <azimuth>359.0</azimuth>
          <distance>0.0026053346923465624</distance>
          <takeoffAngle>
            <value>-1.0</value>
          </takeoffAngle>
          <timeResidual>-0.0037</timeResidual>
          <timeWeight>1.295</timeWeight>
        </arrival>
        <arrival publicID="smi:local/3b724568-96d2-4c4f-9d6b-88edd68ffe9b">
          <pickID>smi:local/85b5f9c0-134e-402f-b61e-44b7d6fdafe2</pickID>
          <phase>P</phase>
          <azimuth>359.0</azimuth>
          <distance>0.0026053346923465624</distance>
          <takeoffAngle>
            <value>-1.0</value>
          </takeoffAngle>
          <timeResidual>0.0003</timeResidual>
          <timeWeight>1.6723</timeWeight>
        </arrival>
        <arrival publicID="smi:local/dc7a8eb6-86b7-4d00-9321-9ce0e97b4a78">
          <pickID>smi:local/4ebd9ee2-6f37-4c88-af22-610a00d9925d</pickID>
          <phase>P</phase>
          <azimuth>359.0</azimuth>
          <distance>0.0026053346923465624</distance>
          <takeoffAngle>
            <value>-1.0</value>
          </takeoffAngle>
          <timeResidual>0.0056</timeResidual>
          <timeWeight>2.097</timeWeight>
        </arrival>
        <arrival publicID="smi:local/66e3e955-13d2-48dd-ae35-165e85826cb0">
          <pickID>smi:local/c589f226-ce10-4335-a9a9-fa98d4d778c4</pickID>
          <phase>P</phase>
          <azimuth>359.0</azimuth>
          <distance>0.0026053346923465624</distance>
          <takeoffAngle>
            <value>-1.0</value>
          </takeoffAngle>
          <timeResidual>0.0026</timeResidual>
          <timeWeight>1.5147</timeWeight>
        </arrival>
        <arrival publicID="smi:local/d584126f-e206-431a-afc3-b2f3d3150dc6">
          <pickID>smi:local/fb77a552-b6d1-475b-a53f-9e70d8d4b181</pickID>
          <phase>P</phase>
          <azimuth>359.0</azimuth>
          <distance>0.0026053346923465624</distance>
          <takeoffAngle>
            <value>-1.0</value>
          </takeoffAngle>
          <timeResidual>0.0081</timeResidual>
          <timeWeight>1.6663</timeWeight>
        </arrival>
        <arrival publicID="smi:local/a71f2388-8bc5-46a6-b5ec-ef43ea35ece9">
          <pickID>smi:local/e8304d2a-0bd0-44af-95ea-0a7470f18c5a</pickID>
          <phase>P</phase>
          <azimuth>359.0</azimuth>
          <distance>0.0026053346923465624</distance>
          <takeoffAngle>
            <value>-1.0</value>
          </takeoffAngle>
          <timeResidual>0.0046</timeResidual>
          <timeWeight>1.7943</timeWeight>
        </arrival>
        <arrival publicID="smi:local/71189c30-ed46-49c6-9a51-f1b5b4516acf">
          <pickID>smi:local/706c1846-d894-46dc-8f91-09ade76a0c50</pickID>
          <phase>P</phase>
          <azimuth>359.0</azimuth>
          <distance>0.0026053346923465624</distance>
          <takeoffAngle>
            <value>-1.0</value>
          </takeoffAngle>
          <timeResidual>0.007</timeResidual>
          <timeWeight>1.3852</timeWeight>
        </arrival>
        <arrival publicID="smi:local/50bf167b-22e4-412d-97c2-c34dbeb18bc1">
          <pickID>smi:local/e8de1553-be70-4f56-9352-926c839151bd</pickID>
          <phase>S</phase>
          <azimuth>359.0</azimuth>
          <distance>0.0026053346923465624</distance>
          <takeoffAngle>
            <value>-1.0</value>
          </takeoffAngle>
          <timeResidual>0.0023</timeResidual>
          <timeWeight>1.7469</timeWeight>
        </arrival>
        <arrival publicID="smi:local/8bbc211d-a3dd-4e1f-90d4-03608c4082c1">
          <pickID>smi:local/ee78b134-3639-4336-a0c5-67e114327315</pickID>
          <phase>S</phase>
          <azimuth>359.0</azimuth>
          <distance>0.0026053346923465624</distance>
          <takeoffAngle>
            <value>-1.0</value>
          </takeoffAngle>
          <timeResidual>-0.0116</timeResidual>
          <timeWeight>1.1638</timeWeight>
        </arrival>
        <arrival publicID="smi:local/4a3e1cdd-f3a6-4d0e-a6ad-5b82516d078f">
          <pickID>smi:local/5617672b-2578-4e30-a661-5d840f5446b2</pickID>
          <phase>S</phase>
          <azimuth>359.0</azimuth>
          <distance>0.0026053346923465624</distance>
          <takeoffAngle>
            <value>-1.0</value>
          </takeoffAngle>
          <timeResidual>0.0065</timeResidual>
          <timeWeight>0.0904</timeWeight>
        </arrival>
        <arrival publicID="smi:local/9c9954af-03c7-4776-82b4-51a2ab6d8b97">
          <pickID>smi:local/59f5ebab-bfec-415e-9c64-aff4136dbeca</pickID>
          <phase>S</phase>
          <azimuth>359.0</azimuth>
          <distance>0.0026053346923465624</distance>
          <takeoffAngle>
            <value>-1.0</value>
          </takeoffAngle>
          <timeResidual>0.0033</timeResidual>
          <timeWeight>0.0904</timeWeight>
        </arrival>
        <arrival publicID="smi:local/3ac79462-3703-4bf8-850c-0c651fbc25c2">
          <pickID>smi:local/cf5413d0-d725-49a4-b6ad-d700e4db4bcb</pickID>
          <phase>S</phase>
          <azimuth>359.0</azimuth>
          <distance>0.0026053346923465624</distance>
          <takeoffAngle>
            <value>-1.0</value>
          </takeoffAngle>
          <timeResidual>-0.0161</timeResidual>
          <timeWeight>1.2052</timeWeight>
        </arrival>
        <arrival publicID="smi:local/ca5edc80-30a6-4a76-b9d0-6956931fb624">
          <pickID>smi:local/03ab5cb9-793e-4452-8795-3181c2887286</pickID>
          <phase>S</phase>
          <azimuth>359.0</azimuth>
          <distance>0.0026053346923465624</distance>
          <takeoffAngle>
            <value>-1.0</value>
          </takeoffAngle>
          <timeResidual>-0.0041</timeResidual>
          <timeWeight>0.0904</timeWeight>
        </arrival>
        <arrival publicID="smi:local/6176e3d2-9149-4d9e-a003-7a5f99e72a9e">
          <pickID>smi:local/3967d574-7e05-442b-b49a-f6bfca763d6c</pickID>
          <phase>S</phase>
          <azimuth>359.0</azimuth>
          <distance>0.0026053346923465624</distance>
          <takeoffAngle>
            <value>-1.0</value>
          </takeoffAngle>
          <timeResidual>0.0014</timeResidual>
          <timeWeight>1.753</timeWeight>
        </arrival>
        <arrival publicID="smi:local/275ac511-794a-475b-b22c-1ef5337fce22">
          <pickID>smi:local/37cb7262-3941-42b5-b8e1-f2799991ee83</pickID>
          <phase>S</phase>
          <azimuth>359.0</azimuth>
          <distance>0.0026053346923465624</distance>
          <takeoffAngle>
            <value>-1.0</value>
          </takeoffAngle>
          <timeResidual>0.0233</timeResidual>
          <timeWeight>0.0904</timeWeight>
        </arrival>
        <arrival publicID="smi:local/7b37b678-3e06-439f-84fd-108a34684a66">
          <pickID>smi:local/cc81936a-7ae5-4cbb-8af3-9ceda0c5db0d</pickID>
          <phase>S</phase>
          <azimuth>359.0</azimuth>
          <distance>0.0026053346923465624</distance>
          <takeoffAngle>
            <value>-1.0</value>
          </takeoffAngle>
          <timeResidual>0.0094</timeResidual>
          <timeWeight>1.3648</timeWeight>
        </arrival>
        <arrival publicID="smi:local/8e3c8a3f-6500-48ee-aae2-3cf0dc396d0d">
          <pickID>smi:local/f33b05df-ff4a-4d07-a989-3daee735ace0</pickID>
          <phase>S</phase>
          <azimuth>359.0</azimuth>
          <distance>0.0026053346923465624</distance>
          <takeoffAngle>
            <value>-1.0</value>
          </takeoffAngle>
          <timeResidual>0.0225</timeResidual>
          <timeWeight>0.0904</timeWeight>
        </arrival>
        <arrival publicID="smi:local/e66997c8-3137-4763-aa53-c7cbf2dba68d">
          <pickID>smi:local/da467bb2-7ba1-4377-a370-aac310b19913</pickID>
          <phase>S</phase>
          <azimuth>359.0</azimuth>
          <distance>0.0026053346923465624</distance>
          <takeoffAngle>
            <value>-1.0</value>
          </takeoffAngle>
          <timeResidual>0.0221</timeResidual>
          <timeWeight>0.0904</timeWeight>
        </arrival>
        <arrival publicID="smi:local/0de1b86b-62e3-48d6-86ad-1343a73dfd77">
          <pickID>smi:local/cc81853e-ff56-458f-bf5f-bdb7bafa85dc</pickID>
          <phase>S</phase>
          <azimuth>359.0</azimuth>
          <distance>0.0026053346923465624</distance>
          <takeoffAngle>
            <value>-1.0</value>
          </takeoffAngle>
          <timeResidual>0.0151</timeResidual>
          <timeWeight>0.0904</timeWeight>
        </arrival>
      </origin>
      <pick publicID="smi:local/19415663-bd0b-4197-ace3-1a1ab9a54df9">
        <time>
          <value>2020-02-18T14:29:24.745700Z</value>
          <uncertainty>0.00903</uncertainty>
        </time>
        <waveformID networkCode="XX" stationCode="G13" channelCode="DPE"></waveformID>
        <phaseHint>P</phaseHint>
      </pick>
      <pick publicID="smi:local/03ab5cb9-793e-4452-8795-3181c2887286">
        <time>
          <value>2020-02-18T14:29:24.991900Z</value>
          <uncertainty>0.05</uncertainty>
        </time>
        <waveformID networkCode="XX" stationCode="G13" channelCode="DPZ"></waveformID>
        <phaseHint>S</phaseHint>
      </pick>
      <pick publicID="smi:local/4016ee1b-bed3-4d66-b06d-ebbc1ce9f8cc">
        <time>
          <value>2020-02-18T14:29:24.727200Z</value>
          <uncertainty>0.00908</uncertainty>
        </time>
        <waveformID networkCode="XX" stationCode="G1" channelCode="DPE"></waveformID>
        <phaseHint>P</phaseHint>
      </pick>
      <pick publicID="smi:local/e8de1553-be70-4f56-9352-926c839151bd">
        <time>
          <value>2020-02-18T14:29:24.977200Z</value>
          <uncertainty>0.00588</uncertainty>
        </time>
        <waveformID networkCode="XX" stationCode="G1" channelCode="DPZ"></waveformID>
        <phaseHint>S</phaseHint>
      </pick>
      <pick publicID="smi:local/4ebd9ee2-6f37-4c88-af22-610a00d9925d">
        <time>
          <value>2020-02-18T14:29:24.751200Z</value>
          <uncertainty>0.00348</uncertainty>
        </time>
        <waveformID networkCode="XX" stationCode="G8" channelCode="DPZ"></waveformID>
        <phaseHint>P</phaseHint>
      </pick>
      <pick publicID="smi:local/59f5ebab-bfec-415e-9c64-aff4136dbeca">
        <time>
          <value>2020-02-18T14:29:24.989500Z</value>
          <uncertainty>0.05</uncertainty>
        </time>
        <waveformID networkCode="XX" stationCode="G8" channelCode="DPZ"></waveformID>
        <phaseHint>S</phaseHint>
      </pick>
      <pick publicID="smi:local/cb7a695c-3173-446d-8db2-5dfa73d41ade">
        <time>
          <value>2020-02-18T14:29:24.939200Z</value>
          <uncertainty>0.05</uncertainty>
        </time>
        <waveformID networkCode="XX" stationCode="F0703" channelCode="DPE"></waveformID>
        <phaseHint>S</phaseHint>
      </pick>
      <pick publicID="smi:local/93858d25-1df9-4319-98d0-7c4b5020b008">
        <time>
          <value>2020-02-18T14:29:24.736600Z</value>
          <uncertainty>0.00696</uncertainty>
        </time>
        <waveformID networkCode="XX" stationCode="G6" channelCode="DPE"></waveformID>
        <phaseHint>P</phaseHint>
      </pick>
      <pick publicID="smi:local/da467bb2-7ba1-4377-a370-aac310b19913">
        <time>
          <value>2020-02-18T14:29:25.004800Z</value>
          <uncertainty>0.05</uncertainty>
        </time>
        <waveformID networkCode="XX" stationCode="G6" channelCode="DPZ"></waveformID>
        <phaseHint>S</phaseHint>
      </pick>
      <pick publicID="smi:local/706c1846-d894-46dc-8f91-09ade76a0c50">
        <time>
          <value>2020-02-18T14:29:24.760200Z</value>
          <uncertainty>0.00835</uncertainty>
        </time>
        <waveformID networkCode="XX" stationCode="G17" channelCode="DPZ"></waveformID>
        <phaseHint>P</phaseHint>
      </pick>
      <pick publicID="smi:local/85b5f9c0-134e-402f-b61e-44b7d6fdafe2">
        <time>
          <value>2020-02-18T14:29:24.750500Z</value>
          <uncertainty>0.00637</uncertainty>
        </time>
        <waveformID networkCode="XX" stationCode="G14" channelCode="DPZ"></waveformID>
        <phaseHint>P</phaseHint>
      </pick>
      <pick publicID="smi:local/cc81853e-ff56-458f-bf5f-bdb7bafa85dc">
        <time>
          <value>2020-02-18T14:29:25.013100Z</value>
          <uncertainty>0.05</uncertainty>
        </time>
        <waveformID networkCode="XX" stationCode="G14" channelCode="DPZ"></waveformID>
        <phaseHint>S</phaseHint>
      </pick>
      <pick publicID="smi:local/d1f83a7d-1fd6-4594-81a2-b0a9849b6b2b">
        <time>
          <value>2020-02-18T14:29:24.729300Z</value>
          <uncertainty>0.05</uncertainty>
        </time>
        <waveformID networkCode="XX" stationCode="G5" channelCode="DPE"></waveformID>
        <phaseHint>P</phaseHint>
      </pick>
      <pick publicID="smi:local/f33b05df-ff4a-4d07-a989-3daee735ace0">
        <time>
          <value>2020-02-18T14:29:25.003700Z</value>
          <uncertainty>0.05</uncertainty>
        </time>
        <waveformID networkCode="XX" stationCode="G5" channelCode="DPZ"></waveformID>
        <phaseHint>S</phaseHint>
      </pick>
