<?xml version='1.0' encoding='utf-8'?>
<q:quakeml xmlns="http://quakeml.org/xmlns/bed/1.2" xmlns:q="http://quakeml.org/xmlns/quakeml/1.2">
  <eventParameters publicID="smi:local/c0c7b348-9344-4575-af38-cbe6ed47c255">
    <event publicID="smi:local/1571e26b-77e3-4ab3-b58d-79063a5140d9">
      <preferredOriginID>smi:local/fb2023ff-6eae-4689-82df-535d81c2dd22</preferredOriginID>
      <comment>
        <text>CaMI.FRS microseismicity</text>
      </comment>
      <comment id="smi:local/5f06a12d-22ad-46ff-b0a0-ef320bca255f">
        <text>eqcorrscan_template_2020_03_18t01_54_09</text>
      </comment>
      <creationInfo>
        <author>Genevieve Savard   obs:./obs_picked5/merged.obs   NLLoc:v7.00.00(27Oct2017)</author>
        <creationTime>2020-09-18T19:57:07.000000Z</creationTime>
      </creationInfo>
      <origin publicID="smi:local/fb2023ff-6eae-4689-82df-535d81c2dd22">
        <time>
          <value>2020-03-18T01:54:09.097176Z</value>
        </time>
        <latitude>
          <value>50.449545</value>
          <uncertainty>0.003487176785028203</uncertainty>
        </latitude>
        <longitude>
          <value>-112.115678</value>
          <uncertainty>0.0034929470568150715</uncertainty>
        </longitude>
        <depth>
          <value>43.75</value>
          <uncertainty>238.06490711568557</uncertainty>
          <confidenceLevel>68.0</confidenceLevel>
        </depth>
        <depthType>from location</depthType>
        <quality>
          <associatedPhaseCount>14</associatedPhaseCount>
          <usedPhaseCount>14</usedPhaseCount>
          <associatedStationCount>-1</associatedStationCount>
          <usedStationCount>14</usedStationCount>
          <depthPhaseCount>-1</depthPhaseCount>
          <standardError>0.00195577</standardError>
          <azimuthalGap>360.0</azimuthalGap>
          <secondaryAzimuthalGap>360.0</secondaryAzimuthalGap>
          <groundTruthLevel>-</groundTruthLevel>
          <minimumDistance>0.003390523393258147</minimumDistance>
          <maximumDistance>0.003390523393258147</maximumDistance>
          <medianDistance>0.003390523393258147</medianDistance>
        </quality>
        <comment>
          <text>Note: Depth/Latitude/Longitude errors are calculated from covariance matrix as 1D marginal (Lon/Lat errors as great circle degrees) while OriginUncertainty min/max horizontal errors are calculated from 2D error ellipsoid and are therefore seemingly higher compared to 1D errors. Error estimates can be reconstructed from the following original NonLinLoc error statistics line:
STATISTICS ExpectX -0.00544636 Y -0.0113206 Z 0.293006  CovXX 0.150853 XY 0.000620752 XZ 0.000855524 YY 0.150355 YZ 0.00150031 ZZ 0.0566749 EllAz1  209.368 Dip1  88.9515 Len1  0.447158 Az2  325.399 Dip2  0.460195 Len2  0.727526 Len3  7.308107e-01</text>
        </comment>
        <creationInfo>
          <author>Genevieve Savard   obs:./obs_picked5/merged.obs   NLLoc:v7.00.00(27Oct2017)</author>
          <creationTime>2020-09-18T19:57:07.000000Z</creationTime>
        </creationInfo>
        <originUncertainty>
          <preferredDescription>uncertainty ellipse</preferredDescription>
          <minHorizontalUncertainty>587.241</minHorizontalUncertainty>
          <maxHorizontalUncertainty>589.854</maxHorizontalUncertainty>
          <azimuthMaxHorizontalUncertainty>55.9343</azimuthMaxHorizontalUncertainty>
          <confidenceLevel>68.0</confidenceLevel>
        </originUncertainty>
        <arrival publicID="smi:local/dcbe2eb2-7ee3-4597-96d0-e9b362ce7f53">
          <pickID>smi:local/abd2a059-a6c6-47f2-ab81-4f4ef9f4f362</pickID>
          <phase>P</phase>
          <azimuth>359.0</azimuth>
          <distance>0.003390442454313614</distance>
          <takeoffAngle>
            <value>-1.0</value>
          </takeoffAngle>
          <timeResidual>-0.0033</timeResidual>
          <timeWeight>1.0</timeWeight>
        </arrival>
        <arrival publicID="smi:local/c43109ae-fa26-4678-8ee0-aa9c084d11e0">
          <pickID>smi:local/bf2e2186-2181-4499-b037-ff3ca41cd95b</pickID>
          <phase>P</phase>
          <azimuth>359.0</azimuth>
          <distance>0.003390442454313614</distance>
          <takeoffAngle>
            <value>-1.0</value>
          </takeoffAngle>
          <timeResidual>0.0045</timeResidual>
          <timeWeight>1.0</timeWeight>
        </arrival>
        <arrival publicID="smi:local/cb4aa649-c036-478a-931c-35afce8f5315">
          <pickID>smi:local/d31b0252-80e4-4fc6-aae2-abf5eedd664d</pickID>
          <phase>S</phase>
          <azimuth>359.0</azimuth>
          <distance>0.003390442454313614</distance>
          <takeoffAngle>
            <value>-1.0</value>
          </takeoffAngle>
          <timeResidual>0.0003</timeResidual>
          <timeWeight>1.0</timeWeight>
        </arrival>
        <arrival publicID="smi:local/9ee537bd-8941-4d84-9d94-545aa9c139f5">
          <pickID>smi:local/90077cc3-5e1a-436a-b142-d2eae520a871</pickID>
          <phase>S</phase>
          <azimuth>359.0</azimuth>
          <distance>0.003390442454313614</distance>
          <takeoffAngle>
            <value>-1.0</value>
          </takeoffAngle>
          <timeResidual>-0.0005</timeResidual>
          <timeWeight>1.0</timeWeight>
        </arrival>
        <arrival publicID="smi:local/06800fe1-de47-4c1a-bc94-df8c7e92ccfb">
          <pickID>smi:local/f6f79141-ed0e-474f-9a48-b4f3ed01c061</pickID>
          <phase>S</phase>
          <azimuth>359.0</azimuth>
          <distance>0.003390442454313614</distance>
          <takeoffAngle>
            <value>-1.0</value>
          </takeoffAngle>
          <timeResidual>-0.0007</timeResidual>
          <timeWeight>1.0</timeWeight>
        </arrival>
        <arrival publicID="smi:local/05d7382e-3d20-4ae8-b658-4bc96e2fc43a">
          <pickID>smi:local/4cdc5848-9bd9-442d-9803-60b90457416f</pickID>
          <phase>S</phase>
          <azimuth>359.0</azimuth>
          <distance>0.003390442454313614</distance>
          <takeoffAngle>
            <value>-1.0</value>
          </takeoffAngle>
          <timeResidual>-0.0004</timeResidual>
          <timeWeight>1.0</timeWeight>
        </arrival>
        <arrival publicID="smi:local/241ccd0c-be9c-49d4-875c-088965567722">
          <pickID>smi:local/82249764-d225-4615-b58c-3f40c7ff4924</pickID>
          <phase>S</phase>
          <azimuth>359.0</azimuth>
          <distance>0.003390442454313614</distance>
          <takeoffAngle>
            <value>-1.0</value>
          </takeoffAngle>
          <timeResidual>0.0002</timeResidual>
          <timeWeight>1.0</timeWeight>
        </arrival>
        <arrival publicID="smi:local/55668727-9bf8-4126-a367-6323e0c826f5">
          <pickID>smi:local/5a6f71d8-271f-45dc-badb-610b0c087771</pickID>
          <phase>S</phase>
          <azimuth>359.0</azimuth>
          <distance>0.003390442454313614</distance>
          <takeoffAngle>
            <value>-1.0</value>
          </takeoffAngle>
          <timeResidual>-0.0041</timeResidual>
          <timeWeight>1.0</timeWeight>
        </arrival>
        <arrival publicID="smi:local/bbf05fdf-d662-4820-9f12-6c5a5b092a37">
          <pickID>smi:local/5cfd508e-98d2-42f6-97b6-1777102532f8</pickID>
          <phase>S</phase>
          <azimuth>359.0</azimuth>
          <distance>0.003390442454313614</distance>
          <takeoffAngle>
            <value>-1.0</value>
          </takeoffAngle>
          <timeResidual>0.0011</timeResidual>
          <timeWeight>1.0</timeWeight>
        </arrival>
        <arrival publicID="smi:local/8047642f-ef7c-404c-a182-396072584f27">
          <pickID>smi:local/ebeecf5d-073f-43a6-af85-9960ca5d8a4b</pickID>
          <phase>S</phase>
          <azimuth>359.0</azimuth>
          <distance>0.003390442454313614</distance>
          <takeoffAngle>
            <value>-1.0</value>
          </takeoffAngle>
          <timeResidual>0.001</timeResidual>
          <timeWeight>1.0</timeWeight>
        </arrival>
        <arrival publicID="smi:local/e65eb10c-3f8d-47a9-a669-2d877b1dd22a">
          <pickID>smi:local/6531ec37-c05a-4586-8785-8fd2f2c8be5e</pickID>
          <phase>S</phase>
          <azimuth>359.0</azimuth>
          <distance>0.003390442454313614</distance>
          <takeoffAngle>
            <value>-1.0</value>
          </takeoffAngle>
          <timeResidual>0.0008</timeResidual>
          <timeWeight>1.0</timeWeight>
        </arrival>
        <arrival publicID="smi:local/c510ef85-be42-4ce7-bfc9-1f374fe8a50d">
          <pickID>smi:local/753d468b-0584-436a-bea1-20eb5fb7ad06</pickID>
          <phase>S</phase>
          <azimuth>359.0</azimuth>
          <distance>0.003390442454313614</distance>
          <takeoffAngle>
            <value>-1.0</value>
          </takeoffAngle>
          <timeResidual>0.001</timeResidual>
          <timeWeight>1.0</timeWeight>
        </arrival>
        <arrival publicID="smi:local/d0360ae5-35ce-40ca-ae59-777fb080e70a">
          <pickID>smi:local/0d3c31b7-3dd9-4645-b699-6aa3b512d385</pickID>
          <phase>S</phase>
          <azimuth>359.0</azimuth>
          <distance>0.003390442454313614</distance>
          <takeoffAngle>
            <value>-1.0</value>
          </takeoffAngle>
          <timeResidual>0.0006</timeResidual>
          <timeWeight>1.0</timeWeight>
        </arrival>
        <arrival publicID="smi:local/4f823580-cb16-4cf0-9dae-49edfdf147c8">
          <pickID>smi:local/2731b75b-95d8-4acb-84f1-9ac46e374371</pickID>
          <phase>S</phase>
          <azimuth>359.0</azimuth>
          <distance>0.003390442454313614</distance>
          <takeoffAngle>
            <value>-1.0</value>
          </takeoffAngle>
          <timeResidual>-0.0004</timeResidual>
          <timeWeight>1.0</timeWeight>
        </arrival>
      </origin>
      <pick publicID="smi:local/2731b75b-95d8-4acb-84f1-9ac46e374371">
        <time>
          <value>2020-03-18T01:54:09.538400Z</value>
          <uncertainty>0.05</uncertainty>
        </time>
        <waveformID networkCode="XX" stationCode="G18" channelCode="DPZ"></waveformID>
        <phaseHint>S</phaseHint>
      </pick>
      <pick publicID="smi:local/6531ec37-c05a-4586-8785-8fd2f2c8be5e">
        <time>
          <value>2020-03-18T01:54:09.529700Z</value>
          <uncertainty>0.05</uncertainty>
        </time>
        <waveformID networkCode="XX" stationCode="G13" channelCode="DPZ"></waveformID>
        <phaseHint>S</phaseHint>
      </pick>
      <pick publicID="smi:local/ebeecf5d-073f-43a6-af85-9960ca5d8a4b">
        <time>
          <value>2020-03-18T01:54:09.528100Z</value>
          <uncertainty>0.05</uncertainty>
        </time>
        <waveformID networkCode="XX" stationCode="G12" channelCode="DPZ"></waveformID>
        <phaseHint>S</phaseHint>
      </pick>
      <pick publicID="smi:local/0d3c31b7-3dd9-4645-b699-6aa3b512d385">
        <time>
          <value>2020-03-18T01:54:09.537100Z</value>
          <uncertainty>0.05</uncertainty>
        </time>
        <waveformID networkCode="XX" stationCode="G17" channelCode="DPZ"></waveformID>
        <phaseHint>S</phaseHint>
      </pick>
      <pick publicID="smi:local/753d468b-0584-436a-bea1-20eb5fb7ad06">
        <time>
          <value>2020-03-18T01:54:09.533400Z</value>
          <uncertainty>0.05</uncertainty>
        </time>
        <waveformID networkCode="XX" stationCode="G15" channelCode="DPZ"></waveformID>
        <phaseHint>S</phaseHint>
      </pick>
      <pick publicID="smi:local/abd2a059-a6c6-47f2-ab81-4f4ef9f4f362">
        <time>
          <value>2020-03-18T01:54:09.271200Z</value>
          <uncertainty>0.05</uncertainty>
        </time>
        <waveformID networkCode="XX" stationCode="G1" channelCode="DPZ"></waveformID>
        <phaseHint>P</phaseHint>
      </pick>
      <pick publicID="smi:local/5a6f71d8-271f-45dc-badb-610b0c087771">
        <time>
          <value>2020-03-18T01:54:09.526400Z</value>
          <uncertainty>0.05</uncertainty>
        </time>
        <waveformID networkCode="XX" stationCode="G14" channelCode="DPZ"></waveformID>
        <phaseHint>S</phaseHint>
      </pick>
      <pick publicID="smi:local/82249764-d225-4615-b58c-3f40c7ff4924">
        <time>
          <value>2020-03-18T01:54:09.520700Z</value>
          <uncertainty>0.05</uncertainty>
        </time>
        <waveformID networkCode="XX" stationCode="G8" channelCode="DPZ"></waveformID>
        <phaseHint>S</phaseHint>
      </pick>
      <pick publicID="smi:local/d31b0252-80e4-4fc6-aae2-abf5eedd664d">
        <time>
          <value>2020-03-18T01:54:09.513200Z</value>
          <uncertainty>0.05</uncertainty>
        </time>
        <waveformID networkCode="XX" stationCode="G2" channelCode="DPZ"></waveformID>
        <phaseHint>S</phaseHint>
      </pick>
      <pick publicID="smi:local/5cfd508e-98d2-42f6-97b6-1777102532f8">
        <time>
          <value>2020-03-18T01:54:09.526700Z</value>
          <uncertainty>0.05</uncertainty>
        </time>
        <waveformID networkCode="XX" stationCode="G11" channelCode="DPZ"></waveformID>
        <phaseHint>S</phaseHint>
      </pick>
      <pick publicID="smi:local/90077cc3-5e1a-436a-b142-d2eae520a871">
        <time>
          <value>2020-03-18T01:54:09.515500Z</value>
          <uncertainty>0.05</uncertainty>
        </time>
        <waveformID networkCode="XX" stationCode="G4" channelCode="DPN"></waveformID>
        <phaseHint>S</phaseHint>
      </pick>
      <pick publicID="smi:local/bf2e2186-2181-4499-b037-ff3ca41cd95b">
        <time>
          <value>2020-03-18T01:54:09.281600Z</value>
          <uncertainty>0.05</uncertainty>
        </time>
        <waveformID networkCode="XX" stationCode="G5" channelCode="DPE"></waveformID>
        <phaseHint>P</phaseHint>
      </pick>
      <pick publicID="smi:local/f6f79141-ed0e-474f-9a48-b4f3ed01c061">
        <time>
          <value>2020-03-18T01:54:09.516100Z</value>
          <uncertainty>0.05</uncertainty>
        </time>
        <waveformID networkCode="XX" stationCode="G5" channelCode="DPZ"></waveformID>
        <phaseHint>S</phaseHint>
      </pick>
      <pick publicID="smi:local/4cdc5848-9bd9-442d-9803-60b90457416f">
        <time>
          <value>2020-03-18T01:54:09.517800Z</value>
          <uncertainty>0.05</uncertainty>
        </time>
        <waveformID networkCode="XX" stationCode="G6" channelCode="DPZ"></waveformID>
        <phaseHint>S</phaseHint>
      </pick>
    </event>
  </eventParameters>
</q:quakeml>
