<?xml version='1.0' encoding='utf-8'?>
<q:quakeml xmlns="http://quakeml.org/xmlns/bed/1.2" xmlns:q="http://quakeml.org/xmlns/quakeml/1.2">
  <eventParameters publicID="smi:local/4df1876e-1ea9-49da-8ee0-76ac97f85af9">
    <event publicID="smi:local/13ab5fe3-5bf1-4231-aafd-8e03b2b62f5b">
      <preferredOriginID>smi:local/1f2d344e-11e4-41d7-9839-b7453faaa6b9</preferredOriginID>
      <comment>
        <text>CaMI.FRS microseismicity</text>
      </comment>
      <comment id="smi:local/c3866efa-d78b-451a-b75b-59d9d9571c41">
        <text>eqcorrscan_template_2020_02_25t09_46_36</text>
      </comment>
      <creationInfo>
        <author>Genevieve Savard   obs:./obs_picked5/merged.obs   NLLoc:v7.00.00(27Oct2017)</author>
        <creationTime>2020-09-18T19:54:24.000000Z</creationTime>
      </creationInfo>
      <origin publicID="smi:local/1f2d344e-11e4-41d7-9839-b7453faaa6b9">
        <time>
          <value>2020-02-25T09:46:37.715194Z</value>
        </time>
        <latitude>
          <value>50.453641</value>
          <uncertainty>1.9079378639115523e-05</uncertainty>
        </latitude>
        <longitude>
          <value>-112.11586</value>
          <uncertainty>3.5927307233141736e-05</uncertainty>
        </longitude>
        <depth>
          <value>0.391</value>
          <uncertainty>0.46830972656992725</uncertainty>
          <confidenceLevel>68.0</confidenceLevel>
        </depth>
        <depthType>from location</depthType>
        <quality>
          <associatedPhaseCount>21</associatedPhaseCount>
          <usedPhaseCount>21</usedPhaseCount>
          <associatedStationCount>-1</associatedStationCount>
          <usedStationCount>21</usedStationCount>
          <depthPhaseCount>-1</depthPhaseCount>
          <standardError>0.916267</standardError>
          <azimuthalGap>181.572</azimuthalGap>
          <secondaryAzimuthalGap>283.767</secondaryAzimuthalGap>
          <groundTruthLevel>-</groundTruthLevel>
          <minimumDistance>3.082325878909798e-05</minimumDistance>
          <maximumDistance>0.008890945206162227</maximumDistance>
          <medianDistance>0.00460863652204295</medianDistance>
        </quality>
        <comment>
          <text>Note: Depth/Latitude/Longitude errors are calculated from covariance matrix as 1D marginal (Lon/Lat errors as great circle degrees) while OriginUncertainty min/max horizontal errors are calculated from 2D error ellipsoid and are therefore seemingly higher compared to 1D errors. Error estimates can be reconstructed from the following original NonLinLoc error statistics line:
STATISTICS ExpectX 0.343288 Y 0.359754 Z 0.000563679  CovXX 1.59595e-05 XY 7.26912e-07 XZ 3.55447e-08 YY 4.50089e-06 YZ 8.04547e-09 ZZ 2.19314e-07 EllAz1  235.441 Dip1  89.8477 Len1  0.000879694 Az2  356.384 Dip2  0.0782928 Len2  0.00396561 Len3  7.516614e-03</text>
        </comment>
        <creationInfo>
          <author>Genevieve Savard   obs:./obs_picked5/merged.obs   NLLoc:v7.00.00(27Oct2017)</author>
          <creationTime>2020-09-18T19:54:24.000000Z</creationTime>
        </creationInfo>
        <originUncertainty>
          <preferredDescription>uncertainty ellipse</preferredDescription>
          <minHorizontalUncertainty>3.201</minHorizontalUncertainty>
          <maxHorizontalUncertainty>6.06733</maxHorizontalUncertainty>
          <azimuthMaxHorizontalUncertainty>86.3846</azimuthMaxHorizontalUncertainty>
          <confidenceLevel>68.0</confidenceLevel>
        </originUncertainty>
        <arrival publicID="smi:local/2421c949-d7d8-420d-b91d-a6b72613d1a4">
          <pickID>smi:local/48659464-9abf-4ed1-bdb3-a8b8a4ceb812</pickID>
          <phase>S</phase>
          <azimuth>359.0</azimuth>
          <distance>3.0576934601236835e-05</distance>
          <takeoffAngle>
            <value>-1.0</value>
          </takeoffAngle>
          <timeResidual>-1.1172</timeResidual>
          <timeWeight>1.0</timeWeight>
        </arrival>
        <arrival publicID="smi:local/02a060ae-bb2d-4975-9019-45a8959dbe45">
          <pickID>smi:local/42b38618-c84d-492b-9ffa-b9d1003c4e3e</pickID>
          <phase>S</phase>
          <azimuth>359.0</azimuth>
          <distance>0.001261748213103979</distance>
          <takeoffAngle>
            <value>-1.0</value>
          </takeoffAngle>
          <timeResidual>-1.3811</timeResidual>
          <timeWeight>1.0</timeWeight>
        </arrival>
        <arrival publicID="smi:local/36ca0898-9179-4370-82d9-b81fef6ef38f">
          <pickID>smi:local/534a5225-598e-4e00-acae-62045a5554fe</pickID>
          <phase>S</phase>
          <azimuth>359.0</azimuth>
          <distance>0.0012770366804045973</distance>
          <takeoffAngle>
            <value>-1.0</value>
          </takeoffAngle>
          <timeResidual>-1.5958</timeResidual>
          <timeWeight>1.0</timeWeight>
        </arrival>
        <arrival publicID="smi:local/8283c079-b363-4312-a76f-aa55e2bae260">
          <pickID>smi:local/602a74ce-cf82-464b-8c41-8f90b218c9b1</pickID>
          <phase>S</phase>
          <azimuth>359.0</azimuth>
          <distance>0.0025459794663559264</distance>
          <takeoffAngle>
            <value>-1.0</value>
          </takeoffAngle>
          <timeResidual>-1.8403</timeResidual>
          <timeWeight>1.0</timeWeight>
        </arrival>
        <arrival publicID="smi:local/53de750b-2b56-4db0-b759-6810b6cacdf4">
          <pickID>smi:local/72b76027-1d01-4e45-9dd9-47c8ae2a8097</pickID>
          <phase>P</phase>
          <azimuth>359.0</azimuth>
          <distance>0.004609023230333494</distance>
          <takeoffAngle>
            <value>-1.0</value>
          </takeoffAngle>
          <timeResidual>0.9251</timeResidual>
          <timeWeight>1.0</timeWeight>
        </arrival>
        <arrival publicID="smi:local/e074857e-5f93-4299-bf85-797056106622">
          <pickID>smi:local/a66c0970-6bf7-4fb5-b692-415d0b360f49</pickID>
          <phase>S</phase>
          <azimuth>359.0</azimuth>
          <distance>0.004609023230333494</distance>
          <takeoffAngle>
            <value>-1.0</value>
          </takeoffAngle>
          <timeResidual>0.5972</timeResidual>
          <timeWeight>1.0</timeWeight>
        </arrival>
        <arrival publicID="smi:local/bf816b05-4d91-4a02-a88b-566360764432">
          <pickID>smi:local/28b8753f-3e49-4d58-9903-fee22ba4f9f8</pickID>
          <phase>S</phase>
          <azimuth>359.0</azimuth>
          <distance>0.004609023230333494</distance>
          <takeoffAngle>
            <value>-1.0</value>
          </takeoffAngle>
          <timeResidual>0.6168</timeResidual>
          <timeWeight>1.0</timeWeight>
        </arrival>
        <arrival publicID="smi:local/73e58359-1d51-4b47-a4ca-833943932253">
          <pickID>smi:local/856bd647-3ed2-4edc-aacf-5614024d512a</pickID>
          <phase>S</phase>
          <azimuth>359.0</azimuth>
          <distance>0.004609023230333494</distance>
          <takeoffAngle>
            <value>-1.0</value>
          </takeoffAngle>
          <timeResidual>0.6203</timeResidual>
          <timeWeight>1.0</timeWeight>
        </arrival>
        <arrival publicID="smi:local/b89e4164-ddc5-4f85-b23a-3677b1580f4a">
          <pickID>smi:local/71a29f00-c705-4920-b0dc-422751ff4a4f</pickID>
          <phase>S</phase>
          <azimuth>359.0</azimuth>
          <distance>0.004609023230333494</distance>
          <takeoffAngle>
            <value>-1.0</value>
          </takeoffAngle>
          <timeResidual>0.6154</timeResidual>
          <timeWeight>1.0</timeWeight>
        </arrival>
        <arrival publicID="smi:local/12da2e7d-b6e7-48fe-b2b3-da21e21d9950">
          <pickID>smi:local/4a7055cd-109b-4805-933b-af2e9eeb6440</pickID>
          <phase>S</phase>
          <azimuth>359.0</azimuth>
          <distance>0.004609023230333494</distance>
          <takeoffAngle>
            <value>-1.0</value>
          </takeoffAngle>
          <timeResidual>0.6243</timeResidual>
          <timeWeight>1.0</timeWeight>
        </arrival>
        <arrival publicID="smi:local/deda9387-224a-4e84-94d7-55fa437ce468">
          <pickID>smi:local/50a31934-e67a-4387-93e4-82dfc2ce0793</pickID>
          <phase>S</phase>
          <azimuth>359.0</azimuth>
          <distance>0.004609023230333494</distance>
          <takeoffAngle>
            <value>-1.0</value>
          </takeoffAngle>
          <timeResidual>0.6184</timeResidual>
          <timeWeight>1.0</timeWeight>
        </arrival>
        <arrival publicID="smi:local/73ccea9e-15e8-4f98-be8f-50f83f728c70">
          <pickID>smi:local/c8f63aea-79eb-44b7-b2bb-22476c228f51</pickID>
          <phase>S</phase>
          <azimuth>359.0</azimuth>
          <distance>0.004609023230333494</distance>
          <takeoffAngle>
            <value>-1.0</value>
          </takeoffAngle>
          <timeResidual>0.6192</timeResidual>
          <timeWeight>1.0</timeWeight>
        </arrival>
        <arrival publicID="smi:local/728c7773-a33a-4db3-a7db-bd25b0d7c371">
          <pickID>smi:local/a4010852-e9eb-488b-a7a7-d93ddf0cd32b</pickID>
          <phase>S</phase>
          <azimuth>359.0</azimuth>
          <distance>0.004609023230333494</distance>
          <takeoffAngle>
            <value>-1.0</value>
          </takeoffAngle>
          <timeResidual>0.6258</timeResidual>
          <timeWeight>1.0</timeWeight>
        </arrival>
        <arrival publicID="smi:local/08520d89-5f70-4c5d-80cc-50c2a19d72ac">
          <pickID>smi:local/1b1adb18-bddf-48a5-bce9-16e514f5da6d</pickID>
          <phase>S</phase>
          <azimuth>359.0</azimuth>
          <distance>0.004609023230333494</distance>
          <takeoffAngle>
            <value>-1.0</value>
          </takeoffAngle>
          <timeResidual>0.6342</timeResidual>
          <timeWeight>1.0</timeWeight>
        </arrival>
        <arrival publicID="smi:local/3bfb6568-e83a-40d9-b8db-8c89affd7104">
          <pickID>smi:local/090bbe93-f453-418a-947b-754851b976be</pickID>
          <phase>S</phase>
          <azimuth>359.0</azimuth>
          <distance>0.004609023230333494</distance>
          <takeoffAngle>
            <value>-1.0</value>
          </takeoffAngle>
          <timeResidual>0.6428</timeResidual>
          <timeWeight>1.0</timeWeight>
        </arrival>
        <arrival publicID="smi:local/618334b6-304d-47ef-811e-e38dd3cb73c1">
          <pickID>smi:local/db34f3b3-d122-42f0-8811-1b3c30816a92</pickID>
          <phase>S</phase>
          <azimuth>359.0</azimuth>
          <distance>0.004856336671961145</distance>
          <takeoffAngle>
            <value>-1.0</value>
          </takeoffAngle>
          <timeResidual>0.3088</timeResidual>
          <timeWeight>1.0</timeWeight>
        </arrival>
        <arrival publicID="smi:local/eb1a4e97-a514-4611-a233-318bbbae329a">
          <pickID>smi:local/0b9fe0ad-f2ab-4437-bd6f-14cdde283c29</pickID>
          <phase>S</phase>
          <azimuth>359.0</azimuth>
          <distance>0.005489459082527932</distance>
          <takeoffAngle>
            <value>-1.0</value>
          </takeoffAngle>
          <timeResidual>-1.9053</timeResidual>
          <timeWeight>1.0</timeWeight>
        </arrival>
        <arrival publicID="smi:local/9d75a10c-de57-43af-a563-c8b5e595e1d4">
          <pickID>smi:local/b2c7fe9c-bb58-40a3-ae8d-89924569014e</pickID>
          <phase>S</phase>
          <azimuth>359.0</azimuth>
          <distance>0.006352807824209912</distance>
          <takeoffAngle>
            <value>-1.0</value>
          </takeoffAngle>
          <timeResidual>0.1613</timeResidual>
          <timeWeight>1.0</timeWeight>
        </arrival>
        <arrival publicID="smi:local/12550352-6dd8-44b5-a941-d7d46be623cc">
          <pickID>smi:local/ccc9ed70-327f-4bf1-b469-5b9ec2a0503e</pickID>
          <phase>S</phase>
          <azimuth>359.0</azimuth>
          <distance>0.007272813827064774</distance>
          <takeoffAngle>
            <value>-1.0</value>
          </takeoffAngle>
          <timeResidual>0.2602</timeResidual>
          <timeWeight>1.0</timeWeight>
        </arrival>
        <arrival publicID="smi:local/401afef6-0f02-47a4-8323-7ecc7c1f91ff">
          <pickID>smi:local/dfd70acc-b388-4a45-9e09-c2eef6e08f89</pickID>
          <phase>S</phase>
          <azimuth>359.0</azimuth>
          <distance>0.007621750610161242</distance>
          <takeoffAngle>
            <value>-1.0</value>
          </takeoffAngle>
          <timeResidual>0.0209</timeResidual>
          <timeWeight>1.0</timeWeight>
        </arrival>
        <arrival publicID="smi:local/f7bae169-9b55-4eb3-96bb-82e2171a0055">
          <pickID>smi:local/5ccd86d5-eafa-4a9d-af0f-6c074a2fd019</pickID>
          <phase>S</phase>
          <azimuth>359.0</azimuth>
          <distance>0.00889069339611257</distance>
          <takeoffAngle>
            <value>-1.0</value>
          </takeoffAngle>
          <timeResidual>-0.0511</timeResidual>
          <timeWeight>1.0</timeWeight>
        </arrival>
      </origin>
      <pick publicID="smi:local/090bbe93-f453-418a-947b-754851b976be">
        <time>
          <value>2020-02-25T09:46:38.961400Z</value>
          <uncertainty>0.05</uncertainty>
        </time>
        <waveformID networkCode="XX" stationCode="G11" channelCode="DPZ"></waveformID>
        <phaseHint>S</phaseHint>
      </pick>
      <pick publicID="smi:local/4a7055cd-109b-4805-933b-af2e9eeb6440">
        <time>
          <value>2020-02-25T09:46:38.945900Z</value>
          <uncertainty>0.05</uncertainty>
        </time>
        <waveformID networkCode="XX" stationCode="G13" channelCode="DPZ"></waveformID>
        <phaseHint>S</phaseHint>
      </pick>
      <pick publicID="smi:local/28b8753f-3e49-4d58-9903-fee22ba4f9f8">
        <time>
          <value>2020-02-25T09:46:38.927900Z</value>
          <uncertainty>0.05</uncertainty>
        </time>
        <waveformID networkCode="XX" stationCode="G6" channelCode="DPZ"></waveformID>
        <phaseHint>S</phaseHint>
      </pick>
      <pick publicID="smi:local/a4010852-e9eb-488b-a7a7-d93ddf0cd32b">
        <time>
          <value>2020-02-25T09:46:38.950600Z</value>
          <uncertainty>0.05</uncertainty>
        </time>
        <waveformID networkCode="XX" stationCode="G15" channelCode="DPZ"></waveformID>
        <phaseHint>S</phaseHint>
      </pick>
      <pick publicID="smi:local/c8f63aea-79eb-44b7-b2bb-22476c228f51">
        <time>
          <value>2020-02-25T09:46:38.949100Z</value>
          <uncertainty>0.05</uncertainty>
        </time>
        <waveformID networkCode="XX" stationCode="G18" channelCode="DPZ"></waveformID>
        <phaseHint>S</phaseHint>
      </pick>
      <pick publicID="smi:local/534a5225-598e-4e00-acae-62045a5554fe">
        <time>
          <value>2020-02-25T09:46:36.406100Z</value>
          <uncertainty>0.05</uncertainty>
        </time>
        <waveformID networkCode="XX" stationCode="F0708" channelCode="DPZ"></waveformID>
        <phaseHint>S</phaseHint>
      </pick>
      <pick publicID="smi:local/856bd647-3ed2-4edc-aacf-5614024d512a">
        <time>
          <value>2020-02-25T09:46:38.928200Z</value>
          <uncertainty>0.05</uncertainty>
        </time>
        <waveformID networkCode="XX" stationCode="G2" channelCode="DPZ"></waveformID>
        <phaseHint>S</phaseHint>
      </pick>
      <pick publicID="smi:local/5ccd86d5-eafa-4a9d-af0f-6c074a2fd019">
        <time>
          <value>2020-02-25T09:46:38.814100Z</value>
          <uncertainty>0.05</uncertainty>
        </time>
        <waveformID networkCode="XX" stationCode="F0102" channelCode="DPE"></waveformID>
        <phaseHint>S</phaseHint>
      </pick>
      <pick publicID="smi:local/a66c0970-6bf7-4fb5-b692-415d0b360f49">
        <time>
          <value>2020-02-25T09:46:38.920300Z</value>
          <uncertainty>0.05</uncertainty>
        </time>
        <waveformID networkCode="XX" stationCode="G14" channelCode="DPZ"></waveformID>
        <phaseHint>S</phaseHint>
      </pick>
      <pick publicID="smi:local/db34f3b3-d122-42f0-8811-1b3c30816a92">
        <time>
          <value>2020-02-25T09:46:38.818100Z</value>
          <uncertainty>0.05</uncertainty>
        </time>
        <waveformID networkCode="XX" stationCode="F0604" channelCode="DPZ"></waveformID>
        <phaseHint>S</phaseHint>
      </pick>
      <pick publicID="smi:local/48659464-9abf-4ed1-bdb3-a8b8a4ceb812">
        <time>
          <value>2020-02-25T09:46:36.610100Z</value>
          <uncertainty>0.05</uncertainty>
        </time>
        <waveformID networkCode="XX" stationCode="F0809" channelCode="DPE"></waveformID>
        <phaseHint>S</phaseHint>
      </pick>
      <pick publicID="smi:local/42b38618-c84d-492b-9ffa-b9d1003c4e3e">
        <time>
          <value>2020-02-25T09:46:36.618100Z</value>
          <uncertainty>0.05</uncertainty>
        </time>
        <waveformID networkCode="XX" stationCode="F0910" channelCode="DPE"></waveformID>
        <phaseHint>S</phaseHint>
      </pick>
      <pick publicID="smi:local/602a74ce-cf82-464b-8c41-8f90b218c9b1">
        <time>
          <value>2020-02-25T09:46:36.386100Z</value>
          <uncertainty>0.05</uncertainty>
        </time>
        <waveformID networkCode="XX" stationCode="F0607" channelCode="DPE"></waveformID>
        <phaseHint>S</phaseHint>
      </pick>
      <pick publicID="smi:local/b2c7fe9c-bb58-40a3-ae8d-89924569014e">
        <time>
          <value>2020-02-25T09:46:38.802100Z</value>
          <uncertainty>0.05</uncertainty>
        </time>
        <waveformID networkCode="XX" stationCode="F0304" channelCode="DPN"></waveformID>
        <phaseHint>S</phaseHint>
      </pick>
      <pick publicID="smi:local/50a31934-e67a-4387-93e4-82dfc2ce0793">
        <time>
          <value>2020-02-25T09:46:38.946600Z</value>
          <uncertainty>0.05</uncertainty>
        </time>
        <waveformID networkCode="XX" stationCode="G17" channelCode="DPZ"></waveformID>
        <phaseHint>S</phaseHint>
      </pick>
      <pick publicID="smi:local/1b1adb18-bddf-48a5-bce9-16e514f5da6d">
        <time>
          <value>2020-02-25T09:46:38.954200Z</value>
          <uncertainty>0.05</uncertainty>
        </time>
        <waveformID networkCode="XX" stationCode="G12" channelCode="DPZ"></waveformID>
        <phaseHint>S</phaseHint>
      </pick>
      <pick publicID="smi:local/71a29f00-c705-4920-b0dc-422751ff4a4f">
        <time>
          <value>2020-02-25T09:46:38.929100Z</value>
          <uncertainty>0.05</uncertainty>
        </time>
        <waveformID networkCode="XX" stationCode="G8" channelCode="DPZ"></waveformID>
        <phaseHint>S</phaseHint>
      </pick>
      <pick publicID="smi:local/0b9fe0ad-f2ab-4437-bd6f-14cdde283c29">
        <time>
          <value>2020-02-25T09:46:36.658100Z</value>
          <uncertainty>0.05</uncertainty>
        </time>
        <waveformID networkCode="XX" stationCode="F0703" channelCode="DPE"></waveformID>
        <phaseHint>S</phaseHint>
      </pick>
      <pick publicID="smi:local/ccc9ed70-327f-4bf1-b469-5b9ec2a0503e">
        <time>
          <value>2020-02-25T09:46:38.982100Z</value>
          <uncertainty>0.05</uncertainty>
        </time>
        <waveformID networkCode="XX" stationCode="F0901" channelCode="DPN"></waveformID>
        <phaseHint>S</phaseHint>
      </pick>
      <pick publicID="smi:local/72b76027-1d01-4e45-9dd9-47c8ae2a8097">
        <time>
          <value>2020-02-25T09:46:38.896100Z</value>
          <uncertainty>0.05</uncertainty>
        </time>
        <waveformID networkCode="XX" stationCode="G4" channelCode="DPZ"></waveformID>
        <phaseHint>P</phaseHint>
      </pick>
      <pick publicID="smi:local/dfd70acc-b388-4a45-9e09-c2eef6e08f89">
        <time>
          <value>2020-02-25T09:46:38.774100Z</value>
          <uncertainty>0.05</uncertainty>
        </time>
        <waveformID networkCode="XX" stationCode="F0203" channelCode="DPN"></waveformID>
        <phaseHint>S</phaseHint>
      </pick>
    </event>
  </eventParameters>
</q:quakeml>
