<?xml version='1.0' encoding='utf-8'?>
<q:quakeml xmlns="http://quakeml.org/xmlns/bed/1.2" xmlns:q="http://quakeml.org/xmlns/quakeml/1.2">
  <eventParameters publicID="smi:local/640a540c-25b5-4a92-a663-ce566d5b3d70">
    <event publicID="smi:local/066f1734-2f2a-41e6-93e2-5054379769a0">
      <preferredOriginID>smi:local/d72801e3-136a-4d81-989e-e0da4db3a245</preferredOriginID>
      <comment>
        <text>CaMI.FRS microseismicity</text>
      </comment>
      <comment id="smi:local/fa70aa35-ad7a-4021-83a9-352516b04383">
        <text>eqcorrscan_template_2020_03_10t07_50_20</text>
      </comment>
      <creationInfo>
        <author>Genevieve Savard   obs:./obs_picked1/merged.obs   NLLoc:v7.00.00(27Oct2017)</author>
        <creationTime>2020-08-21T16:08:46.000000Z</creationTime>
      </creationInfo>
      <origin publicID="smi:local/d72801e3-136a-4d81-989e-e0da4db3a245">
        <time>
          <value>2020-03-10T07:50:20.074841Z</value>
        </time>
        <latitude>
          <value>50.44844</value>
          <uncertainty>4.853021373667123e-05</uncertainty>
        </latitude>
        <longitude>
          <value>-112.120094</value>
          <uncertainty>4.6583991107454005e-05</uncertainty>
        </longitude>
        <depth>
          <value>80.078</value>
          <uncertainty>24.71248672230296</uncertainty>
          <confidenceLevel>68.0</confidenceLevel>
        </depth>
        <depthType>from location</depthType>
        <quality>
          <associatedPhaseCount>20</associatedPhaseCount>
          <usedPhaseCount>20</usedPhaseCount>
          <associatedStationCount>-1</associatedStationCount>
          <usedStationCount>10</usedStationCount>
          <depthPhaseCount>-1</depthPhaseCount>
          <standardError>0.266396</standardError>
          <azimuthalGap>206.863</azimuthalGap>
          <secondaryAzimuthalGap>206.863</secondaryAzimuthalGap>
          <groundTruthLevel>-</groundTruthLevel>
          <minimumDistance>0.0011814477869114953</minimumDistance>
          <maximumDistance>0.002602330958182794</maximumDistance>
          <medianDistance>0.001892127692772713</medianDistance>
        </quality>
        <comment>
          <text>Note: Depth/Latitude/Longitude errors are calculated from covariance matrix as 1D marginal (Lon/Lat errors as great circle degrees) while OriginUncertainty min/max horizontal errors are calculated from 2D error ellipsoid and are therefore seemingly higher compared to 1D errors. Error estimates can be reconstructed from the following original NonLinLoc error statistics line:
STATISTICS ExpectX 0.0441444 Y -0.213124 Z 0.0434844  CovXX 2.68314e-05 XY 1.27324e-06 XZ 2.077e-05 YY 2.91202e-05 YZ -2.59663e-05 ZZ 0.000610707 EllAz1  123.432 Dip1  -3.09021 Len1  0.00932763 Az2  33.4865 Dip2  1.00495 Len2  0.0101902 Len3  4.650225e-02</text>
        </comment>
        <creationInfo>
          <author>Genevieve Savard   obs:./obs_picked1/merged.obs   NLLoc:v7.00.00(27Oct2017)</author>
          <creationTime>2020-08-21T16:08:46.000000Z</creationTime>
        </creationInfo>
        <originUncertainty>
          <preferredDescription>uncertainty ellipse</preferredDescription>
          <minHorizontalUncertainty>7.77218</minHorizontalUncertainty>
          <maxHorizontalUncertainty>8.26328</maxHorizontalUncertainty>
          <azimuthMaxHorizontalUncertainty>24.0252</azimuthMaxHorizontalUncertainty>
          <confidenceLevel>68.0</confidenceLevel>
        </originUncertainty>
        <arrival publicID="smi:local/c5349d6d-57b2-4213-b3d0-695729893d23">
          <pickID>smi:local/0d158fa1-8c8d-4f6e-8f2a-7a09b216eab3</pickID>
          <phase>P</phase>
          <azimuth>359.0</azimuth>
          <distance>0.0011817085901772119</distance>
          <takeoffAngle>
            <value>-1.0</value>
          </takeoffAngle>
          <timeResidual>-0.0461</timeResidual>
          <timeWeight>1.4878</timeWeight>
        </arrival>
        <arrival publicID="smi:local/712ba5b4-7678-4aab-ad6d-71c8c0e87bba">
          <pickID>smi:local/b2c5d3d9-0614-49ac-aaf4-4cfd25b14281</pickID>
          <phase>S</phase>
          <azimuth>359.0</azimuth>
          <distance>0.0011817085901772119</distance>
          <takeoffAngle>
            <value>-1.0</value>
          </takeoffAngle>
          <timeResidual>0.0105</timeResidual>
          <timeWeight>0.6122</timeWeight>
        </arrival>
        <arrival publicID="smi:local/c0625c85-d0d7-47df-bd61-2f2fc45d3b8a">
          <pickID>smi:local/8daf6e61-9820-4e8a-b5ee-9516297497e1</pickID>
          <phase>P</phase>
          <azimuth>359.0</azimuth>
          <distance>0.0016682415789792452</distance>
          <takeoffAngle>
            <value>-1.0</value>
          </takeoffAngle>
          <timeResidual>-0.1339</timeResidual>
          <timeWeight>1.0143</timeWeight>
        </arrival>
        <arrival publicID="smi:local/fd076016-9ced-48f0-aa16-d03380b050dc">
          <pickID>smi:local/0e4bc6d9-f054-4dc0-88fc-d5ec942bf9c1</pickID>
          <phase>S</phase>
          <azimuth>359.0</azimuth>
          <distance>0.0016682415789792452</distance>
          <takeoffAngle>
            <value>-1.0</value>
          </takeoffAngle>
          <timeResidual>-0.1116</timeResidual>
          <timeWeight>0.5091</timeWeight>
        </arrival>
        <arrival publicID="smi:local/5c40eb68-edc7-4d76-864d-286bda14cbd5">
          <pickID>smi:local/f8531da4-438b-4121-a6af-5a067472ab48</pickID>
          <phase>P</phase>
          <azimuth>359.0</azimuth>
          <distance>0.0018004418550492984</distance>
          <takeoffAngle>
            <value>-1.0</value>
          </takeoffAngle>
          <timeResidual>0.0233</timeResidual>
          <timeWeight>0.7501</timeWeight>
        </arrival>
        <arrival publicID="smi:local/ff512a8d-658b-4461-ba6f-9df7142dd6f4">
          <pickID>smi:local/df218b1e-c1cc-430c-b39e-5cb5b56d7c0b</pickID>
          <phase>S</phase>
          <azimuth>359.0</azimuth>
          <distance>0.0018004418550492984</distance>
          <takeoffAngle>
            <value>-1.0</value>
          </takeoffAngle>
          <timeResidual>-0.029</timeResidual>
          <timeWeight>0.9478</timeWeight>
        </arrival>
        <arrival publicID="smi:local/ab00b25a-1d95-4c0b-81e8-e64388cae8d7">
          <pickID>smi:local/dc12f869-2d63-428d-a06e-1dd21e4c1cb2</pickID>
          <phase>P</phase>
          <azimuth>359.0</azimuth>
          <distance>0.0018085357495025672</distance>
          <takeoffAngle>
            <value>-1.0</value>
          </takeoffAngle>
          <timeResidual>-0.0742</timeResidual>
          <timeWeight>0.9281</timeWeight>
        </arrival>
        <arrival publicID="smi:local/f04524aa-2f41-4283-ba76-afb232468bea">
          <pickID>smi:local/77de8f9b-bf91-4754-a029-97703ec93bf8</pickID>
          <phase>S</phase>
          <azimuth>359.0</azimuth>
          <distance>0.0018085357495025672</distance>
          <takeoffAngle>
            <value>-1.0</value>
          </takeoffAngle>
          <timeResidual>-0.0245</timeResidual>
          <timeWeight>0.8534</timeWeight>
        </arrival>
        <arrival publicID="smi:local/9855ca6c-3b80-431e-b261-35f1c95ae8b5">
          <pickID>smi:local/eeeaf50c-f47b-4709-b799-d34f17c9258f</pickID>
          <phase>P</phase>
          <azimuth>359.0</azimuth>
          <distance>0.0018597970810399348</distance>
          <takeoffAngle>
            <value>-1.0</value>
          </takeoffAngle>
          <timeResidual>-0.1205</timeResidual>
          <timeWeight>1.6094</timeWeight>
        </arrival>
        <arrival publicID="smi:local/e34f9649-138f-4034-a200-5956357f396e">
          <pickID>smi:local/92550125-5c65-44dc-85cd-a760acd8233d</pickID>
          <phase>S</phase>
          <azimuth>359.0</azimuth>
          <distance>0.0018597970810399348</distance>
          <takeoffAngle>
            <value>-1.0</value>
          </takeoffAngle>
          <timeResidual>-0.1068</timeResidual>
          <timeWeight>0.9281</timeWeight>
        </arrival>
        <arrival publicID="smi:local/384a9d05-cef5-4bfb-988b-4aef16750e9c">
          <pickID>smi:local/e52f37f7-461b-4fe2-b2d6-1602f12f18c2</pickID>
          <phase>P</phase>
          <azimuth>359.0</azimuth>
          <distance>0.0019245482366660833</distance>
          <takeoffAngle>
            <value>-1.0</value>
          </takeoffAngle>
          <timeResidual>-0.1089</timeResidual>
          <timeWeight>1.4752</timeWeight>
        </arrival>
        <arrival publicID="smi:local/4a22cbd6-39bb-4dea-af8f-26ef55746e09">
          <pickID>smi:local/f96ae381-c6c2-49ff-9aaa-936b103ba570</pickID>
          <phase>S</phase>
          <azimuth>359.0</azimuth>
          <distance>0.0019245482366660833</distance>
          <takeoffAngle>
            <value>-1.0</value>
          </takeoffAngle>
          <timeResidual>-0.1218</timeResidual>
          <timeWeight>0.5137</timeWeight>
        </arrival>
        <arrival publicID="smi:local/46f9526a-c37d-49fc-888d-abb9974e3ed3">
          <pickID>smi:local/c1785eee-8adc-4795-a9a6-dcb37ced3e7e</pickID>
          <phase>P</phase>
          <azimuth>359.0</azimuth>
          <distance>0.0021736603215055717</distance>
          <takeoffAngle>
            <value>-1.0</value>
          </takeoffAngle>
          <timeResidual>0.8865</timeResidual>
          <timeWeight>1.1981</timeWeight>
        </arrival>
        <arrival publicID="smi:local/9af2e4ba-b88f-410f-85b9-11e52fcf2cc0">
          <pickID>smi:local/17fec27f-4821-4ba5-991d-568508c47ea7</pickID>
          <phase>S</phase>
          <azimuth>359.0</azimuth>
          <distance>0.0021736603215055717</distance>
          <takeoffAngle>
            <value>-1.0</value>
          </takeoffAngle>
          <timeResidual>0.8446</timeResidual>
          <timeWeight>0.4423</timeWeight>
        </arrival>
        <arrival publicID="smi:local/b5cef8d0-f4be-4b4b-ad89-b8821a883e79">
          <pickID>smi:local/10b109ee-7288-4186-a6a5-e6ad49f123b2</pickID>
          <phase>P</phase>
          <azimuth>359.0</azimuth>
          <distance>0.002296867381516438</distance>
          <takeoffAngle>
            <value>-1.0</value>
          </takeoffAngle>
          <timeResidual>-0.103</timeResidual>
          <timeWeight>1.2049</timeWeight>
        </arrival>
        <arrival publicID="smi:local/5e763c94-2cfa-49e7-b7ae-36a3794d5b7e">
          <pickID>smi:local/a66e816a-5eb7-4dac-81e2-4fc1bcfb9ef9</pickID>
          <phase>S</phase>
          <azimuth>359.0</azimuth>
          <distance>0.002296867381516438</distance>
          <takeoffAngle>
            <value>-1.0</value>
          </takeoffAngle>
          <timeResidual>-0.1345</timeResidual>
          <timeWeight>1.2049</timeWeight>
        </arrival>
        <arrival publicID="smi:local/003fa034-a386-47ee-ac82-cef0fdb970f4">
          <pickID>smi:local/cd669f5d-64b7-45f2-9e47-11e1910bbe75</pickID>
          <phase>P</phase>
          <azimuth>359.0</azimuth>
          <distance>0.002393094793349742</distance>
          <takeoffAngle>
            <value>-1.0</value>
          </takeoffAngle>
          <timeResidual>-0.1056</timeResidual>
          <timeWeight>1.5644</timeWeight>
        </arrival>
        <arrival publicID="smi:local/3979c3b8-03c8-46dd-aea9-dfe78a581ae5">
          <pickID>smi:local/33ade1dc-18b0-4ede-8cc6-c28c88a2f1a9</pickID>
          <phase>S</phase>
          <azimuth>359.0</azimuth>
          <distance>0.002393094793349742</distance>
          <takeoffAngle>
            <value>-1.0</value>
          </takeoffAngle>
          <timeResidual>-0.1519</timeResidual>
          <timeWeight>0.5952</timeWeight>
        </arrival>
        <arrival publicID="smi:local/801897c4-a327-4b93-a723-377f69c5c6fa">
          <pickID>smi:local/c1f78cab-fa2d-4b23-ac28-145750c56985</pickID>
          <phase>P</phase>
          <azimuth>359.0</azimuth>
          <distance>0.002602636727528806</distance>
          <takeoffAngle>
            <value>-1.0</value>
          </takeoffAngle>
          <timeResidual>-0.0384</timeResidual>
          <timeWeight>1.3079</timeWeight>
        </arrival>
        <arrival publicID="smi:local/f6388ed1-935f-477b-8905-6715102164f1">
          <pickID>smi:local/7f15fc92-98e2-408e-9d82-c8c2dcf77ac2</pickID>
          <phase>S</phase>
          <azimuth>359.0</azimuth>
          <distance>0.002602636727528806</distance>
          <takeoffAngle>
            <value>-1.0</value>
          </takeoffAngle>
          <timeResidual>0.032</timeResidual>
          <timeWeight>0.8534</timeWeight>
        </arrival>
      </origin>
      <pick publicID="smi:local/dc12f869-2d63-428d-a06e-1dd21e4c1cb2">
        <time>
          <value>2020-03-10T07:50:20.135200Z</value>
          <uncertainty>0.00976</uncertainty>
        </time>
        <waveformID networkCode="XX" stationCode="F0304" channelCode="DPZ"></waveformID>
        <phaseHint>P</phaseHint>
      </pick>
      <pick publicID="smi:local/77de8f9b-bf91-4754-a029-97703ec93bf8">
        <time>
          <value>2020-03-10T07:50:20.423600Z</value>
          <uncertainty>0.0106</uncertainty>
        </time>
        <waveformID networkCode="XX" stationCode="F0304" channelCode="DPE"></waveformID>
        <phaseHint>S</phaseHint>
      </pick>
      <pick publicID="smi:local/eeeaf50c-f47b-4709-b799-d34f17c9258f">
        <time>
          <value>2020-03-10T07:50:20.091700Z</value>
          <uncertainty>0.00355</uncertainty>
        </time>
        <waveformID networkCode="XX" stationCode="C0704" channelCode="DPZ"></waveformID>
        <phaseHint>P</phaseHint>
      </pick>
      <pick publicID="smi:local/92550125-5c65-44dc-85cd-a760acd8233d">
        <time>
          <value>2020-03-10T07:50:20.349900Z</value>
          <uncertainty>0.00976</uncertainty>
        </time>
        <waveformID networkCode="XX" stationCode="C0704" channelCode="DPZ"></waveformID>
        <phaseHint>S</phaseHint>
      </pick>
      <pick publicID="smi:local/8daf6e61-9820-4e8a-b5ee-9516297497e1">
        <time>
          <value>2020-03-10T07:50:20.066900Z</value>
          <uncertainty>0.00887</uncertainty>
        </time>
        <waveformID networkCode="XX" stationCode="C0902" channelCode="DPZ"></waveformID>
        <phaseHint>P</phaseHint>
      </pick>
      <pick publicID="smi:local/0e4bc6d9-f054-4dc0-88fc-d5ec942bf9c1">
        <time>
          <value>2020-03-10T07:50:20.311800Z</value>
          <uncertainty>0.016</uncertainty>
        </time>
        <waveformID networkCode="XX" stationCode="C0902" channelCode="DPN"></waveformID>
        <phaseHint>S</phaseHint>
      </pick>
      <pick publicID="smi:local/c1785eee-8adc-4795-a9a6-dcb37ced3e7e">
        <time>
          <value>2020-03-10T07:50:21.117500Z</value>
          <uncertainty>0.00716</uncertainty>
        </time>
        <waveformID networkCode="XX" stationCode="C0407" channelCode="DPZ"></waveformID>
        <phaseHint>P</phaseHint>
      </pick>
      <pick publicID="smi:local/17fec27f-4821-4ba5-991d-568508c47ea7">
        <time>
          <value>2020-03-10T07:50:21.352400Z</value>
          <uncertainty>0.0176</uncertainty>
        </time>
        <waveformID networkCode="XX" stationCode="C0407" channelCode="DPE"></waveformID>
        <phaseHint>S</phaseHint>
      </pick>
      <pick publicID="smi:local/10b109ee-7288-4186-a6a5-e6ad49f123b2">
        <time>
          <value>2020-03-10T07:50:20.134300Z</value>
          <uncertainty>0.0071</uncertainty>
        </time>
        <waveformID networkCode="XX" stationCode="C0909" channelCode="DPZ"></waveformID>
        <phaseHint>P</phaseHint>
      </pick>
      <pick publicID="smi:local/a66e816a-5eb7-4dac-81e2-4fc1bcfb9ef9">
        <time>
          <value>2020-03-10T07:50:20.382800Z</value>
          <uncertainty>0.0071</uncertainty>
        </time>
        <waveformID networkCode="XX" stationCode="C0909" channelCode="DPN"></waveformID>
        <phaseHint>S</phaseHint>
      </pick>
      <pick publicID="smi:local/0d158fa1-8c8d-4f6e-8f2a-7a09b216eab3">
        <time>
          <value>2020-03-10T07:50:20.127300Z</value>
          <uncertainty>0.00467</uncertainty>
        </time>
        <waveformID networkCode="XX" stationCode="F0604" channelCode="DPZ"></waveformID>
        <phaseHint>P</phaseHint>
      </pick>
      <pick publicID="smi:local/b2c5d3d9-0614-49ac-aaf4-4cfd25b14281">
        <time>
          <value>2020-03-10T07:50:20.353200Z</value>
          <uncertainty>0.014</uncertainty>
        </time>
        <waveformID networkCode="XX" stationCode="F0604" channelCode="DPE"></waveformID>
        <phaseHint>S</phaseHint>
      </pick>
      <pick publicID="smi:local/cd669f5d-64b7-45f2-9e47-11e1910bbe75">
        <time>
          <value>2020-03-10T07:50:20.138400Z</value>
          <uncertainty>0.00398</uncertainty>
        </time>
        <waveformID networkCode="XX" stationCode="C0209" channelCode="DPN"></waveformID>
        <phaseHint>P</phaseHint>
      </pick>
      <pick publicID="smi:local/33ade1dc-18b0-4ede-8cc6-c28c88a2f1a9">
        <time>
          <value>2020-03-10T07:50:20.376400Z</value>
          <uncertainty>0.0143</uncertainty>
        </time>
        <waveformID networkCode="XX" stationCode="C0209" channelCode="DPE"></waveformID>
        <phaseHint>S</phaseHint>
      </pick>
      <pick publicID="smi:local/f8531da4-438b-4121-a6af-5a067472ab48">
        <time>
          <value>2020-03-10T07:50:20.232300Z</value>
          <uncertainty>0.0119</uncertainty>
        </time>
        <waveformID networkCode="XX" stationCode="C0202" channelCode="DPZ"></waveformID>
        <phaseHint>P</phaseHint>
      </pick>
      <pick publicID="smi:local/df218b1e-c1cc-430c-b39e-5cb5b56d7c0b">
        <time>
          <value>2020-03-10T07:50:20.417800Z</value>
          <uncertainty>0.00955</uncertainty>
        </time>
        <waveformID networkCode="XX" stationCode="C0202" channelCode="DPN"></waveformID>
        <phaseHint>S</phaseHint>
      </pick>
      <pick publicID="smi:local/c1f78cab-fa2d-4b23-ac28-145750c56985">
        <time>
          <value>2020-03-10T07:50:20.216800Z</value>
          <uncertainty>0.00621</uncertainty>
        </time>
        <waveformID networkCode="XX" stationCode="F0203" channelCode="DPZ"></waveformID>
        <phaseHint>P</phaseHint>
      </pick>
      <pick publicID="smi:local/7f15fc92-98e2-408e-9d82-c8c2dcf77ac2">
        <time>
          <value>2020-03-10T07:50:20.576200Z</value>
          <uncertainty>0.0106</uncertainty>
        </time>
        <waveformID networkCode="XX" stationCode="F0203" channelCode="DPE"></waveformID>
        <phaseHint>S</phaseHint>
      </pick>
      <pick publicID="smi:local/e52f37f7-461b-4fe2-b2d6-1602f12f18c2">
        <time>
          <value>2020-03-10T07:50:20.107400Z</value>
          <uncertainty>0.00478</uncertainty>
        </time>
        <waveformID networkCode="XX" stationCode="C0404" channelCode="DPZ"></waveformID>
        <phaseHint>P</phaseHint>
      </pick>
      <pick publicID="smi:local/f96ae381-c6c2-49ff-9aaa-936b103ba570">
        <time>
          <value>2020-03-10T07:50:20.346200Z</value>
          <uncertainty>0.0159</uncertainty>
        </time>
        <waveformID networkCode="XX" stationCode="C0404" channelCode="DPN"></waveformID>
        <phaseHint>S</phaseHint>
      </pick>
    </event>
  </eventParameters>
</q:quakeml>
