<?xml version='1.0' encoding='utf-8'?>
<q:quakeml xmlns="http://quakeml.org/xmlns/bed/1.2" xmlns:q="http://quakeml.org/xmlns/quakeml/1.2">
  <eventParameters publicID="smi:local/46126ec9-c513-4920-8c97-322218f5ec1c">
    <event publicID="smi:local/de7904bb-25c9-400a-b4b8-e2e84cad73ac">
      <preferredOriginID>smi:local/dce95482-458e-4554-ab08-5f42f2d49e7b</preferredOriginID>
      <comment>
        <text>CaMI.FRS microseismicity</text>
      </comment>
      <comment id="smi:local/a611922a-b20d-456a-980d-a25132a78974">
        <text>eqcorrscan_template_2020_03_18t11_35_49</text>
      </comment>
      <creationInfo>
        <author>Genevieve Savard   obs:./obs_picked5/merged.obs   NLLoc:v7.00.00(27Oct2017)</author>
        <creationTime>2020-09-18T19:57:37.000000Z</creationTime>
      </creationInfo>
      <origin publicID="smi:local/dce95482-458e-4554-ab08-5f42f2d49e7b">
        <time>
          <value>2020-03-18T11:35:49.304296Z</value>
        </time>
        <latitude>
          <value>50.451567</value>
          <uncertainty>0.0031038974898649884</uncertainty>
        </latitude>
        <longitude>
          <value>-112.118324</value>
          <uncertainty>0.0030732465539801686</uncertainty>
        </longitude>
        <depth>
          <value>6.25</value>
          <uncertainty>157.5633206047651</uncertainty>
          <confidenceLevel>68.0</confidenceLevel>
        </depth>
        <depthType>from location</depthType>
        <quality>
          <associatedPhaseCount>16</associatedPhaseCount>
          <usedPhaseCount>16</usedPhaseCount>
          <associatedStationCount>-1</associatedStationCount>
          <usedStationCount>16</usedStationCount>
          <depthPhaseCount>-1</depthPhaseCount>
          <standardError>0.00967141</standardError>
          <azimuthalGap>360.0</azimuthalGap>
          <secondaryAzimuthalGap>360.0</secondaryAzimuthalGap>
          <groundTruthLevel>-</groundTruthLevel>
          <minimumDistance>0.0020496348788333198</minimumDistance>
          <maximumDistance>0.0020496348788333198</maximumDistance>
          <medianDistance>0.0020496348788333198</medianDistance>
        </quality>
        <comment>
          <text>Note: Depth/Latitude/Longitude errors are calculated from covariance matrix as 1D marginal (Lon/Lat errors as great circle degrees) while OriginUncertainty min/max horizontal errors are calculated from 2D error ellipsoid and are therefore seemingly higher compared to 1D errors. Error estimates can be reconstructed from the following original NonLinLoc error statistics line:
STATISTICS ExpectX -0.00525014 Y -0.005738 Z 0.176182  CovXX 0.116779 XY 0.00014814 XZ 0.000653351 YY 0.11912 YZ 0.000445392 ZZ 0.0248262 EllAz1  236.419 Dip1  89.5119 Len1  0.295994 Az2  273.687 Dip2  -0.388429 Len2  0.642038 Len3  6.484871e-01</text>
        </comment>
        <creationInfo>
          <author>Genevieve Savard   obs:./obs_picked5/merged.obs   NLLoc:v7.00.00(27Oct2017)</author>
          <creationTime>2020-09-18T19:57:37.000000Z</creationTime>
        </creationInfo>
        <originUncertainty>
          <preferredDescription>uncertainty ellipse</preferredDescription>
          <minHorizontalUncertainty>518.2379999999999</minHorizontalUncertainty>
          <maxHorizontalUncertainty>523.448</maxHorizontalUncertainty>
          <azimuthMaxHorizontalUncertainty>3.60687</azimuthMaxHorizontalUncertainty>
          <confidenceLevel>68.0</confidenceLevel>
        </originUncertainty>
        <arrival publicID="smi:local/031fca50-7afd-468a-bd28-df13c5bcc2a6">
          <pickID>smi:local/7b21f3f1-91a4-4e29-a97a-33d7d46732b8</pickID>
          <phase>P</phase>
          <azimuth>359.0</azimuth>
          <distance>0.002049553939888787</distance>
          <takeoffAngle>
            <value>-1.0</value>
          </takeoffAngle>
          <timeResidual>-0.0087</timeResidual>
          <timeWeight>1.0</timeWeight>
        </arrival>
        <arrival publicID="smi:local/1c5afff5-9f9d-4e20-a61a-ec8be57f1c21">
          <pickID>smi:local/29b53379-5433-4873-b944-b574a122e0f1</pickID>
          <phase>P</phase>
          <azimuth>359.0</azimuth>
          <distance>0.002049553939888787</distance>
          <takeoffAngle>
            <value>-1.0</value>
          </takeoffAngle>
          <timeResidual>-0.008</timeResidual>
          <timeWeight>1.0</timeWeight>
        </arrival>
        <arrival publicID="smi:local/83fb34e1-95c7-4661-99f3-e93ce4ae8f3c">
          <pickID>smi:local/cc624247-0663-4b02-afed-40b66f713d40</pickID>
          <phase>P</phase>
          <azimuth>359.0</azimuth>
          <distance>0.002049553939888787</distance>
          <takeoffAngle>
            <value>-1.0</value>
          </takeoffAngle>
          <timeResidual>-0.0021</timeResidual>
          <timeWeight>1.0</timeWeight>
        </arrival>
        <arrival publicID="smi:local/1fff026d-185f-498b-a051-1fb86003274a">
          <pickID>smi:local/541ec988-4f13-4056-881f-010e35431567</pickID>
          <phase>P</phase>
          <azimuth>359.0</azimuth>
          <distance>0.002049553939888787</distance>
          <takeoffAngle>
            <value>-1.0</value>
          </takeoffAngle>
          <timeResidual>-0.0002</timeResidual>
          <timeWeight>1.0</timeWeight>
        </arrival>
        <arrival publicID="smi:local/335d22eb-2ea1-4127-a507-e651e855a280">
          <pickID>smi:local/8e390137-0e3f-43a1-9928-3aff071ea9a3</pickID>
          <phase>P</phase>
          <azimuth>359.0</azimuth>
          <distance>0.002049553939888787</distance>
          <takeoffAngle>
            <value>-1.0</value>
          </takeoffAngle>
          <timeResidual>0.0003</timeResidual>
          <timeWeight>1.0</timeWeight>
        </arrival>
        <arrival publicID="smi:local/9ffb9838-baf6-426f-a1f7-fb6191b105d3">
          <pickID>smi:local/56ff3c8a-1ac3-4552-8fa6-63d4fd0f60c5</pickID>
          <phase>S</phase>
          <azimuth>359.0</azimuth>
          <distance>0.002049553939888787</distance>
          <takeoffAngle>
            <value>-1.0</value>
          </takeoffAngle>
          <timeResidual>-0.0185</timeResidual>
          <timeWeight>1.0</timeWeight>
        </arrival>
        <arrival publicID="smi:local/c5b28e64-2e80-488c-b8be-433a903fa52d">
          <pickID>smi:local/07e10263-9214-4a3b-8c73-9a97912631bf</pickID>
          <phase>S</phase>
          <azimuth>359.0</azimuth>
          <distance>0.002049553939888787</distance>
          <takeoffAngle>
            <value>-1.0</value>
          </takeoffAngle>
          <timeResidual>-0.0165</timeResidual>
          <timeWeight>1.0</timeWeight>
        </arrival>
        <arrival publicID="smi:local/7556d105-3b1f-46bf-8de9-ef2f30781cd0">
          <pickID>smi:local/79e72e2a-6c73-49dd-a0f6-e91ed4b7b091</pickID>
          <phase>S</phase>
          <azimuth>359.0</azimuth>
          <distance>0.002049553939888787</distance>
          <takeoffAngle>
            <value>-1.0</value>
          </takeoffAngle>
          <timeResidual>-0.0069</timeResidual>
          <timeWeight>1.0</timeWeight>
        </arrival>
        <arrival publicID="smi:local/41c76d04-4be3-4cc2-a119-e380977c1beb">
          <pickID>smi:local/9e9ea109-1a82-475b-b6f0-3bf3a03481bc</pickID>
          <phase>S</phase>
          <azimuth>359.0</azimuth>
          <distance>0.002049553939888787</distance>
          <takeoffAngle>
            <value>-1.0</value>
          </takeoffAngle>
          <timeResidual>-0.0037</timeResidual>
          <timeWeight>1.0</timeWeight>
        </arrival>
        <arrival publicID="smi:local/90734c7e-db5c-4c4a-873d-940f5503a455">
          <pickID>smi:local/b7836dab-f7c2-4e09-b585-f6e0389e4922</pickID>
          <phase>S</phase>
          <azimuth>359.0</azimuth>
          <distance>0.002049553939888787</distance>
          <takeoffAngle>
            <value>-1.0</value>
          </takeoffAngle>
          <timeResidual>0.0032</timeResidual>
          <timeWeight>1.0</timeWeight>
        </arrival>
        <arrival publicID="smi:local/a359417f-7afc-4dc7-973b-12c147b6fe79">
          <pickID>smi:local/458ca5db-3360-4286-b221-f9602d13c315</pickID>
          <phase>S</phase>
          <azimuth>359.0</azimuth>
          <distance>0.002049553939888787</distance>
          <takeoffAngle>
            <value>-1.0</value>
          </takeoffAngle>
          <timeResidual>0.0061</timeResidual>
          <timeWeight>1.0</timeWeight>
        </arrival>
        <arrival publicID="smi:local/c98bf240-dccb-48af-856e-ba1905a5fd6e">
          <pickID>smi:local/ce7d0a56-f972-4706-bacf-fb32da6e51b8</pickID>
          <phase>S</phase>
          <azimuth>359.0</azimuth>
          <distance>0.002049553939888787</distance>
          <takeoffAngle>
            <value>-1.0</value>
          </takeoffAngle>
          <timeResidual>0.0087</timeResidual>
          <timeWeight>1.0</timeWeight>
        </arrival>
        <arrival publicID="smi:local/83451272-bb8a-41b6-a7be-532357fddbed">
          <pickID>smi:local/ebc0a004-27f9-4edf-ba5a-ed55f4707394</pickID>
          <phase>S</phase>
          <azimuth>359.0</azimuth>
          <distance>0.002049553939888787</distance>
          <takeoffAngle>
            <value>-1.0</value>
          </takeoffAngle>
          <timeResidual>0.0092</timeResidual>
          <timeWeight>1.0</timeWeight>
        </arrival>
        <arrival publicID="smi:local/afa884c3-82c6-483a-9477-508b37790ae4">
          <pickID>smi:local/5f8c2af2-8717-41cf-8e92-85e23b0a9855</pickID>
          <phase>S</phase>
          <azimuth>359.0</azimuth>
          <distance>0.002049553939888787</distance>
          <takeoffAngle>
            <value>-1.0</value>
          </takeoffAngle>
          <timeResidual>0.0104</timeResidual>
          <timeWeight>1.0</timeWeight>
        </arrival>
        <arrival publicID="smi:local/51606502-fed1-4932-ad44-6b5d49ab81a9">
          <pickID>smi:local/48818782-a7e3-426e-a1e8-b4147242d925</pickID>
          <phase>S</phase>
          <azimuth>359.0</azimuth>
          <distance>0.002049553939888787</distance>
          <takeoffAngle>
            <value>-1.0</value>
          </takeoffAngle>
          <timeResidual>0.0133</timeResidual>
          <timeWeight>1.0</timeWeight>
        </arrival>
        <arrival publicID="smi:local/4ff3f22e-5e8e-4b6d-bc4c-23a990384896">
          <pickID>smi:local/fa3e3eab-0d5f-414a-b0f7-5d4a82cf5e1f</pickID>
          <phase>S</phase>
          <azimuth>359.0</azimuth>
          <distance>0.002049553939888787</distance>
          <takeoffAngle>
            <value>-1.0</value>
          </takeoffAngle>
          <timeResidual>0.0134</timeResidual>
          <timeWeight>1.0</timeWeight>
        </arrival>
      </origin>
      <pick publicID="smi:local/5f8c2af2-8717-41cf-8e92-85e23b0a9855">
        <time>
          <value>2020-03-18T11:35:49.705400Z</value>
          <uncertainty>0.05</uncertainty>
        </time>
        <waveformID networkCode="XX" stationCode="G15" channelCode="DPN"></waveformID>
        <phaseHint>S</phaseHint>
      </pick>
      <pick publicID="smi:local/48818782-a7e3-426e-a1e8-b4147242d925">
        <time>
          <value>2020-03-18T11:35:49.713900Z</value>
          <uncertainty>0.05</uncertainty>
        </time>
        <waveformID networkCode="XX" stationCode="G17" channelCode="DPN"></waveformID>
        <phaseHint>S</phaseHint>
      </pick>
      <pick publicID="smi:local/fa3e3eab-0d5f-414a-b0f7-5d4a82cf5e1f">
        <time>
          <value>2020-03-18T11:35:49.717000Z</value>
          <uncertainty>0.05</uncertainty>
        </time>
        <waveformID networkCode="XX" stationCode="G18" channelCode="DPN"></waveformID>
        <phaseHint>S</phaseHint>
      </pick>
      <pick publicID="smi:local/541ec988-4f13-4056-881f-010e35431567">
        <time>
          <value>2020-03-18T11:35:49.456500Z</value>
          <uncertainty>0.05</uncertainty>
        </time>
        <waveformID networkCode="XX" stationCode="G8" channelCode="DPZ"></waveformID>
        <phaseHint>P</phaseHint>
      </pick>
      <pick publicID="smi:local/9e9ea109-1a82-475b-b6f0-3bf3a03481bc">
        <time>
          <value>2020-03-18T11:35:49.674300Z</value>
          <uncertainty>0.05</uncertainty>
        </time>
        <waveformID networkCode="XX" stationCode="G8" channelCode="DPN"></waveformID>
        <phaseHint>S</phaseHint>
      </pick>
      <pick publicID="smi:local/29b53379-5433-4873-b944-b574a122e0f1">
        <time>
          <value>2020-03-18T11:35:49.442600Z</value>
          <uncertainty>0.05</uncertainty>
        </time>
        <waveformID networkCode="XX" stationCode="G2" channelCode="DPZ"></waveformID>
        <phaseHint>P</phaseHint>
      </pick>
      <pick publicID="smi:local/07e10263-9214-4a3b-8c73-9a97912631bf">
        <time>
          <value>2020-03-18T11:35:49.649700Z</value>
          <uncertainty>0.05</uncertainty>
        </time>
        <waveformID networkCode="XX" stationCode="G2" channelCode="DPN"></waveformID>
        <phaseHint>S</phaseHint>
      </pick>
      <pick publicID="smi:local/cc624247-0663-4b02-afed-40b66f713d40">
        <time>
          <value>2020-03-18T11:35:49.452400Z</value>
          <uncertainty>0.05</uncertainty>
        </time>
        <waveformID networkCode="XX" stationCode="G6" channelCode="DPZ"></waveformID>
        <phaseHint>P</phaseHint>
      </pick>
      <pick publicID="smi:local/79e72e2a-6c73-49dd-a0f6-e91ed4b7b091">
        <time>
          <value>2020-03-18T11:35:49.666500Z</value>
          <uncertainty>0.05</uncertainty>
        </time>
        <waveformID networkCode="XX" stationCode="G6" channelCode="DPN"></waveformID>
        <phaseHint>S</phaseHint>
      </pick>
      <pick publicID="smi:local/458ca5db-3360-4286-b221-f9602d13c315">
        <time>
          <value>2020-03-18T11:35:49.693300Z</value>
          <uncertainty>0.05</uncertainty>
        </time>
        <waveformID networkCode="XX" stationCode="G12" channelCode="DPN"></waveformID>
        <phaseHint>S</phaseHint>
      </pick>
      <pick publicID="smi:local/b7836dab-f7c2-4e09-b585-f6e0389e4922">
        <time>
          <value>2020-03-18T11:35:49.688000Z</value>
          <uncertainty>0.05</uncertainty>
        </time>
        <waveformID networkCode="XX" stationCode="G11" channelCode="DPN"></waveformID>
        <phaseHint>S</phaseHint>
      </pick>
      <pick publicID="smi:local/8e390137-0e3f-43a1-9928-3aff071ea9a3">
        <time>
          <value>2020-03-18T11:35:49.462100Z</value>
          <uncertainty>0.05</uncertainty>
        </time>
        <waveformID networkCode="XX" stationCode="G13" channelCode="DPZ"></waveformID>
        <phaseHint>P</phaseHint>
      </pick>
      <pick publicID="smi:local/ce7d0a56-f972-4706-bacf-fb32da6e51b8">
        <time>
          <value>2020-03-18T11:35:49.698500Z</value>
          <uncertainty>0.05</uncertainty>
        </time>
        <waveformID networkCode="XX" stationCode="G13" channelCode="DPN"></waveformID>
        <phaseHint>S</phaseHint>
      </pick>
      <pick publicID="smi:local/7b21f3f1-91a4-4e29-a97a-33d7d46732b8">
        <time>
          <value>2020-03-18T11:35:49.441000Z</value>
          <uncertainty>0.05</uncertainty>
        </time>
        <waveformID networkCode="XX" stationCode="G1" channelCode="DPZ"></waveformID>
        <phaseHint>P</phaseHint>
      </pick>
      <pick publicID="smi:local/56ff3c8a-1ac3-4552-8fa6-63d4fd0f60c5">
        <time>
          <value>2020-03-18T11:35:49.645900Z</value>
          <uncertainty>0.05</uncertainty>
        </time>
        <waveformID networkCode="XX" stationCode="G1" channelCode="DPN"></waveformID>
        <phaseHint>S</phaseHint>
      </pick>
      <pick publicID="smi:local/ebc0a004-27f9-4edf-ba5a-ed55f4707394">
        <time>
          <value>2020-03-18T11:35:49.701600Z</value>
          <uncertainty>0.05</uncertainty>
        </time>
        <waveformID networkCode="XX" stationCode="G14" channelCode="DPN"></waveformID>
        <phaseHint>S</phaseHint>
      </pick>
    </event>
  </eventParameters>
</q:quakeml>
