<?xml version='1.0' encoding='utf-8'?>
<q:quakeml xmlns="http://quakeml.org/xmlns/bed/1.2" xmlns:q="http://quakeml.org/xmlns/quakeml/1.2">
  <eventParameters publicID="smi:local/f1f63dfa-fea1-4dbe-8689-f72087867e11">
    <event publicID="smi:local/8f482082-06bd-4480-b0c8-7de5b8ce7ca6">
      <preferredOriginID>smi:local/03d4beca-6865-424e-8589-a7d315edaca8</preferredOriginID>
      <comment>
        <text>CaMI.FRS microseismicity</text>
      </comment>
      <comment id="smi:local/25056549-5707-4479-8618-103109d3c8d0">
        <text>eqcorrscan_template_2020_03_10t06_45_18</text>
      </comment>
      <creationInfo>
        <author>Genevieve Savard   obs:./obs_picked1/merged.obs   NLLoc:v7.00.00(27Oct2017)</author>
        <creationTime>2020-08-21T16:08:37.000000Z</creationTime>
      </creationInfo>
      <origin publicID="smi:local/03d4beca-6865-424e-8589-a7d315edaca8">
        <time>
          <value>2020-03-10T06:45:18.183555Z</value>
        </time>
        <latitude>
          <value>50.45004</value>
          <uncertainty>8.665293853573833e-05</uncertainty>
        </latitude>
        <longitude>
          <value>-112.120094</value>
          <uncertainty>9.319376083913342e-05</uncertainty>
        </longitude>
        <depth>
          <value>0.391</value>
          <uncertainty>2.228838262413852</uncertainty>
          <confidenceLevel>68.0</confidenceLevel>
        </depth>
        <depthType>from location</depthType>
        <quality>
          <associatedPhaseCount>7</associatedPhaseCount>
          <usedPhaseCount>7</usedPhaseCount>
          <associatedStationCount>-1</associatedStationCount>
          <usedStationCount>7</usedStationCount>
          <depthPhaseCount>-1</depthPhaseCount>
          <standardError>0.272489</standardError>
          <azimuthalGap>280.442</azimuthalGap>
          <secondaryAzimuthalGap>316.008</secondaryAzimuthalGap>
          <groundTruthLevel>-</groundTruthLevel>
          <minimumDistance>8.944751617844344e-05</minimumDistance>
          <maximumDistance>0.0009760247456875391</maximumDistance>
          <medianDistance>0.00068927425299714</medianDistance>
        </quality>
        <comment>
          <text>Note: Depth/Latitude/Longitude errors are calculated from covariance matrix as 1D marginal (Lon/Lat errors as great circle degrees) while OriginUncertainty min/max horizontal errors are calculated from 2D error ellipsoid and are therefore seemingly higher compared to 1D errors. Error estimates can be reconstructed from the following original NonLinLoc error statistics line:
STATISTICS ExpectX 0.0540874 Y -0.0485496 Z 0.00180479  CovXX 0.000107385 XY -3.21804e-05 XZ 5.0019e-06 YY 9.28403e-05 YZ -4.46811e-06 ZZ 4.96772e-06 EllAz1  135.069 Dip1  -86.9975 Len1  0.00403687 Az2  218.667 Dip2  0.335103 Len2  0.015393 Len3  2.170465e-02</text>
        </comment>
        <creationInfo>
          <author>Genevieve Savard   obs:./obs_picked1/merged.obs   NLLoc:v7.00.00(27Oct2017)</author>
          <creationTime>2020-08-21T16:08:37.000000Z</creationTime>
        </creationInfo>
        <originUncertainty>
          <preferredDescription>uncertainty ellipse</preferredDescription>
          <minHorizontalUncertainty>12.4249</minHorizontalUncertainty>
          <maxHorizontalUncertainty>17.4969</maxHorizontalUncertainty>
          <azimuthMaxHorizontalUncertainty>128.633</azimuthMaxHorizontalUncertainty>
          <confidenceLevel>68.0</confidenceLevel>
        </originUncertainty>
        <arrival publicID="smi:local/a0b60d08-acc4-4389-b95d-0a8055733d6b">
          <pickID>smi:local/4c270c52-c69c-4aa7-84f1-3c1a7c852dcc</pickID>
          <phase>S</phase>
          <azimuth>359.0</azimuth>
          <distance>8.903283898595433e-05</distance>
          <takeoffAngle>
            <value>-1.0</value>
          </takeoffAngle>
          <timeResidual>-0.1039</timeResidual>
          <timeWeight>3.1327</timeWeight>
        </arrival>
        <arrival publicID="smi:local/2f48e7c8-0625-4c96-b7f3-f4d5f8bfc1f0">
          <pickID>smi:local/695e38e8-bf83-4f11-88b0-43812c916af4</pickID>
          <phase>S</phase>
          <azimuth>359.0</azimuth>
          <distance>0.00033904424543136137</distance>
          <takeoffAngle>
            <value>-1.0</value>
          </takeoffAngle>
          <timeResidual>-0.1077</timeResidual>
          <timeWeight>1.3085</timeWeight>
        </arrival>
        <arrival publicID="smi:local/b93ecc2d-ea64-4a5d-a19c-641e8cbc96d4">
          <pickID>smi:local/532914a9-b5b2-44ed-b450-28e1651f40d3</pickID>
          <phase>S</phase>
          <azimuth>359.0</azimuth>
          <distance>0.0005701698981524752</distance>
          <takeoffAngle>
            <value>-1.0</value>
          </takeoffAngle>
          <timeResidual>-0.0373</timeResidual>
          <timeWeight>0.4286</timeWeight>
        </arrival>
        <arrival publicID="smi:local/a2f71f82-c898-4f6b-b28b-4f0f2aa73320">
          <pickID>smi:local/2f1cc9f6-1a11-45f1-a367-a3db3c227d22</pickID>
          <phase>S</phase>
          <azimuth>359.0</azimuth>
          <distance>0.0006888803501337476</distance>
          <takeoffAngle>
            <value>-1.0</value>
          </takeoffAngle>
          <timeResidual>0.0647</timeResidual>
          <timeWeight>0.6016</timeWeight>
        </arrival>
        <arrival publicID="smi:local/d100df75-a54d-4d53-8781-f12ee7c93fde">
          <pickID>smi:local/43752aab-a4c3-433c-9acf-ba2bb2d7134b</pickID>
          <phase>S</phase>
          <azimuth>359.0</azimuth>
          <distance>0.0006987728877988537</distance>
          <takeoffAngle>
            <value>-1.0</value>
          </takeoffAngle>
          <timeResidual>-0.0447</timeResidual>
          <timeWeight>0.6359</timeWeight>
        </arrival>
        <arrival publicID="smi:local/646c5fc9-1784-41f1-afe3-d05d74aec117">
          <pickID>smi:local/cd462f2a-f00f-46a6-ba7d-795fd550fab9</pickID>
          <phase>S</phase>
          <azimuth>359.0</azimuth>
          <distance>0.0007230545711586593</distance>
          <takeoffAngle>
            <value>-1.0</value>
          </takeoffAngle>
          <timeResidual>0.9487</timeResidual>
          <timeWeight>0.5172</timeWeight>
        </arrival>
        <arrival publicID="smi:local/0d6163f9-af0a-4672-a308-37e8ae2b9573">
          <pickID>smi:local/9a1129a9-20b4-4557-b6d6-45f46675c776</pickID>
          <phase>S</phase>
          <azimuth>359.0</azimuth>
          <distance>0.0009757639424218226</distance>
          <takeoffAngle>
            <value>-1.0</value>
          </takeoffAngle>
          <timeResidual>-0.0499</timeResidual>
          <timeWeight>0.3755</timeWeight>
        </arrival>
      </origin>
      <pick publicID="smi:local/532914a9-b5b2-44ed-b450-28e1651f40d3">
        <time>
          <value>2020-03-10T06:45:18.287500Z</value>
          <uncertainty>0.0584</uncertainty>
        </time>
        <waveformID networkCode="XX" stationCode="C0404" channelCode="DPN"></waveformID>
        <phaseHint>S</phaseHint>
      </pick>
      <pick publicID="smi:local/2f1cc9f6-1a11-45f1-a367-a3db3c227d22">
        <time>
          <value>2020-03-10T06:45:18.417700Z</value>
          <uncertainty>0.049</uncertainty>
        </time>
        <waveformID networkCode="XX" stationCode="C0202" channelCode="DPN"></waveformID>
        <phaseHint>S</phaseHint>
      </pick>
      <pick publicID="smi:local/43752aab-a4c3-433c-9acf-ba2bb2d7134b">
        <time>
          <value>2020-03-10T06:45:18.312700Z</value>
          <uncertainty>0.0476</uncertainty>
        </time>
        <waveformID networkCode="XX" stationCode="C0909" channelCode="DPN"></waveformID>
        <phaseHint>S</phaseHint>
      </pick>
      <pick publicID="smi:local/695e38e8-bf83-4f11-88b0-43812c916af4">
        <time>
          <value>2020-03-10T06:45:18.159200Z</value>
          <uncertainty>0.0324</uncertainty>
        </time>
        <waveformID networkCode="XX" stationCode="C0704" channelCode="DPN"></waveformID>
        <phaseHint>S</phaseHint>
      </pick>
      <pick publicID="smi:local/9a1129a9-20b4-4557-b6d6-45f46675c776">
        <time>
          <value>2020-03-10T06:45:18.366700Z</value>
          <uncertainty>0.0625</uncertainty>
        </time>
        <waveformID networkCode="XX" stationCode="C0209" channelCode="DPN"></waveformID>
        <phaseHint>S</phaseHint>
      </pick>
      <pick publicID="smi:local/4c270c52-c69c-4aa7-84f1-3c1a7c852dcc">
        <time>
          <value>2020-03-10T06:45:18.103000Z</value>
          <uncertainty>0.0195</uncertainty>
        </time>
        <waveformID networkCode="XX" stationCode="C0902" channelCode="DPN"></waveformID>
        <phaseHint>S</phaseHint>
      </pick>
      <pick publicID="smi:local/cd462f2a-f00f-46a6-ba7d-795fd550fab9">
        <time>
          <value>2020-03-10T06:45:19.308100Z</value>
          <uncertainty>0.053</uncertainty>
        </time>
        <waveformID networkCode="XX" stationCode="C0407" channelCode="DPN"></waveformID>
        <phaseHint>S</phaseHint>
      </pick>
    </event>
  </eventParameters>
</q:quakeml>
