<?xml version='1.0' encoding='utf-8'?>
<q:quakeml xmlns="http://quakeml.org/xmlns/bed/1.2" xmlns:q="http://quakeml.org/xmlns/quakeml/1.2">
  <eventParameters publicID="smi:local/7ccb36ab-a80e-4d04-82cc-e674cf6f83ec">
    <event publicID="smi:local/3e398f6d-9eb4-4c3c-abbe-dbc38941ec61">
      <preferredOriginID>smi:local/67043e0e-e9db-438a-a0b8-915243a2bc76</preferredOriginID>
      <comment>
        <text>CaMI.FRS microseismicity</text>
      </comment>
      <comment id="smi:local/7909a636-90d5-451b-a457-14cfde6bdbcf">
        <text>eqcorrscan_template_2020_03_10t04_34_19</text>
      </comment>
      <creationInfo>
        <author>Genevieve Savard   obs:./obs_picked5/merged.obs   NLLoc:v7.00.00(27Oct2017)</author>
        <creationTime>2020-09-18T19:56:47.000000Z</creationTime>
      </creationInfo>
      <origin publicID="smi:local/67043e0e-e9db-438a-a0b8-915243a2bc76">
        <time>
          <value>2020-03-10T04:34:19.342066Z</value>
        </time>
        <latitude>
          <value>50.446671</value>
          <uncertainty>7.09101827279716e-05</uncertainty>
        </latitude>
        <longitude>
          <value>-112.123202</value>
          <uncertainty>7.798933351751455e-05</uncertainty>
        </longitude>
        <depth>
          <value>16.797</value>
          <uncertainty>3.748759794918848</uncertainty>
          <confidenceLevel>68.0</confidenceLevel>
        </depth>
        <depthType>from location</depthType>
        <quality>
          <associatedPhaseCount>52</associatedPhaseCount>
          <usedPhaseCount>52</usedPhaseCount>
          <associatedStationCount>-1</associatedStationCount>
          <usedStationCount>40</usedStationCount>
          <depthPhaseCount>-1</depthPhaseCount>
          <standardError>0.195203</standardError>
          <azimuthalGap>169.063</azimuthalGap>
          <secondaryAzimuthalGap>193.041</secondaryAzimuthalGap>
          <groundTruthLevel>-</groundTruthLevel>
          <minimumDistance>0.001587815247761933</minimumDistance>
          <maximumDistance>0.007127744258814023</maximumDistance>
          <medianDistance>0.003927715168121583</medianDistance>
        </quality>
        <comment>
          <text>Note: Depth/Latitude/Longitude errors are calculated from covariance matrix as 1D marginal (Lon/Lat errors as great circle degrees) while OriginUncertainty min/max horizontal errors are calculated from 2D error ellipsoid and are therefore seemingly higher compared to 1D errors. Error estimates can be reconstructed from the following original NonLinLoc error statistics line:
STATISTICS ExpectX -0.178132 Y -0.41239 Z 0.0148587  CovXX 7.52039e-05 XY -1.59168e-05 XZ -8.36863e-06 YY 6.21709e-05 YZ -9.0951e-06 ZZ 1.40532e-05 EllAz1  218.658 Dip1  -73.3968 Len1  0.00605227 Az2  212.829 Dip2  16.522 Len2  0.013948 Len3  1.741735e-02</text>
        </comment>
        <creationInfo>
          <author>Genevieve Savard   obs:./obs_picked5/merged.obs   NLLoc:v7.00.00(27Oct2017)</author>
          <creationTime>2020-09-18T19:56:47.000000Z</creationTime>
        </creationInfo>
        <originUncertainty>
          <preferredDescription>uncertainty ellipse</preferredDescription>
          <minHorizontalUncertainty>10.8822</minHorizontalUncertainty>
          <maxHorizontalUncertainty>14.0549</maxHorizontalUncertainty>
          <azimuthMaxHorizontalUncertainty>123.868</azimuthMaxHorizontalUncertainty>
          <confidenceLevel>68.0</confidenceLevel>
        </originUncertainty>
        <arrival publicID="smi:local/02bd3949-7cb7-42ef-a3c2-0beda1ffb99e">
          <pickID>smi:local/7eccc6cc-0afa-4c91-ac67-ef275d5f597b</pickID>
          <phase>P</phase>
          <azimuth>359.0</azimuth>
          <distance>0.001588201956052478</distance>
          <takeoffAngle>
            <value>-1.0</value>
          </takeoffAngle>
          <timeResidual>-0.0677</timeResidual>
          <timeWeight>2.2986</timeWeight>
        </arrival>
        <arrival publicID="smi:local/5580625f-7b44-4521-bc83-ac1e0aff76a4">
          <pickID>smi:local/9c03f84b-a049-453c-ba78-1c24c0e59f58</pickID>
          <phase>S</phase>
          <azimuth>359.0</azimuth>
          <distance>0.001588201956052478</distance>
          <takeoffAngle>
            <value>-1.0</value>
          </takeoffAngle>
          <timeResidual>-0.0224</timeResidual>
          <timeWeight>0.6757</timeWeight>
        </arrival>
        <arrival publicID="smi:local/163564a8-e3d2-4990-ae08-0ff8c15e8902">
          <pickID>smi:local/64dc4cbd-127b-4ef0-91a8-e87ae4667978</pickID>
          <phase>P</phase>
          <azimuth>359.0</azimuth>
          <distance>0.0023948934365615794</distance>
          <takeoffAngle>
            <value>-1.0</value>
          </takeoffAngle>
          <timeResidual>-0.0868</timeResidual>
          <timeWeight>1.7941</timeWeight>
        </arrival>
        <arrival publicID="smi:local/728202ed-8512-43a9-8763-ce9b609cb897">
          <pickID>smi:local/8056000e-50f1-412a-a79e-49e1b62dfd04</pickID>
          <phase>S</phase>
          <azimuth>359.0</azimuth>
          <distance>0.0023948934365615794</distance>
          <takeoffAngle>
            <value>-1.0</value>
          </takeoffAngle>
          <timeResidual>-0.1154</timeResidual>
          <timeWeight>0.746</timeWeight>
        </arrival>
        <arrival publicID="smi:local/6cdeaeb8-402d-4c33-be9e-7d8b28bc99ea">
          <pickID>smi:local/f025d3c3-d729-4dbc-b9e5-a282b15d1ecb</pickID>
          <phase>P</phase>
          <azimuth>359.0</azimuth>
          <distance>0.002398490722985254</distance>
          <takeoffAngle>
            <value>-1.0</value>
          </takeoffAngle>
          <timeResidual>-0.0075</timeResidual>
          <timeWeight>1.5547</timeWeight>
        </arrival>
        <arrival publicID="smi:local/f3da8ef6-ae81-4564-86f0-e58885e970cc">
          <pickID>smi:local/309af32a-62db-4245-9bf1-de648e2c507b</pickID>
          <phase>S</phase>
          <azimuth>359.0</azimuth>
          <distance>0.002398490722985254</distance>
          <takeoffAngle>
            <value>-1.0</value>
          </takeoffAngle>
          <timeResidual>0.0654</timeResidual>
          <timeWeight>0.2316</timeWeight>
        </arrival>
        <arrival publicID="smi:local/fb847961-fcc0-4a8b-81a3-b75974c46254">
          <pickID>smi:local/c604956c-e0da-4033-b332-82b99faa650a</pickID>
          <phase>P</phase>
          <azimuth>359.0</azimuth>
          <distance>0.0036665341873306644</distance>
          <takeoffAngle>
            <value>-1.0</value>
          </takeoffAngle>
          <timeResidual>0.0153</timeResidual>
          <timeWeight>1.5851</timeWeight>
        </arrival>
        <arrival publicID="smi:local/4d633fef-60ea-41cb-9538-1d6c18f4be11">
          <pickID>smi:local/d6ce62e4-59c6-49e1-922c-069b3911798f</pickID>
          <phase>S</phase>
          <azimuth>359.0</azimuth>
          <distance>0.0036665341873306644</distance>
          <takeoffAngle>
            <value>-1.0</value>
          </takeoffAngle>
          <timeResidual>-0.0353</timeResidual>
          <timeWeight>0.3747</timeWeight>
        </arrival>
        <arrival publicID="smi:local/59c32267-75e1-43ae-8875-06dbc52983ba">
          <pickID>smi:local/af38fec6-e1a4-45cc-be0f-2a814e4ff6e4</pickID>
          <phase>P</phase>
          <azimuth>359.0</azimuth>
          <distance>0.0038257141115782796</distance>
          <takeoffAngle>
            <value>-1.0</value>
          </takeoffAngle>
          <timeResidual>-0.1045</timeResidual>
          <timeWeight>1.0618</timeWeight>
        </arrival>
        <arrival publicID="smi:local/05a11256-2927-41d3-a668-27a70d9638f4">
          <pickID>smi:local/73b5c198-989b-4fe3-b446-5a158f1049f4</pickID>
          <phase>S</phase>
          <azimuth>359.0</azimuth>
          <distance>0.0038257141115782796</distance>
          <takeoffAngle>
            <value>-1.0</value>
          </takeoffAngle>
          <timeResidual>-0.1988</timeResidual>
          <timeWeight>0.6466</timeWeight>
        </arrival>
        <arrival publicID="smi:local/eddcfee2-93a3-41ba-9db0-852b295ce5f7">
          <pickID>smi:local/74d2d36c-603a-4401-ae34-b642fe12b222</pickID>
          <phase>P</phase>
          <azimuth>359.0</azimuth>
          <distance>0.003910250342534641</distance>
          <takeoffAngle>
            <value>-1.0</value>
          </takeoffAngle>
          <timeResidual>-0.1031</timeResidual>
          <timeWeight>1.4359</timeWeight>
        </arrival>
        <arrival publicID="smi:local/8c24b8d4-2da7-44a4-89f0-eeb8ea5b419d">
          <pickID>smi:local/aa5c1de1-f145-434d-8ed7-b0352fe02cbc</pickID>
          <phase>S</phase>
          <azimuth>359.0</azimuth>
          <distance>0.003910250342534641</distance>
          <takeoffAngle>
            <value>-1.0</value>
          </takeoffAngle>
          <timeResidual>-0.1401</timeResidual>
          <timeWeight>1.7666</timeWeight>
        </arrival>
        <arrival publicID="smi:local/5cbf5f5b-acbe-448d-95af-5c16aa70312d">
          <pickID>smi:local/be7becf7-e4a3-4257-8b53-a4ed17fa1f5b</pickID>
          <phase>P</phase>
          <azimuth>359.0</azimuth>
          <distance>0.003927337453047096</distance>
          <takeoffAngle>
            <value>-1.0</value>
          </takeoffAngle>
          <timeResidual>0.0402</timeResidual>
          <timeWeight>1.2451</timeWeight>
        </arrival>
        <arrival publicID="smi:local/92977594-2cbf-4c3e-8d82-3465ae5f69c9">
          <pickID>smi:local/2999dfac-2dbe-4c11-93f5-023f45d34989</pickID>
          <phase>P</phase>
          <azimuth>359.0</azimuth>
          <distance>0.003927337453047096</distance>
          <takeoffAngle>
            <value>-1.0</value>
          </takeoffAngle>
          <timeResidual>0.0507</timeResidual>
          <timeWeight>1.4937</timeWeight>
        </arrival>
        <arrival publicID="smi:local/410cdffa-e076-44ca-aae7-0d2a742e222f">
          <pickID>smi:local/dee14465-9074-4a6b-ba2a-bfb58e226c8a</pickID>
          <phase>P</phase>
          <azimuth>359.0</azimuth>
          <distance>0.003927337453047096</distance>
          <takeoffAngle>
            <value>-1.0</value>
          </takeoffAngle>
          <timeResidual>0.0588</timeResidual>
          <timeWeight>0.0249</timeWeight>
        </arrival>
        <arrival publicID="smi:local/3cbedc5c-76b3-46d6-9d3c-14c777fe1724">
          <pickID>smi:local/fb2b3873-7ce8-40c0-99bd-5b80671f30e3</pickID>
          <phase>P</phase>
          <azimuth>359.0</azimuth>
          <distance>0.003927337453047096</distance>
          <takeoffAngle>
            <value>-1.0</value>
          </takeoffAngle>
          <timeResidual>0.0552</timeResidual>
          <timeWeight>1.7135</timeWeight>
        </arrival>
        <arrival publicID="smi:local/aef9fedd-221d-4a54-b0df-54b2f8d33cf9">
          <pickID>smi:local/cc75d549-1b36-40c9-81c0-4508ee191b0a</pickID>
          <phase>P</phase>
          <azimuth>359.0</azimuth>
          <distance>0.003927337453047096</distance>
          <takeoffAngle>
            <value>-1.0</value>
          </takeoffAngle>
          <timeResidual>0.0561</timeResidual>
          <timeWeight>1.6237</timeWeight>
        </arrival>
        <arrival publicID="smi:local/9f12a372-8717-4873-ae55-75bf0c5dd7e8">
          <pickID>smi:local/7d76f2b2-6f54-4e98-aa4c-da5332c51dd4</pickID>
          <phase>P</phase>
          <azimuth>359.0</azimuth>
          <distance>0.003927337453047096</distance>
          <takeoffAngle>
            <value>-1.0</value>
          </takeoffAngle>
          <timeResidual>0.0588</timeResidual>
          <timeWeight>0.0249</timeWeight>
        </arrival>
        <arrival publicID="smi:local/66b55c77-28ac-4cd3-9caa-42274e9567b9">
          <pickID>smi:local/412def3b-7849-47aa-9c8f-40f84c60c3b6</pickID>
          <phase>P</phase>
          <azimuth>359.0</azimuth>
          <distance>0.003927337453047096</distance>
          <takeoffAngle>
            <value>-1.0</value>
          </takeoffAngle>
          <timeResidual>0.0609</timeResidual>
          <timeWeight>1.5851</timeWeight>
        </arrival>
        <arrival publicID="smi:local/b84948a2-5c9f-4aca-9ec3-249c2eb170f5">
          <pickID>smi:local/679fcff2-742a-4fc1-a0e3-44a79b7246fa</pickID>
          <phase>P</phase>
          <azimuth>359.0</azimuth>
          <distance>0.003927337453047096</distance>
          <takeoffAngle>
            <value>-1.0</value>
          </takeoffAngle>
          <timeResidual>0.0589</timeResidual>
          <timeWeight>0.0249</timeWeight>
        </arrival>
        <arrival publicID="smi:local/16c3525e-c54e-4eb7-835d-95f4239ead81">
          <pickID>smi:local/d149f3b8-ca53-4dce-94c9-a3a7c1b503bd</pickID>
          <phase>P</phase>
          <azimuth>359.0</azimuth>
          <distance>0.003927337453047096</distance>
          <takeoffAngle>
            <value>-1.0</value>
          </takeoffAngle>
          <timeResidual>0.0599</timeResidual>
          <timeWeight>0.0249</timeWeight>
        </arrival>
        <arrival publicID="smi:local/976e9180-a137-44aa-b7de-12805296f2cb">
          <pickID>smi:local/0b4bd78f-7d86-4d6a-82ff-711594fde103</pickID>
          <phase>P</phase>
          <azimuth>359.0</azimuth>
          <distance>0.003927337453047096</distance>
          <takeoffAngle>
            <value>-1.0</value>
          </takeoffAngle>
          <timeResidual>0.0606</timeResidual>
          <timeWeight>1.5928</timeWeight>
        </arrival>
        <arrival publicID="smi:local/d531cf7f-672b-4e0a-9f4e-acfe9ad34d60">
          <pickID>smi:local/470bd9e9-7803-4ee2-8bb1-8e671b56a743</pickID>
          <phase>P</phase>
          <azimuth>359.0</azimuth>
          <distance>0.003927337453047096</distance>
          <takeoffAngle>
            <value>-1.0</value>
          </takeoffAngle>
          <timeResidual>0.0635</timeResidual>
          <timeWeight>0.0249</timeWeight>
        </arrival>
        <arrival publicID="smi:local/6b503bdc-e815-4801-a135-bc4ecd4ad53b">
          <pickID>smi:local/8b49ccb7-282e-4e55-a20a-cc6d05c3a070</pickID>
          <phase>P</phase>
          <azimuth>359.0</azimuth>
          <distance>0.003927337453047096</distance>
          <takeoffAngle>
            <value>-1.0</value>
          </takeoffAngle>
          <timeResidual>0.0673</timeResidual>
          <timeWeight>0.0249</timeWeight>
        </arrival>
        <arrival publicID="smi:local/6cc9da08-af8c-4a5a-9869-6cf0d724ee2a">
          <pickID>smi:local/9eaa1577-af91-4162-b7c6-f1a2a973199e</pickID>
          <phase>S</phase>
          <azimuth>359.0</azimuth>
          <distance>0.003927337453047096</distance>
          <takeoffAngle>
            <value>-1.0</value>
          </takeoffAngle>
          <timeResidual>0.0312</timeResidual>
          <timeWeight>1.1157</timeWeight>
        </arrival>
        <arrival publicID="smi:local/7d46b317-9bd6-476b-a2d0-b80519b8a06e">
          <pickID>smi:local/5205c1d6-05a4-4593-8edc-c0acbc5cd79e</pickID>
          <phase>S</phase>
          <azimuth>359.0</azimuth>
          <distance>0.003927337453047096</distance>
          <takeoffAngle>
            <value>-1.0</value>
          </takeoffAngle>
          <timeResidual>0.0244</timeResidual>
          <timeWeight>0.7598</timeWeight>
        </arrival>
        <arrival publicID="smi:local/cf1a5896-753d-4603-ae3d-1b35c307c31e">
          <pickID>smi:local/3736a44f-1068-48ee-b251-5e30d9052ed6</pickID>
          <phase>S</phase>
          <azimuth>359.0</azimuth>
          <distance>0.003927337453047096</distance>
          <takeoffAngle>
            <value>-1.0</value>
          </takeoffAngle>
          <timeResidual>0.0351</timeResidual>
          <timeWeight>0.5784</timeWeight>
        </arrival>
        <arrival publicID="smi:local/ae45f335-4fc9-4906-a1f0-93b38560229d">
          <pickID>smi:local/b36a9a08-7aaf-4a02-b9c6-7b1117d453c5</pickID>
          <phase>S</phase>
          <azimuth>359.0</azimuth>
          <distance>0.003927337453047096</distance>
          <takeoffAngle>
            <value>-1.0</value>
          </takeoffAngle>
          <timeResidual>0.0371</timeResidual>
          <timeWeight>0.826</timeWeight>
        </arrival>
        <arrival publicID="smi:local/f6f02172-aaea-41c9-8dd3-88a13add95c9">
          <pickID>smi:local/468fe0e7-9579-4aa9-99ac-a06e21a16684</pickID>
          <phase>S</phase>
          <azimuth>359.0</azimuth>
          <distance>0.003927337453047096</distance>
          <takeoffAngle>
            <value>-1.0</value>
          </takeoffAngle>
          <timeResidual>0.0432</timeResidual>
          <timeWeight>1.8903</timeWeight>
        </arrival>
        <arrival publicID="smi:local/3ed6fe53-4664-4dbb-9333-0b3e4685f1a4">
          <pickID>smi:local/c0973a08-1800-421e-b57c-0171a7c07693</pickID>
          <phase>S</phase>
          <azimuth>359.0</azimuth>
          <distance>0.003927337453047096</distance>
          <takeoffAngle>
            <value>-1.0</value>
          </takeoffAngle>
          <timeResidual>0.0359</timeResidual>
          <timeWeight>1.599</timeWeight>
        </arrival>
        <arrival publicID="smi:local/0efa3f9c-b5ce-4e6d-be1d-1df89820f478">
          <pickID>smi:local/05357a88-5770-4136-8371-7da7a25d0d76</pickID>
          <phase>S</phase>
          <azimuth>359.0</azimuth>
          <distance>0.003927337453047096</distance>
          <takeoffAngle>
            <value>-1.0</value>
          </takeoffAngle>
          <timeResidual>0.0454</timeResidual>
          <timeWeight>1.6067</timeWeight>
        </arrival>
        <arrival publicID="smi:local/1ffc0a8d-8cef-49d6-acd9-62c07bb6afe8">
          <pickID>smi:local/020e1951-eba1-47fe-823e-89d35cb45155</pickID>
          <phase>S</phase>
          <azimuth>359.0</azimuth>
          <distance>0.003927337453047096</distance>
          <takeoffAngle>
            <value>-1.0</value>
          </takeoffAngle>
          <timeResidual>0.0505</timeResidual>
          <timeWeight>1.4791</timeWeight>
        </arrival>
        <arrival publicID="smi:local/707fd5d2-1e3f-42db-983b-80e0fbb39fce">
          <pickID>smi:local/30861639-cc68-46f7-a0f1-1e7756308d9f</pickID>
          <phase>S</phase>
          <azimuth>359.0</azimuth>
          <distance>0.003927337453047096</distance>
          <takeoffAngle>
            <value>-1.0</value>
          </takeoffAngle>
          <timeResidual>0.0478</timeResidual>
          <timeWeight>0.0249</timeWeight>
        </arrival>
        <arrival publicID="smi:local/d68ba7ce-d817-467d-abe3-acf651b3b74a">
          <pickID>smi:local/45229c66-cf2d-47ad-9a1b-c98ad9d54383</pickID>
          <phase>S</phase>
          <azimuth>359.0</azimuth>
          <distance>0.003927337453047096</distance>
          <takeoffAngle>
            <value>-1.0</value>
          </takeoffAngle>
          <timeResidual>0.0456</timeResidual>
          <timeWeight>1.599</timeWeight>
        </arrival>
        <arrival publicID="smi:local/b7aeea46-a555-4517-b0ea-3eef3ad7a249">
          <pickID>smi:local/f3568447-cb0f-4f65-891c-2758d975bf60</pickID>
          <phase>S</phase>
          <azimuth>359.0</azimuth>
          <distance>0.003927337453047096</distance>
          <takeoffAngle>
            <value>-1.0</value>
          </takeoffAngle>
          <timeResidual>0.0431</timeResidual>
          <timeWeight>0.2956</timeWeight>
        </arrival>
        <arrival publicID="smi:local/382081e1-60cf-4431-8d7f-085273983ffb">
          <pickID>smi:local/4fc99c56-a8b3-49a5-bdc1-91648d7307da</pickID>
          <phase>P</phase>
          <azimuth>359.0</azimuth>
          <distance>0.0039345320258944464</distance>
          <takeoffAngle>
            <value>-1.0</value>
          </takeoffAngle>
          <timeResidual>-0.0869</timeResidual>
          <timeWeight>0.8339</timeWeight>
        </arrival>
        <arrival publicID="smi:local/c973de7d-ccb4-4ecb-b3bc-f950552a247a">
          <pickID>smi:local/ee6fde51-0ac5-46d6-9e4b-ec1cdfda6ddc</pickID>
