<?xml version='1.0' encoding='utf-8'?>
<q:quakeml xmlns="http://quakeml.org/xmlns/bed/1.2" xmlns:q="http://quakeml.org/xmlns/quakeml/1.2">
  <eventParameters publicID="smi:local/081b433f-985f-4cb2-be23-22efe3d4e538">
    <event publicID="smi:local/a7b1978e-789a-4647-bf2a-969901bb1cd2">
      <preferredOriginID>smi:local/521dac50-1b9a-4c73-895d-4c32875dfce1</preferredOriginID>
      <comment>
        <text>CaMI.FRS microseismicity</text>
      </comment>
      <comment id="smi:local/657967dd-79fb-4d56-a96c-942e7124db60">
        <text>eqcorrscan_template_2020_03_10t07_52_46</text>
      </comment>
      <creationInfo>
        <author>Genevieve Savard   obs:./obs_picked1/merged.obs   NLLoc:v7.00.00(27Oct2017)</author>
        <creationTime>2020-08-21T16:08:48.000000Z</creationTime>
      </creationInfo>
      <origin publicID="smi:local/521dac50-1b9a-4c73-895d-4c32875dfce1">
        <time>
          <value>2020-03-10T07:52:46.517805Z</value>
        </time>
        <latitude>
          <value>50.45084</value>
          <uncertainty>0.00010637876046187249</uncertainty>
        </latitude>
        <longitude>
          <value>-112.121251</value>
          <uncertainty>0.00021541315094257608</uncertainty>
        </longitude>
        <depth>
          <value>345.703</value>
          <uncertainty>13.666089418703509</uncertainty>
          <confidenceLevel>68.0</confidenceLevel>
        </depth>
        <depthType>from location</depthType>
        <quality>
          <associatedPhaseCount>24</associatedPhaseCount>
          <usedPhaseCount>24</usedPhaseCount>
          <associatedStationCount>-1</associatedStationCount>
          <usedStationCount>15</usedStationCount>
          <depthPhaseCount>-1</depthPhaseCount>
          <standardError>0.236091</standardError>
          <azimuthalGap>100.575</azimuthalGap>
          <secondaryAzimuthalGap>107.125</secondaryAzimuthalGap>
          <groundTruthLevel>-</groundTruthLevel>
          <minimumDistance>0.00011721308150741775</minimumDistance>
          <maximumDistance>0.003892722564435284</maximumDistance>
          <medianDistance>0.0013556014158976578</medianDistance>
        </quality>
        <comment>
          <text>Note: Depth/Latitude/Longitude errors are calculated from covariance matrix as 1D marginal (Lon/Lat errors as great circle degrees) while OriginUncertainty min/max horizontal errors are calculated from 2D error ellipsoid and are therefore seemingly higher compared to 1D errors. Error estimates can be reconstructed from the following original NonLinLoc error statistics line:
STATISTICS ExpectX -0.0340614 Y 0.0548011 Z 0.345451  CovXX 0.000573739 XY 6.96093e-05 XZ 6.3988e-05 YY 0.00013992 YZ -8.1963e-06 ZZ 0.000186762 EllAz1  168.602 Dip1  -18.0141 Len1  0.0208514 Az2  16.0171 Dip2  -69.8806 Len2  0.0254288 Len3  4.579386e-02</text>
        </comment>
        <creationInfo>
          <author>Genevieve Savard   obs:./obs_picked1/merged.obs   NLLoc:v7.00.00(27Oct2017)</author>
          <creationTime>2020-08-21T16:08:48.000000Z</creationTime>
        </creationInfo>
        <originUncertainty>
          <preferredDescription>uncertainty ellipse</preferredDescription>
          <minHorizontalUncertainty>17.2266</minHorizontalUncertainty>
          <maxHorizontalUncertainty>36.669599999999996</maxHorizontalUncertainty>
          <azimuthMaxHorizontalUncertainty>81.1039</azimuthMaxHorizontalUncertainty>
          <confidenceLevel>68.0</confidenceLevel>
        </originUncertainty>
        <arrival publicID="smi:local/cab5c599-4f30-454d-a3f0-11063011bf15">
          <pickID>smi:local/1e530da5-707c-4e05-86da-a17682af5fac</pickID>
          <phase>S</phase>
          <azimuth>359.0</azimuth>
          <distance>0.00011691180876943496</distance>
          <takeoffAngle>
            <value>-1.0</value>
          </takeoffAngle>
          <timeResidual>-0.3475</timeResidual>
          <timeWeight>2.0395</timeWeight>
        </arrival>
        <arrival publicID="smi:local/d8bddb3b-ccc5-4d34-b0d0-2a192af7b851">
          <pickID>smi:local/713475b1-4a87-4963-bd49-e8506f06f570</pickID>
          <phase>S</phase>
          <azimuth>359.0</azimuth>
          <distance>0.00036602389360892334</distance>
          <takeoffAngle>
            <value>-1.0</value>
          </takeoffAngle>
          <timeResidual>0.663</timeResidual>
          <timeWeight>2.0481</timeWeight>
        </arrival>
        <arrival publicID="smi:local/1905c737-9b96-44c1-959d-bb8530f8dda8">
          <pickID>smi:local/d93a1853-1fa9-43bb-a9e1-2f69739ae89d</pickID>
          <phase>S</phase>
          <azimuth>359.0</azimuth>
          <distance>0.0005890556518767685</distance>
          <takeoffAngle>
            <value>-1.0</value>
          </takeoffAngle>
          <timeResidual>-0.3041</timeResidual>
          <timeWeight>1.5405</timeWeight>
        </arrival>
        <arrival publicID="smi:local/c638dee9-20e5-4ac9-9cb4-c542ab316002">
          <pickID>smi:local/89300c10-ea52-4b9c-8c70-bdce94da0928</pickID>
          <phase>P</phase>
          <azimuth>359.0</azimuth>
          <distance>0.0006825850988923164</distance>
          <takeoffAngle>
            <value>-1.0</value>
          </takeoffAngle>
          <timeResidual>-0.0303</timeResidual>
          <timeWeight>1.5991</timeWeight>
        </arrival>
        <arrival publicID="smi:local/a022f535-8632-44c6-9505-db94fa11d892">
          <pickID>smi:local/3bc64ef6-dddc-4a46-8336-8f8ead302b63</pickID>
          <phase>S</phase>
          <azimuth>359.0</azimuth>
          <distance>0.0006825850988923164</distance>
          <takeoffAngle>
            <value>-1.0</value>
          </takeoffAngle>
          <timeResidual>-0.0974</timeResidual>
          <timeWeight>1.0727</timeWeight>
        </arrival>
        <arrival publicID="smi:local/18ae60f5-7cb1-45d1-9967-8e88732ede5b">
          <pickID>smi:local/c1aba0e7-108c-462b-976b-a120ee41dd39</pickID>
          <phase>P</phase>
          <azimuth>359.0</azimuth>
          <distance>0.0007365443952474404</distance>
          <takeoffAngle>
            <value>-1.0</value>
          </takeoffAngle>
          <timeResidual>0.0763</timeResidual>
          <timeWeight>2.242</timeWeight>
        </arrival>
        <arrival publicID="smi:local/7b351ccc-b1e1-4e5b-add3-b4c9c5a26364">
          <pickID>smi:local/f6ea8116-6d87-4d45-afef-3b5db4105259</pickID>
          <phase>S</phase>
          <azimuth>359.0</azimuth>
          <distance>0.0007365443952474404</distance>
          <takeoffAngle>
            <value>-1.0</value>
          </takeoffAngle>
          <timeResidual>-0.0119</timeResidual>
          <timeWeight>1.5405</timeWeight>
        </arrival>
        <arrival publicID="smi:local/8fb4e920-5ea7-432d-b841-4866e210e10a">
          <pickID>smi:local/72b2fd4b-21d8-4ed3-a255-17c99e6621e5</pickID>
          <phase>P</phase>
          <azimuth>359.0</azimuth>
          <distance>0.0007482355761243837</distance>
          <takeoffAngle>
            <value>-1.0</value>
          </takeoffAngle>
          <timeResidual>-0.0453</timeResidual>
          <timeWeight>2.4222</timeWeight>
        </arrival>
        <arrival publicID="smi:local/da022f12-213e-4d3b-bdd1-ac614ee430b6">
          <pickID>smi:local/9f1e24cf-cef7-4158-a909-5726677f969e</pickID>
          <phase>P</phase>
          <azimuth>359.0</azimuth>
          <distance>0.0009973476609638722</distance>
          <takeoffAngle>
            <value>-1.0</value>
          </takeoffAngle>
          <timeResidual>-0.0109</timeResidual>
          <timeWeight>0.2535</timeWeight>
        </arrival>
        <arrival publicID="smi:local/1d5fd73f-04be-4569-b731-5065b3f3607d">
          <pickID>smi:local/488060d7-5265-4073-bdad-0b95ec3144df</pickID>
          <phase>S</phase>
          <azimuth>359.0</azimuth>
          <distance>0.0009973476609638722</distance>
          <takeoffAngle>
            <value>-1.0</value>
          </takeoffAngle>
          <timeResidual>-0.0775</timeResidual>
          <timeWeight>0.3429</timeWeight>
        </arrival>
        <arrival publicID="smi:local/eab33458-d7b7-4cdb-8107-75f39f078637">
          <pickID>smi:local/fffd4982-f7a3-4513-8fd5-082c2327a038</pickID>
          <phase>P</phase>
          <azimuth>359.0</azimuth>
          <distance>0.001355277660119527</distance>
          <takeoffAngle>
            <value>-1.0</value>
          </takeoffAngle>
          <timeResidual>-0.0331</timeResidual>
          <timeWeight>0.8929</timeWeight>
        </arrival>
        <arrival publicID="smi:local/3956286d-c04a-4c31-bfa0-7593df544841">
          <pickID>smi:local/d8bdbbc7-498e-4fe6-924f-ac7dabe887bd</pickID>
          <phase>S</phase>
          <azimuth>359.0</azimuth>
          <distance>0.001355277660119527</distance>
          <takeoffAngle>
            <value>-1.0</value>
          </takeoffAngle>
          <timeResidual>-0.0621</timeResidual>
          <timeWeight>0.7911</timeWeight>
        </arrival>
        <arrival publicID="smi:local/40d9b179-483c-4671-bab1-7bdb296461b0">
          <pickID>smi:local/7a194cbd-c0df-4457-afa5-b4e4811f3d28</pickID>
          <phase>S</phase>
          <azimuth>359.0</azimuth>
          <distance>0.0019308434879075145</distance>
          <takeoffAngle>
            <value>-1.0</value>
          </takeoffAngle>
          <timeResidual>-0.0449</timeResidual>
          <timeWeight>0.3801</timeWeight>
        </arrival>
        <arrival publicID="smi:local/6c33d4a6-51d8-4557-adb4-21441909dbfb">
          <pickID>smi:local/62eac31c-c3aa-4463-a213-21c5bd4d7f3c</pickID>
          <phase>P</phase>
          <azimuth>359.0</azimuth>
          <distance>0.002032466829376331</distance>
          <takeoffAngle>
            <value>-1.0</value>
          </takeoffAngle>
          <timeResidual>-0.029</timeResidual>
          <timeWeight>1.6673</timeWeight>
        </arrival>
        <arrival publicID="smi:local/52e17be4-fc7e-4c8b-914f-989103fc7082">
          <pickID>smi:local/69887c90-27e8-441c-9b79-815aa2721c08</pickID>
          <phase>S</phase>
          <azimuth>359.0</azimuth>
          <distance>0.002032466829376331</distance>
          <takeoffAngle>
            <value>-1.0</value>
          </takeoffAngle>
          <timeResidual>-0.0338</timeResidual>
          <timeWeight>0.7038</timeWeight>
        </arrival>
        <arrival publicID="smi:local/a6b410cd-c2e9-4488-bbf9-7ee3f201e76e">
          <pickID>smi:local/f82b7fc0-d1e4-4921-b0e1-611d0c0ba3dc</pickID>
          <phase>P</phase>
          <azimuth>359.0</azimuth>
          <distance>0.0024524500193403784</distance>
          <takeoffAngle>
            <value>-1.0</value>
          </takeoffAngle>
          <timeResidual>-0.0063</timeResidual>
          <timeWeight>0.323</timeWeight>
        </arrival>
        <arrival publicID="smi:local/96c39a81-bf96-4a79-810c-44c30c444a59">
          <pickID>smi:local/9d65e4a3-3c5f-4929-9751-2f39002abab2</pickID>
          <phase>S</phase>
          <azimuth>359.0</azimuth>
          <distance>0.0024524500193403784</distance>
          <takeoffAngle>
            <value>-1.0</value>
          </takeoffAngle>
          <timeResidual>-0.0208</timeResidual>
          <timeWeight>0.508</timeWeight>
        </arrival>
        <arrival publicID="smi:local/bc5bc584-7785-4da8-8340-76c4727433fb">
          <pickID>smi:local/a05706dc-65e2-4776-8b09-220a81ba80eb</pickID>
          <phase>P</phase>
          <azimuth>359.0</azimuth>
          <distance>0.0026242204460708556</distance>
          <takeoffAngle>
            <value>-1.0</value>
          </takeoffAngle>
          <timeResidual>0.0105</timeResidual>
          <timeWeight>1.0018</timeWeight>
        </arrival>
        <arrival publicID="smi:local/bde3b713-b891-49ba-819b-7ab54e149b34">
          <pickID>smi:local/b96f53d6-840f-48d2-b9ac-568a68ad5e24</pickID>
          <phase>S</phase>
          <azimuth>359.0</azimuth>
          <distance>0.0026242204460708556</distance>
          <takeoffAngle>
            <value>-1.0</value>
          </takeoffAngle>
          <timeResidual>0.0395</timeResidual>
          <timeWeight>0.6287</timeWeight>
        </arrival>
        <arrival publicID="smi:local/3d7f6f14-5d10-4ec3-8e5b-d4d8235a1768">
          <pickID>smi:local/10bf64df-7d95-4f86-b63a-a89e3dd01410</pickID>
          <phase>S</phase>
          <azimuth>359.0</azimuth>
          <distance>0.003167410696045769</distance>
          <takeoffAngle>
            <value>-1.0</value>
          </takeoffAngle>
          <timeResidual>0.016</timeResidual>
          <timeWeight>0.2724</timeWeight>
        </arrival>
        <arrival publicID="smi:local/f1da1774-8d0c-490b-ba0b-68e5818aa780">
          <pickID>smi:local/0e1a36b3-33e8-4ae4-892a-15f4752bbee6</pickID>
          <phase>P</phase>
          <azimuth>359.0</azimuth>
          <distance>0.0032717320023323416</distance>
          <takeoffAngle>
            <value>-1.0</value>
          </takeoffAngle>
          <timeResidual>-0.0068</timeResidual>
          <timeWeight>0.3523</timeWeight>
        </arrival>
        <arrival publicID="smi:local/130988a3-3471-4c13-857c-587185fd1049">
          <pickID>smi:local/f826c1ec-840d-4b2c-a7a7-c2ecaabd15fe</pickID>
          <phase>S</phase>
          <azimuth>359.0</azimuth>
          <distance>0.0032717320023323416</distance>
          <takeoffAngle>
            <value>-1.0</value>
          </takeoffAngle>
          <timeResidual>0.0699</timeResidual>
          <timeWeight>0.6287</timeWeight>
        </arrival>
        <arrival publicID="smi:local/7fd07d8c-112f-44a7-94e9-0f43852b1a90">
          <pickID>smi:local/1e76d9b6-463c-4fca-88c4-f28ab47104e1</pickID>
          <phase>P</phase>
          <azimuth>359.0</azimuth>
          <distance>0.0038931632320221847</distance>
          <takeoffAngle>
            <value>-1.0</value>
          </takeoffAngle>
          <timeResidual>0.0296</timeResidual>
          <timeWeight>0.2365</timeWeight>
        </arrival>
        <arrival publicID="smi:local/40a798be-c2f9-45ef-a8c4-72fdd415dd36">
          <pickID>smi:local/c50ef1e7-d53c-4777-ac72-c656b1ba3be4</pickID>
          <phase>S</phase>
          <azimuth>359.0</azimuth>
          <distance>0.0038931632320221847</distance>
          <takeoffAngle>
            <value>-1.0</value>
          </takeoffAngle>
          <timeResidual>0.0995</timeResidual>
          <timeWeight>0.5121</timeWeight>
        </arrival>
      </origin>
      <pick publicID="smi:local/1e76d9b6-463c-4fca-88c4-f28ab47104e1">
        <time>
          <value>2020-03-10T07:52:46.795400Z</value>
          <uncertainty>0.0319</uncertainty>
        </time>
        <waveformID networkCode="XX" stationCode="F0109" channelCode="DPZ"></waveformID>
        <phaseHint>P</phaseHint>
      </pick>
      <pick publicID="smi:local/c50ef1e7-d53c-4777-ac72-c656b1ba3be4">
        <time>
          <value>2020-03-10T07:52:47.209900Z</value>
          <uncertainty>0.0204</uncertainty>
        </time>
        <waveformID networkCode="XX" stationCode="F0109" channelCode="DPE"></waveformID>
        <phaseHint>S</phaseHint>
      </pick>
      <pick publicID="smi:local/62eac31c-c3aa-4463-a213-21c5bd4d7f3c">
        <time>
          <value>2020-03-10T07:52:46.679400Z</value>
          <uncertainty>0.00765</uncertainty>
        </time>
        <waveformID networkCode="XX" stationCode="F0304" channelCode="DPZ"></waveformID>
        <phaseHint>P</phaseHint>
      </pick>
      <pick publicID="smi:local/69887c90-27e8-441c-9b79-815aa2721c08">
        <time>
          <value>2020-03-10T07:52:46.945900Z</value>
          <uncertainty>0.0166</uncertainty>
        </time>
        <waveformID networkCode="XX" stationCode="F0304" channelCode="DPN"></waveformID>
        <phaseHint>S</phaseHint>
      </pick>
      <pick publicID="smi:local/0e1a36b3-33e8-4ae4-892a-15f4752bbee6">
        <time>
          <value>2020-03-10T07:52:46.738100Z</value>
          <uncertainty>0.0255</uncertainty>
        </time>
        <waveformID networkCode="XX" stationCode="F0203" channelCode="DPZ"></waveformID>
        <phaseHint>P</phaseHint>
      </pick>
      <pick publicID="smi:local/f826c1ec-840d-4b2c-a7a7-c2ecaabd15fe">
        <time>
          <value>2020-03-10T07:52:47.133400Z</value>
          <uncertainty>0.0179</uncertainty>
        </time>
        <waveformID networkCode="XX" stationCode="F0203" channelCode="DPN"></waveformID>
        <phaseHint>S</phaseHint>
      </pick>
      <pick publicID="smi:local/d93a1853-1fa9-43bb-a9e1-2f69739ae89d">
        <time>
          <value>2020-03-10T07:52:46.614100Z</value>
          <uncertainty>0.00846</uncertainty>
        </time>
        <waveformID networkCode="XX" stationCode="C0404" channelCode="DPN"></waveformID>
        <phaseHint>S</phaseHint>
      </pick>
      <pick publicID="smi:local/713475b1-4a87-4963-bd49-e8506f06f570">
        <time>
          <value>2020-03-10T07:52:47.576900Z</value>
          <uncertainty>0.00539</uncertainty>
        </time>
        <waveformID networkCode="XX" stationCode="C0407" channelCode="DPE"></waveformID>
        <phaseHint>S</phaseHint>
      </pick>
      <pick publicID="smi:local/72b2fd4b-21d8-4ed3-a255-17c99e6621e5">
        <time>
          <value>2020-03-10T07:52:46.638800Z</value>
          <uncertainty>0.00302</uncertainty>
        </time>
        <waveformID networkCode="XX" stationCode="C0704" channelCode="DPZ"></waveformID>
        <phaseHint>P</phaseHint>
      </pick>
      <pick publicID="smi:local/f82b7fc0-d1e4-4921-b0e1-611d0c0ba3dc">
        <time>
          <value>2020-03-10T07:52:46.713800Z</value>
          <uncertainty>0.0268</uncertainty>
        </time>
        <waveformID networkCode="XX" stationCode="F0604" channelCode="DPZ"></waveformID>
        <phaseHint>P</phaseHint>
      </pick>
      <pick publicID="smi:local/9d65e4a3-3c5f-4929-9751-2f39002abab2">
        <time>
          <value>2020-03-10T07:52:46.985400Z</value>
          <uncertainty>0.0205</uncertainty>
        </time>
        <waveformID networkCode="XX" stationCode="F0604" channelCode="DPZ"></waveformID>
        <phaseHint>S</phaseHint>
      </pick>
      <pick publicID="smi:local/7a194cbd-c0df-4457-afa5-b4e4811f3d28">
        <time>
          <value>2020-03-10T07:52:46.930200Z</value>
          <uncertainty>0.0244</uncertainty>
        </time>
        <waveformID networkCode="XX" stationCode="F0607" channelCode="DPE"></waveformID>
        <phaseHint>S</phaseHint>
      </pick>
      <pick publicID="smi:local/1e530da5-707c-4e05-86da-a17682af5fac">
        <time>
          <value>2020-03-10T07:52:46.562700Z</value>
          <uncertainty>0.00544</uncertainty>
        </time>
        <waveformID networkCode="XX" stationCode="C0209" channelCode="DPE"></waveformID>
        <phaseHint>S</phaseHint>
      </pick>
      <pick publicID="smi:local/10bf64df-7d95-4f86-b63a-a89e3dd01410">
        <time>
          <value>2020-03-10T07:52:47.071300Z</value>
          <uncertainty>0.0295</uncertainty>
        </time>
        <waveformID networkCode="XX" stationCode="F0708" channelCode="DPZ"></waveformID>
        <phaseHint>S</phaseHint>
      </pick>
      <pick publicID="smi:local/9f1e24cf-cef7-4158-a909-5726677f969e">
        <time>
          <value>2020-03-10T07:52:46.676600Z</value>
          <uncertainty>0.0307</uncertainty>
        </time>
        <waveformID networkCode="XX" stationCode="C0902" channelCode="DPZ"></waveformID>
        <phaseHint>P</phaseHint>
      </pick>
      <pick publicID="smi:local/488060d7-5265-4073-bdad-0b95ec3144df">
        <time>
          <value>2020-03-10T07:52:46.854400Z</value>
          <uncertainty>0.0259</uncertainty>
        </time>
        <waveformID networkCode="XX" stationCode="C0902" channelCode="DPN"></waveformID>
        <phaseHint>S</phaseHint>
      </pick>
      <pick publicID="smi:local/c1aba0e7-108c-462b-976b-a120ee41dd39">
        <time>
          <value>2020-03-10T07:52:46.759600Z</value>
          <uncertainty>0.00423</uncertainty>
