<?xml version='1.0' encoding='utf-8'?>
<q:quakeml xmlns="http://quakeml.org/xmlns/bed/1.2" xmlns:q="http://quakeml.org/xmlns/quakeml/1.2">
  <eventParameters publicID="smi:local/59692746-930f-4f2c-a9b1-2c0c20ece1c1">
    <event publicID="smi:local/6142427e-c7e2-4f84-8aa0-b810bbf598b2">
      <preferredOriginID>smi:local/6a1abb54-9f09-4b04-9f46-b114f14ca97e</preferredOriginID>
      <comment>
        <text>CaMI.FRS microseismicity</text>
      </comment>
      <comment id="smi:local/e225adc3-876a-4a4c-be44-5097889415b5">
        <text>eqcorrscan_template_2020_02_18t00_46_54</text>
      </comment>
      <creationInfo>
        <author>Genevieve Savard   obs:./obs_picked5/merged.obs   NLLoc:v7.00.00(27Oct2017)</author>
        <creationTime>2020-09-18T19:50:48.000000Z</creationTime>
      </creationInfo>
      <origin publicID="smi:local/6a1abb54-9f09-4b04-9f46-b114f14ca97e">
        <time>
          <value>2020-02-18T00:46:54.852462Z</value>
        </time>
        <latitude>
          <value>50.448082</value>
          <uncertainty>9.776788203844666e-05</uncertainty>
        </latitude>
        <longitude>
          <value>-112.121846</value>
          <uncertainty>8.962695253051585e-05</uncertainty>
        </longitude>
        <depth>
          <value>0.391</value>
          <uncertainty>1.3705072053805483</uncertainty>
          <confidenceLevel>68.0</confidenceLevel>
        </depth>
        <depthType>from location</depthType>
        <quality>
          <associatedPhaseCount>35</associatedPhaseCount>
          <usedPhaseCount>35</usedPhaseCount>
          <associatedStationCount>-1</associatedStationCount>
          <usedStationCount>31</usedStationCount>
          <depthPhaseCount>-1</depthPhaseCount>
          <standardError>0.0608048</standardError>
          <azimuthalGap>184.6</azimuthalGap>
          <secondaryAzimuthalGap>207.907</secondaryAzimuthalGap>
          <groundTruthLevel>-</groundTruthLevel>
          <minimumDistance>0.0011327135490867596</minimumDistance>
          <maximumDistance>0.007154759879855822</maximumDistance>
          <medianDistance>0.002311760147310452</medianDistance>
        </quality>
        <comment>
          <text>Note: Depth/Latitude/Longitude errors are calculated from covariance matrix as 1D marginal (Lon/Lat errors as great circle degrees) while OriginUncertainty min/max horizontal errors are calculated from 2D error ellipsoid and are therefore seemingly higher compared to 1D errors. Error estimates can be reconstructed from the following original NonLinLoc error statistics line:
STATISTICS ExpectX -0.0822797 Y -0.259128 Z 0.00144803  CovXX 9.93224e-05 XY -3.33015e-05 XZ -6.30539e-08 YY 0.000118185 YZ -1.80009e-06 ZZ 1.87829e-06 EllAz1  200.752 Dip1  -88.9367 Len1  0.00255316 Az2  232.924 Dip2  0.900022 Len2  0.0161798 Len3  2.249727e-02</text>
        </comment>
        <creationInfo>
          <author>Genevieve Savard   obs:./obs_picked5/merged.obs   NLLoc:v7.00.00(27Oct2017)</author>
          <creationTime>2020-09-18T19:50:48.000000Z</creationTime>
        </creationInfo>
        <originUncertainty>
          <preferredDescription>uncertainty ellipse</preferredDescription>
          <minHorizontalUncertainty>13.0586</minHorizontalUncertainty>
          <maxHorizontalUncertainty>18.1587</maxHorizontalUncertainty>
          <azimuthMaxHorizontalUncertainty>142.906</azimuthMaxHorizontalUncertainty>
          <confidenceLevel>68.0</confidenceLevel>
        </originUncertainty>
        <arrival publicID="smi:local/9df5acb7-8d13-4d4d-938d-fa5332013dab">
          <pickID>smi:local/6fad8ba8-e13c-4a05-88bf-f0d6fec77003</pickID>
          <phase>P</phase>
          <azimuth>359.0</azimuth>
          <distance>0.0011331452234576004</distance>
          <takeoffAngle>
            <value>-1.0</value>
          </takeoffAngle>
          <timeResidual>-0.0966</timeResidual>
          <timeWeight>0.691</timeWeight>
        </arrival>
        <arrival publicID="smi:local/e2dfd3d6-ae6c-42d1-bf74-506360bbc63c">
          <pickID>smi:local/5723b4ee-1c37-4d25-848e-9a71b1b88090</pickID>
          <phase>S</phase>
          <azimuth>359.0</azimuth>
          <distance>0.0011331452234576004</distance>
          <takeoffAngle>
            <value>-1.0</value>
          </takeoffAngle>
          <timeResidual>-0.0317</timeResidual>
          <timeWeight>0.4336</timeWeight>
        </arrival>
        <arrival publicID="smi:local/425e79f7-982a-4aa8-b6ab-1047bc406bd3">
          <pickID>smi:local/31ce0624-a2da-4e26-b0a6-1d6b0ccbe5d1</pickID>
          <phase>P</phase>
          <azimuth>359.0</azimuth>
          <distance>0.0014703908256771246</distance>
          <takeoffAngle>
            <value>-1.0</value>
          </takeoffAngle>
          <timeResidual>-0.076</timeResidual>
          <timeWeight>2.2039</timeWeight>
        </arrival>
        <arrival publicID="smi:local/cf06bc2a-ed29-4617-a299-adb6fed88755">
          <pickID>smi:local/4ed826f4-a954-4ba9-b438-7881e66f75f2</pickID>
          <phase>S</phase>
          <azimuth>359.0</azimuth>
          <distance>0.0014703908256771246</distance>
          <takeoffAngle>
            <value>-1.0</value>
          </takeoffAngle>
          <timeResidual>-0.0139</timeResidual>
          <timeWeight>0.7883</timeWeight>
        </arrival>
        <arrival publicID="smi:local/451e7964-de0f-41b8-9e19-81b5b485bf84">
          <pickID>smi:local/d79cd34c-971e-44d4-9f78-31918e9a6592</pickID>
          <phase>P</phase>
          <azimuth>359.0</azimuth>
          <distance>0.0022950687383046</distance>
          <takeoffAngle>
            <value>-1.0</value>
          </takeoffAngle>
          <timeResidual>-0.0923</timeResidual>
          <timeWeight>1.221</timeWeight>
        </arrival>
        <arrival publicID="smi:local/e0201279-651c-4afc-b81e-2c75225287ad">
          <pickID>smi:local/a373d705-5ade-4661-821f-23544d516fbf</pickID>
          <phase>S</phase>
          <azimuth>359.0</azimuth>
          <distance>0.0022950687383046</distance>
          <takeoffAngle>
            <value>-1.0</value>
          </takeoffAngle>
          <timeResidual>-0.1201</timeResidual>
          <timeWeight>0.7346</timeWeight>
        </arrival>
        <arrival publicID="smi:local/8db5258e-cb9e-4ffd-983a-83ff0bd8a877">
          <pickID>smi:local/d4ba22bc-5e81-4e6d-b8f4-3be361cd91bf</pickID>
          <phase>P</phase>
          <azimuth>359.0</azimuth>
          <distance>0.0023121558488170563</distance>
          <takeoffAngle>
            <value>-1.0</value>
          </takeoffAngle>
          <timeResidual>0.0207</timeResidual>
          <timeWeight>1.4054</timeWeight>
        </arrival>
        <arrival publicID="smi:local/e55ac455-43b0-49a1-973d-2cf74cefa47e">
          <pickID>smi:local/5cd1c19f-5ecd-40bb-b801-0354cd62b52d</pickID>
          <phase>P</phase>
          <azimuth>359.0</azimuth>
          <distance>0.0023121558488170563</distance>
          <takeoffAngle>
            <value>-1.0</value>
          </takeoffAngle>
          <timeResidual>0.0355</timeResidual>
          <timeWeight>2.7208</timeWeight>
        </arrival>
        <arrival publicID="smi:local/e95fe7b3-a60f-4e20-aee2-4fcfa684ef6b">
          <pickID>smi:local/3534d98c-45c3-43de-9abe-e49966339969</pickID>
          <phase>P</phase>
          <azimuth>359.0</azimuth>
          <distance>0.0023121558488170563</distance>
          <takeoffAngle>
            <value>-1.0</value>
          </takeoffAngle>
          <timeResidual>0.0384</timeResidual>
          <timeWeight>0.154</timeWeight>
        </arrival>
        <arrival publicID="smi:local/6e244ae5-88c3-4a20-8acf-0e9f7e7a726f">
          <pickID>smi:local/639bbdc3-36d1-4d77-8c80-d8773619fd60</pickID>
          <phase>P</phase>
          <azimuth>359.0</azimuth>
          <distance>0.0023121558488170563</distance>
          <takeoffAngle>
            <value>-1.0</value>
          </takeoffAngle>
          <timeResidual>0.0404</timeResidual>
          <timeWeight>0.154</timeWeight>
        </arrival>
        <arrival publicID="smi:local/66a40429-348b-4df2-be4d-9a0216856c5e">
          <pickID>smi:local/83fa193b-4b94-40a6-9f89-26ac80b98afb</pickID>
          <phase>P</phase>
          <azimuth>359.0</azimuth>
          <distance>0.0023121558488170563</distance>
          <takeoffAngle>
            <value>-1.0</value>
          </takeoffAngle>
          <timeResidual>0.0426</timeResidual>
          <timeWeight>0.154</timeWeight>
        </arrival>
        <arrival publicID="smi:local/7450c6bd-568c-4a16-90c3-09970a99634d">
          <pickID>smi:local/a0301264-80a7-47fd-a47a-6b5efa30269c</pickID>
          <phase>P</phase>
          <azimuth>359.0</azimuth>
          <distance>0.0023121558488170563</distance>
          <takeoffAngle>
            <value>-1.0</value>
          </takeoffAngle>
          <timeResidual>0.0391</timeResidual>
          <timeWeight>3.4093</timeWeight>
        </arrival>
        <arrival publicID="smi:local/3ef2fb4e-68f4-4c59-9faf-1692ad85dac2">
          <pickID>smi:local/f037ad7e-3f9f-45de-b31d-878b06d98f15</pickID>
          <phase>P</phase>
          <azimuth>359.0</azimuth>
          <distance>0.0023121558488170563</distance>
          <takeoffAngle>
            <value>-1.0</value>
          </takeoffAngle>
          <timeResidual>0.0405</timeResidual>
          <timeWeight>3.0306</timeWeight>
        </arrival>
        <arrival publicID="smi:local/deea4174-d5f3-43c2-a927-40c4ea70ad29">
          <pickID>smi:local/fb2a6afe-55e8-443c-9ece-994403f14981</pickID>
          <phase>P</phase>
          <azimuth>359.0</azimuth>
          <distance>0.0023121558488170563</distance>
          <takeoffAngle>
            <value>-1.0</value>
          </takeoffAngle>
          <timeResidual>0.0447</timeResidual>
          <timeWeight>0.154</timeWeight>
        </arrival>
        <arrival publicID="smi:local/d3e52e2d-f602-45f3-a413-a6fa80b67159">
          <pickID>smi:local/83c90c95-a67c-46fd-b7a9-03764758b58c</pickID>
          <phase>P</phase>
          <azimuth>359.0</azimuth>
          <distance>0.0023121558488170563</distance>
          <takeoffAngle>
            <value>-1.0</value>
          </takeoffAngle>
          <timeResidual>0.0439</timeResidual>
          <timeWeight>0.154</timeWeight>
        </arrival>
        <arrival publicID="smi:local/f5ffd463-1aa5-4f34-98bd-47bb1db5d4cb">
          <pickID>smi:local/e2a5b98a-48af-4474-b16d-9c9595b7925a</pickID>
          <phase>P</phase>
          <azimuth>359.0</azimuth>
          <distance>0.0023121558488170563</distance>
          <takeoffAngle>
            <value>-1.0</value>
          </takeoffAngle>
          <timeResidual>0.0466</timeResidual>
          <timeWeight>0.154</timeWeight>
        </arrival>
        <arrival publicID="smi:local/7cb34d17-7f1f-45f7-8c92-e2fdb2870052">
          <pickID>smi:local/cc651fa3-85ab-4adc-a6a5-2cafa2e791f1</pickID>
          <phase>P</phase>
          <azimuth>359.0</azimuth>
          <distance>0.0023121558488170563</distance>
          <takeoffAngle>
            <value>-1.0</value>
          </takeoffAngle>
          <timeResidual>0.0469</timeResidual>
          <timeWeight>0.154</timeWeight>
        </arrival>
        <arrival publicID="smi:local/dd9bf272-366e-4ab4-ac90-7b66f8a7e867">
          <pickID>smi:local/4b71317e-eb7a-4df0-9107-2a50128c9300</pickID>
          <phase>P</phase>
          <azimuth>359.0</azimuth>
          <distance>0.0023121558488170563</distance>
          <takeoffAngle>
            <value>-1.0</value>
          </takeoffAngle>
          <timeResidual>0.0474</timeResidual>
          <timeWeight>0.154</timeWeight>
        </arrival>
        <arrival publicID="smi:local/1d58a48b-6170-4266-805d-1d784c73ca97">
          <pickID>smi:local/a5fbb03a-f408-4718-949a-87f06bca6427</pickID>
          <phase>S</phase>
          <azimuth>359.0</azimuth>
          <distance>0.0023121558488170563</distance>
          <takeoffAngle>
            <value>-1.0</value>
          </takeoffAngle>
          <timeResidual>0.0235</timeResidual>
          <timeWeight>0.9287</timeWeight>
        </arrival>
        <arrival publicID="smi:local/dea14f09-f393-49e8-9f83-e0e0676bd30d">
          <pickID>smi:local/44027026-48f0-4512-9238-92945a5cae3a</pickID>
          <phase>S</phase>
          <azimuth>359.0</azimuth>
          <distance>0.0023121558488170563</distance>
          <takeoffAngle>
            <value>-1.0</value>
          </takeoffAngle>
          <timeResidual>0.0196</timeResidual>
          <timeWeight>0.969</timeWeight>
        </arrival>
        <arrival publicID="smi:local/e85a3e15-dc3d-4196-810a-5737be62f012">
          <pickID>smi:local/91228c14-4020-4f96-90b8-aa35ef6679b0</pickID>
          <phase>S</phase>
          <azimuth>359.0</azimuth>
          <distance>0.0023121558488170563</distance>
          <takeoffAngle>
            <value>-1.0</value>
          </takeoffAngle>
          <timeResidual>0.0202</timeResidual>
          <timeWeight>1.4054</timeWeight>
        </arrival>
        <arrival publicID="smi:local/01aaf925-bfbf-4e9a-937f-c41fc9860507">
          <pickID>smi:local/b85e04d7-4a3c-4980-815b-2d23828dc662</pickID>
          <phase>S</phase>
          <azimuth>359.0</azimuth>
          <distance>0.0023121558488170563</distance>
          <takeoffAngle>
            <value>-1.0</value>
          </takeoffAngle>
          <timeResidual>0.0192</timeResidual>
          <timeWeight>1.4189</timeWeight>
        </arrival>
        <arrival publicID="smi:local/3be25ca0-9a82-415c-a7da-267c3e6bf189">
          <pickID>smi:local/11aab3ae-51ec-48da-bf3e-f370a3cd8cf1</pickID>
          <phase>S</phase>
          <azimuth>359.0</azimuth>
          <distance>0.0023121558488170563</distance>
          <takeoffAngle>
            <value>-1.0</value>
          </takeoffAngle>
          <timeResidual>0.0243</timeResidual>
          <timeWeight>1.6253</timeWeight>
        </arrival>
        <arrival publicID="smi:local/c39f60b2-d765-42b8-98bf-f3f0da458333">
          <pickID>smi:local/868f9a67-fca3-4cc0-b9f3-aee7ab6d27b7</pickID>
          <phase>S</phase>
          <azimuth>359.0</azimuth>
          <distance>0.0023121558488170563</distance>
          <takeoffAngle>
            <value>-1.0</value>
          </takeoffAngle>
          <timeResidual>0.0269</timeResidual>
          <timeWeight>2.3366</timeWeight>
        </arrival>
        <arrival publicID="smi:local/ab851fbc-13e6-4126-b47e-e8b5880ded18">
          <pickID>smi:local/62d55efc-a5ca-47d8-ab39-b1822b756da4</pickID>
          <phase>S</phase>
          <azimuth>359.0</azimuth>
          <distance>0.0023121558488170563</distance>
          <takeoffAngle>
            <value>-1.0</value>
          </takeoffAngle>
          <timeResidual>0.0528</timeResidual>
          <timeWeight>0.154</timeWeight>
        </arrival>
        <arrival publicID="smi:local/c8b67b2f-e3d2-4ed0-adbd-254587f34a4a">
          <pickID>smi:local/9bcf3608-37bc-477e-843b-0bd711b02568</pickID>
          <phase>S</phase>
          <azimuth>359.0</azimuth>
          <distance>0.0023121558488170563</distance>
          <takeoffAngle>
            <value>-1.0</value>
          </takeoffAngle>
          <timeResidual>0.0186</timeResidual>
          <timeWeight>0.6509</timeWeight>
        </arrival>
        <arrival publicID="smi:local/7b69a128-6cfe-4704-9c03-a92d19f564e6">
          <pickID>smi:local/a1e7aaf5-e708-4a92-8e15-a232f3e82a06</pickID>
          <phase>S</phase>
          <azimuth>359.0</azimuth>
          <distance>0.0023121558488170563</distance>
          <takeoffAngle>
            <value>-1.0</value>
          </takeoffAngle>
          <timeResidual>0.0232</timeResidual>
          <timeWeight>1.4054</timeWeight>
        </arrival>
        <arrival publicID="smi:local/62629d9e-b3ec-48f0-bb32-815d449fe7aa">
          <pickID>smi:local/6cd0d88b-0618-4694-8a95-ffb4274fa2fc</pickID>
          <phase>S</phase>
          <azimuth>359.0</azimuth>
          <distance>0.0023121558488170563</distance>
          <takeoffAngle>
            <value>-1.0</value>
          </takeoffAngle>
          <timeResidual>0.0318</timeResidual>
          <timeWeight>1.7416</timeWeight>
        </arrival>
        <arrival publicID="smi:local/1dc468dc-3205-4a92-b133-8583d5a7c102">
          <pickID>smi:local/f5f3e949-7b86-4b56-a639-6a95b7ffe39e</pickID>
          <phase>S</phase>
          <azimuth>359.0</azimuth>
          <distance>0.0023121558488170563</distance>
          <takeoffAngle>
            <value>-1.0</value>
          </takeoffAngle>
          <timeResidual>0.047</timeResidual>
          <timeWeight>0.154</timeWeight>
        </arrival>
        <arrival publicID="smi:local/7956280c-3cc8-432b-ad1c-71b0f24806f3">
          <pickID>smi:local/fd497e9e-8ef5-4e4b-833f-69af81970d86</pickID>
          <phase>S</phase>
          <azimuth>359.0</azimuth>
          <distance>0.0023121558488170563</distance>
          <takeoffAngle>
            <value>-1.0</value>
          </takeoffAngle>
          <timeResidual>0.0323</timeResidual>
          <timeWeight>2.0348</timeWeight>
        </arrival>
        <arrival publicID="smi:local/0512484f-a456-4931-865f-3051e7dda281">
          <pickID>smi:local/08bb2e18-fbf4-436d-a0a3-8ddf70e32158</pickID>
          <phase>P</phase>
          <azimuth>359.0</azimuth>
          <distance>0.0023310416025413496</distance>
          <takeoffAngle>
            <value>-1.0</value>
          </takeoffAngle>
          <timeResidual>-0.136</timeResidual>
          <timeWeight>1.353</timeWeight>
        </arrival>
        <arrival publicID="smi:local/c9eac797-ea78-4884-93d5-6206dea68e12">
          <pickID>smi:local/5376465d-1a24-4985-8792-262eeecc863b</pickID>
          <phase>S</phase>
          <azimuth>359.0</azimuth>
          <distance>0.0023310416025413496</distance>
          <takeoffAngle>
            <value>-1.0</value>
          </takeoffAngle>
          <timeResidual>-0.0729</timeResidual>
          <timeWeight>0.154</timeWeight>
        </arrival>
        <arrival publicID="smi:local/6c8ff4ad-4b45-4e7c-a519-60ddb4163171">
          <pickID>smi:local/c44fd74b-f7ad-470a-afd2-2362a4de63fd</pickID>
          <phase>S</phase>
          <azimuth>359.0</azimuth>
          <distance>0.0030127273798277476</distance>
          <takeoffAngle>
            <value>-1.0</value>
          </takeoffAngle>
          <timeResidual>-0.2071</timeResidual>
          <timeWeight>0.154</timeWeight>
        </arrival>
        <arrival publicID="smi:local/8295a4c4-bc54-4b3d-8fe6-86c49a32ab15">
          <pickID>smi:local/aa0622f0-841f-4a34-a10c-67c1261384d1</pickID>
          <phase>S</phase>
          <azimuth>359.0</azimuth>
          <distance>0.004239402050300896</distance>
          <takeoffAngle>
            <value>-1.0</value>
          </takeoffAngle>
          <timeResidual>-0.2418</timeResidual>
          <timeWeight>0.4895</timeWeight>
        </arrival>
        <arrival publicID="smi:local/65564b6e-7ec3-4f1e-83f3-3687161d4195">
          <pickID>smi:local/c7551466-2283-4b0e-a94c-b4bde04929a8</pickID>
          <phase>S</phase>
          <azimuth>359.0</azimuth>
          <distance>0.00715500269668942</distance>
          <takeoffAngle>
            <value>-1.0</value>
          </takeoffAngle>
          <timeResidual>-0.067</timeResidual>
          <timeWeight>0.154</timeWeight>
        </arrival>
      </origin>
      <pick publicID="smi:local/31ce0624-a2da-4e26-b0a6-1d6b0ccbe5d1">
        <time>
          <value>2020-02-18T00:46:54.899600Z</value>
          <uncertainty>0.00904</uncertainty>
        </time>
        <waveformID networkCode="XX" stationCode="F0203" channelCode="DPZ"></waveformID>
        <phaseHint>P</phaseHint>
      </pick>
      <pick publicID="smi:local/4ed826f4-a954-4ba9-b438-7881e66f75f2">
        <time>
          <value>2020-02-18T00:46:55.160400Z</value>
          <uncertainty>0.0202</uncertainty>
        </time>
