<?xml version='1.0' encoding='utf-8'?>
<q:quakeml xmlns="http://quakeml.org/xmlns/bed/1.2" xmlns:q="http://quakeml.org/xmlns/quakeml/1.2">
  <eventParameters publicID="smi:local/b6e90dcb-bfca-4a34-92e0-ab10f243c5b4">
    <event publicID="smi:local/971bab02-6363-4cea-ad78-f8fd75e0509b">
      <preferredOriginID>smi:local/4515e536-bb50-4390-95ad-9562c67602fd</preferredOriginID>
      <comment>
        <text>CaMI.FRS microseismicity</text>
      </comment>
      <comment id="smi:local/1d01b17c-1bfc-4b69-9d63-4973447aefff">
        <text>eqcorrscan_template_2020_03_10t04_37_35</text>
      </comment>
      <creationInfo>
        <author>Genevieve Savard   obs:./obs_picked4/merged.obs   NLLoc:v7.00.00(27Oct2017)</author>
        <creationTime>2020-08-21T16:05:03.000000Z</creationTime>
      </creationInfo>
      <origin publicID="smi:local/4515e536-bb50-4390-95ad-9562c67602fd">
        <time>
          <value>2020-03-10T04:37:35.596799Z</value>
        </time>
        <latitude>
          <value>50.451872</value>
          <uncertainty>4.444077587391404e-05</uncertainty>
        </latitude>
        <longitude>
          <value>-112.12479</value>
          <uncertainty>6.461799404769647e-05</uncertainty>
        </longitude>
        <depth>
          <value>0.391</value>
          <uncertainty>0.7079286687230572</uncertainty>
          <confidenceLevel>68.0</confidenceLevel>
        </depth>
        <depthType>from location</depthType>
        <quality>
          <associatedPhaseCount>56</associatedPhaseCount>
          <usedPhaseCount>56</usedPhaseCount>
          <associatedStationCount>-1</associatedStationCount>
          <usedStationCount>41</usedStationCount>
          <depthPhaseCount>-1</depthPhaseCount>
          <standardError>0.0649823</standardError>
          <azimuthalGap>135.845</azimuthalGap>
          <secondaryAzimuthalGap>155.79</secondaryAzimuthalGap>
          <groundTruthLevel>-</groundTruthLevel>
          <minimumDistance>0.0008318473044698601</minimumDistance>
          <maximumDistance>0.008627533907788632</maximumDistance>
          <medianDistance>0.0029422115727076596</medianDistance>
        </quality>
        <comment>
          <text>Note: Depth/Latitude/Longitude errors are calculated from covariance matrix as 1D marginal (Lon/Lat errors as great circle degrees) while OriginUncertainty min/max horizontal errors are calculated from 2D error ellipsoid and are therefore seemingly higher compared to 1D errors. Error estimates can be reconstructed from the following original NonLinLoc error statistics line:
STATISTICS ExpectX -0.292635 Y 0.161612 Z 0.000791627  CovXX 5.1627e-05 XY 1.59498e-05 XZ -5.03616e-07 YY 2.44193e-05 YZ -1.49467e-08 ZZ 5.01163e-07 EllAz1  121.609 Dip1  89.18 Len1  0.00132206 Az2  335.238 Dip2  0.682786 Len2  0.00776077 Len3  1.443036e-02</text>
        </comment>
        <creationInfo>
          <author>Genevieve Savard   obs:./obs_picked4/merged.obs   NLLoc:v7.00.00(27Oct2017)</author>
          <creationTime>2020-08-21T16:05:03.000000Z</creationTime>
        </creationInfo>
        <originUncertainty>
          <preferredDescription>uncertainty ellipse</preferredDescription>
          <minHorizontalUncertainty>6.26399</minHorizontalUncertainty>
          <maxHorizontalUncertainty>11.6477</maxHorizontalUncertainty>
          <azimuthMaxHorizontalUncertainty>65.2307</azimuthMaxHorizontalUncertainty>
          <confidenceLevel>68.0</confidenceLevel>
        </originUncertainty>
        <arrival publicID="smi:local/ac9a0bb9-a541-4aa2-bb22-01cb014b855c">
          <pickID>smi:local/39abcd6d-9be9-450d-9342-cfd9de73310a</pickID>
          <phase>P</phase>
          <azimuth>359.0</azimuth>
          <distance>0.0008318724854748257</distance>
          <takeoffAngle>
            <value>-1.0</value>
          </takeoffAngle>
          <timeResidual>-0.0351</timeResidual>
          <timeWeight>1.7997</timeWeight>
        </arrival>
        <arrival publicID="smi:local/48d4b66f-f63d-4be7-98f6-44fbca470c33">
          <pickID>smi:local/0f334c6e-f856-4d09-bef8-dc307dadaff7</pickID>
          <phase>S</phase>
          <azimuth>359.0</azimuth>
          <distance>0.0008318724854748257</distance>
          <takeoffAngle>
            <value>-1.0</value>
          </takeoffAngle>
          <timeResidual>0.0312</timeResidual>
          <timeWeight>0.8053</timeWeight>
        </arrival>
        <arrival publicID="smi:local/10efa202-e34a-40cb-9ffd-f5167bcfd177">
          <pickID>smi:local/9276587a-e9d7-4239-b2b8-f60193e9c470</pickID>
          <phase>P</phase>
          <azimuth>359.0</azimuth>
          <distance>0.0012509563538329542</distance>
          <takeoffAngle>
            <value>-1.0</value>
          </takeoffAngle>
          <timeResidual>-0.0519</timeResidual>
          <timeWeight>1.4025</timeWeight>
        </arrival>
        <arrival publicID="smi:local/589bbc72-134b-477e-aeb7-c6311041d7b8">
          <pickID>smi:local/39d0aa7a-8e44-410c-985f-c7784cac37ba</pickID>
          <phase>S</phase>
          <azimuth>359.0</azimuth>
          <distance>0.0012509563538329542</distance>
          <takeoffAngle>
            <value>-1.0</value>
          </takeoffAngle>
          <timeResidual>0.0298</timeResidual>
          <timeWeight>0.705</timeWeight>
        </arrival>
        <arrival publicID="smi:local/16d00821-31f5-48e9-9cd0-3d8c22721798">
          <pickID>smi:local/699f2aa5-883e-4f1b-981a-a30e95be5a62</pickID>
          <phase>P</phase>
          <azimuth>359.0</azimuth>
          <distance>0.0017437845938764185</distance>
          <takeoffAngle>
            <value>-1.0</value>
          </takeoffAngle>
          <timeResidual>-0.0342</timeResidual>
          <timeWeight>1.6466</timeWeight>
        </arrival>
        <arrival publicID="smi:local/349e9d44-13e8-48c2-996a-3b8e4b6ef02b">
          <pickID>smi:local/5bb4e696-5168-4119-b649-4490315d89fd</pickID>
          <phase>S</phase>
          <azimuth>359.0</azimuth>
          <distance>0.0017437845938764185</distance>
          <takeoffAngle>
            <value>-1.0</value>
          </takeoffAngle>
          <timeResidual>0.0117</timeResidual>
          <timeWeight>1.1988</timeWeight>
        </arrival>
        <arrival publicID="smi:local/4261d751-1e2b-40f3-a62b-6edd25a604cb">
          <pickID>smi:local/d21ae22c-6727-417c-8381-e383fb6e4756</pickID>
          <phase>P</phase>
          <azimuth>359.0</azimuth>
          <distance>0.002901211500693825</distance>
          <takeoffAngle>
            <value>-1.0</value>
          </takeoffAngle>
          <timeResidual>0.0435</timeResidual>
          <timeWeight>1.313</timeWeight>
        </arrival>
        <arrival publicID="smi:local/d755c040-8cd2-4b1f-9c3d-1b4505475cad">
          <pickID>smi:local/c9583bc7-094a-4623-ad6b-c50ef6cf3522</pickID>
          <phase>S</phase>
          <azimuth>359.0</azimuth>
          <distance>0.002901211500693825</distance>
          <takeoffAngle>
            <value>-1.0</value>
          </takeoffAngle>
          <timeResidual>0.0363</timeResidual>
          <timeWeight>0.3477</timeWeight>
        </arrival>
        <arrival publicID="smi:local/85aad352-edce-4427-8e8c-f98da10c2c4b">
          <pickID>smi:local/fd01586b-475b-4973-92cf-d5a5f6993c81</pickID>
          <phase>P</phase>
          <azimuth>359.0</azimuth>
          <distance>0.002933587078506899</distance>
          <takeoffAngle>
            <value>-1.0</value>
          </takeoffAngle>
          <timeResidual>-0.0515</timeResidual>
          <timeWeight>0.8619</timeWeight>
        </arrival>
        <arrival publicID="smi:local/e99611cf-ec76-4420-a98e-5afbdedfd287">
          <pickID>smi:local/04005ff4-dd83-461b-8d0d-8b1f181e5ab3</pickID>
          <phase>S</phase>
          <azimuth>359.0</azimuth>
          <distance>0.002933587078506899</distance>
          <takeoffAngle>
            <value>-1.0</value>
          </takeoffAngle>
          <timeResidual>-0.1108</timeResidual>
          <timeWeight>0.3038</timeWeight>
        </arrival>
        <arrival publicID="smi:local/be01df02-da3a-4d29-8ba0-7aac73ff7d2c">
          <pickID>smi:local/5c84bc6b-c02e-45fa-b318-7c8729a46157</pickID>
          <phase>P</phase>
          <azimuth>359.0</azimuth>
          <distance>0.002937184364930574</distance>
          <takeoffAngle>
            <value>-1.0</value>
          </takeoffAngle>
          <timeResidual>-0.0772</timeResidual>
          <timeWeight>0.9897</timeWeight>
        </arrival>
        <arrival publicID="smi:local/0159134d-0280-4414-aef6-60a2480ec55a">
          <pickID>smi:local/d272663a-357f-45ce-b1c1-3c1fc5cd5a34</pickID>
          <phase>S</phase>
          <azimuth>359.0</azimuth>
          <distance>0.002937184364930574</distance>
          <takeoffAngle>
            <value>-1.0</value>
          </takeoffAngle>
          <timeResidual>-0.0893</timeResidual>
          <timeWeight>0.3059</timeWeight>
        </arrival>
        <arrival publicID="smi:local/2d5e6cee-8f93-4395-beac-3e75f4b3e8c0">
          <pickID>smi:local/66f19417-4ab0-4cab-bb1a-5664130dd7c4</pickID>
          <phase>P</phase>
          <azimuth>359.0</azimuth>
          <distance>0.002942580294566086</distance>
          <takeoffAngle>
            <value>-1.0</value>
          </takeoffAngle>
          <timeResidual>0.0368</timeResidual>
          <timeWeight>1.416</timeWeight>
        </arrival>
        <arrival publicID="smi:local/f408bcd6-fe03-46f4-9f3c-6b1d3b110837">
          <pickID>smi:local/cd04e14d-21c7-4cd9-8377-cc846435c988</pickID>
          <phase>P</phase>
          <azimuth>359.0</azimuth>
          <distance>0.002942580294566086</distance>
          <takeoffAngle>
            <value>-1.0</value>
          </takeoffAngle>
          <timeResidual>0.0433</timeResidual>
          <timeWeight>1.416</timeWeight>
        </arrival>
        <arrival publicID="smi:local/e5182f03-d6ae-477e-b9dd-60693b2247e8">
          <pickID>smi:local/1215410b-4502-431b-a16b-61859897a28b</pickID>
          <phase>P</phase>
          <azimuth>359.0</azimuth>
          <distance>0.002942580294566086</distance>
          <takeoffAngle>
            <value>-1.0</value>
          </takeoffAngle>
          <timeResidual>0.0392</timeResidual>
          <timeWeight>1.5728</timeWeight>
        </arrival>
        <arrival publicID="smi:local/d823b060-bc63-4174-a45d-430cdb6ff7d3">
          <pickID>smi:local/d093230f-ffdd-4397-8464-fe143babdf86</pickID>
          <phase>P</phase>
          <azimuth>359.0</azimuth>
          <distance>0.002942580294566086</distance>
          <takeoffAngle>
            <value>-1.0</value>
          </takeoffAngle>
          <timeResidual>0.0443</timeResidual>
          <timeWeight>1.6281</timeWeight>
        </arrival>
        <arrival publicID="smi:local/f3e16593-ca4e-458e-a576-834d29648247">
          <pickID>smi:local/22ece416-4c47-407e-af71-dd73e3c3e488</pickID>
          <phase>P</phase>
          <azimuth>359.0</azimuth>
          <distance>0.002942580294566086</distance>
          <takeoffAngle>
            <value>-1.0</value>
          </takeoffAngle>
          <timeResidual>0.0505</timeResidual>
          <timeWeight>1.9594</timeWeight>
        </arrival>
        <arrival publicID="smi:local/42e15e2b-b0b8-48b3-beda-24a21ad60bda">
          <pickID>smi:local/a3022743-b8c4-45a9-a5a8-c7c8f7be767f</pickID>
          <phase>P</phase>
          <azimuth>359.0</azimuth>
          <distance>0.002942580294566086</distance>
          <takeoffAngle>
            <value>-1.0</value>
          </takeoffAngle>
          <timeResidual>0.0542</timeResidual>
          <timeWeight>2.024</timeWeight>
        </arrival>
        <arrival publicID="smi:local/540e8597-df2f-420a-8344-b75c866129f5">
          <pickID>smi:local/c9ba3f8c-8af1-4923-ba9d-7487596ab570</pickID>
          <phase>P</phase>
          <azimuth>359.0</azimuth>
          <distance>0.002942580294566086</distance>
          <takeoffAngle>
            <value>-1.0</value>
          </takeoffAngle>
          <timeResidual>0.0554</timeResidual>
          <timeWeight>1.6537</timeWeight>
        </arrival>
        <arrival publicID="smi:local/9eec3917-5f16-4b08-822f-868da82eba93">
          <pickID>smi:local/488c931f-7b69-4bc4-b56c-55ce136fa708</pickID>
          <phase>P</phase>
          <azimuth>359.0</azimuth>
          <distance>0.002942580294566086</distance>
          <takeoffAngle>
            <value>-1.0</value>
          </takeoffAngle>
          <timeResidual>0.0524</timeResidual>
          <timeWeight>1.6537</timeWeight>
        </arrival>
        <arrival publicID="smi:local/6380a4c1-328b-4f55-9a8e-f0970901160d">
          <pickID>smi:local/d5e16a00-38ab-440f-8428-8cd364f08c5d</pickID>
          <phase>P</phase>
          <azimuth>359.0</azimuth>
          <distance>0.002942580294566086</distance>
          <takeoffAngle>
            <value>-1.0</value>
          </takeoffAngle>
          <timeResidual>0.0551</timeResidual>
          <timeWeight>1.6537</timeWeight>
        </arrival>
        <arrival publicID="smi:local/f897db72-36cf-41bf-9b4c-94d28f904b07">
          <pickID>smi:local/a52f7aa5-4c10-4e57-b997-b935fdf28d47</pickID>
          <phase>P</phase>
          <azimuth>359.0</azimuth>
          <distance>0.002942580294566086</distance>
          <takeoffAngle>
            <value>-1.0</value>
          </takeoffAngle>
          <timeResidual>0.0561</timeResidual>
          <timeWeight>1.5728</timeWeight>
        </arrival>
        <arrival publicID="smi:local/8da659fd-e99f-4127-9e1a-e1fbcb8c3638">
          <pickID>smi:local/a2180b16-b000-4193-ba89-7119927c50c5</pickID>
          <phase>P</phase>
          <azimuth>359.0</azimuth>
          <distance>0.002942580294566086</distance>
          <takeoffAngle>
            <value>-1.0</value>
          </takeoffAngle>
          <timeResidual>0.0555</timeResidual>
          <timeWeight>1.416</timeWeight>
        </arrival>
        <arrival publicID="smi:local/63d6c5bd-4727-4c60-bbb9-469e5e2d0d00">
          <pickID>smi:local/84767821-91b8-4067-8a99-ab9262d2e72d</pickID>
          <phase>P</phase>
          <azimuth>359.0</azimuth>
          <distance>0.002942580294566086</distance>
          <takeoffAngle>
            <value>-1.0</value>
          </takeoffAngle>
          <timeResidual>0.0595</timeResidual>
          <timeWeight>1.8134</timeWeight>
        </arrival>
        <arrival publicID="smi:local/8b2dfbfa-ca51-41b6-97e4-d85c590e4dd7">
          <pickID>smi:local/9907a5a5-6ee0-45d5-bb7e-9a330ec59ee7</pickID>
          <phase>S</phase>
          <azimuth>359.0</azimuth>
          <distance>0.002942580294566086</distance>
          <takeoffAngle>
            <value>-1.0</value>
          </takeoffAngle>
          <timeResidual>0.0443</timeResidual>
          <timeWeight>0.7675</timeWeight>
        </arrival>
        <arrival publicID="smi:local/f9eb941b-48c7-479d-bc40-a71c44086798">
          <pickID>smi:local/7897aefd-3a5d-4f09-920a-321dc3a8b315</pickID>
          <phase>S</phase>
          <azimuth>359.0</azimuth>
          <distance>0.002942580294566086</distance>
          <takeoffAngle>
            <value>-1.0</value>
          </takeoffAngle>
          <timeResidual>0.0382</timeResidual>
          <timeWeight>0.8535</timeWeight>
        </arrival>
        <arrival publicID="smi:local/4102b27a-7913-45b2-80a8-9dd320d3431c">
          <pickID>smi:local/eefd7a86-193d-4b0f-8a0a-172c9fffbe2f</pickID>
          <phase>S</phase>
          <azimuth>359.0</azimuth>
          <distance>0.002942580294566086</distance>
          <takeoffAngle>
            <value>-1.0</value>
          </takeoffAngle>
          <timeResidual>0.0409</timeResidual>
          <timeWeight>0.8053</timeWeight>
        </arrival>
        <arrival publicID="smi:local/b4d0fc66-83eb-424c-a1e4-d07f9b21b7d1">
          <pickID>smi:local/2d2c22da-e73f-4ce4-b8cc-649bb2b86275</pickID>
          <phase>S</phase>
          <azimuth>359.0</azimuth>
          <distance>0.002942580294566086</distance>
          <takeoffAngle>
            <value>-1.0</value>
          </takeoffAngle>
          <timeResidual>0.0439</timeResidual>
          <timeWeight>0.879</timeWeight>
        </arrival>
        <arrival publicID="smi:local/31d00432-d7b9-4965-9c07-30b809307a62">
          <pickID>smi:local/2538e889-0f4b-4045-adc8-4d217a2c36e9</pickID>
          <phase>S</phase>
          <azimuth>359.0</azimuth>
          <distance>0.002942580294566086</distance>
          <takeoffAngle>
            <value>-1.0</value>
          </takeoffAngle>
          <timeResidual>0.0346</timeResidual>
          <timeWeight>1.1976</timeWeight>
        </arrival>
        <arrival publicID="smi:local/8824f15c-d504-4dba-bf7f-4f9e6bfbe6a2">
          <pickID>smi:local/a29273e9-021b-4171-ab1a-bff4b1c2a3cf</pickID>
          <phase>S</phase>
          <azimuth>359.0</azimuth>
          <distance>0.002942580294566086</distance>
          <takeoffAngle>
            <value>-1.0</value>
          </takeoffAngle>
          <timeResidual>0.0566</timeResidual>
          <timeWeight>1.3402</timeWeight>
        </arrival>
        <arrival publicID="smi:local/cceded85-c60a-4434-9b85-aa5b5f7b9285">
          <pickID>smi:local/9162a337-c1ed-4bb5-8a3c-b6d213dc952e</pickID>
          <phase>S</phase>
          <azimuth>359.0</azimuth>
          <distance>0.002942580294566086</distance>
          <takeoffAngle>
            <value>-1.0</value>
          </takeoffAngle>
          <timeResidual>0.037</timeResidual>
          <timeWeight>0.4629</timeWeight>
        </arrival>
        <arrival publicID="smi:local/f51d8bf1-b7cb-45c5-b006-4f5abdedaceb">
          <pickID>smi:local/fc68ffc6-313b-41d8-8402-63f1bdf97fa4</pickID>
          <phase>S</phase>
          <azimuth>359.0</azimuth>
          <distance>0.002942580294566086</distance>
          <takeoffAngle>
            <value>-1.0</value>
          </takeoffAngle>
          <timeResidual>0.0455</timeResidual>
          <timeWeight>0.8535</timeWeight>
        </arrival>
        <arrival publicID="smi:local/de12c3ea-4ded-4cc2-b2b2-50223e5c9e8f">
          <pickID>smi:local/2c2f05ef-a2b1-4140-aa4d-66be2db05b54</pickID>
          <phase>S</phase>
          <azimuth>359.0</azimuth>
          <distance>0.002942580294566086</distance>
          <takeoffAngle>
            <value>-1.0</value>
          </takeoffAngle>
          <timeResidual>0.0359</timeResidual>
          <timeWeight>0.7675</timeWeight>
        </arrival>
        <arrival publicID="smi:local/e0503506-b07b-4faa-b0cb-b16ab79ae88f">
          <pickID>smi:local/65e29565-4a9d-4ca1-8bf8-6057b969745b</pickID>
          <phase>S</phase>
          <azimuth>359.0</azimuth>
          <distance>0.002942580294566086</distance>
          <takeoffAngle>
            <value>-1.0</value>
          </takeoffAngle>
          <timeResidual>0.0344</timeResidual>
          <timeWeight>1.0719</timeWeight>
        </arrival>
        <arrival publicID="smi:local/ec9c6589-2242-43d7-89d3-52552fc11646">
          <pickID>smi:local/33cff0dd-5d5b-45ad-af6f-f273a41ba86d</pickID>
          <phase>S</phase>
          <azimuth>359.0</azimuth>
          <distance>0.002942580294566086</distance>
          <takeoffAngle>
            <value>-1.0</value>
          </takeoffAngle>
          <timeResidual>0.0499</timeResidual>
          <timeWeight>1.1314</timeWeight>
        </arrival>
        <arrival publicID="smi:local/05ed03d9-15c0-438b-86bd-902726d2e8b7">
          <pickID>smi:local/5f4728fe-14f7-4bd4-834e-759735623005</pickID>
          <phase>S</phase>
          <azimuth>359.0</azimuth>
          <distance>0.002942580294566086</distance>
          <takeoffAngle>
            <value>-1.0</value>
          </takeoffAngle>
          <timeResidual>0.0526</timeResidual>
          <timeWeight>1.0719</timeWeight>
        </arrival>
        <arrival publicID="smi:local/8ad580f6-d27a-40cd-a939-df59077460d1">
          <pickID>smi:local/bb5bbec1-e482-458d-9c35-8e4cc159a923</pickID>
