<?xml version='1.0' encoding='utf-8'?>
<q:quakeml xmlns="http://quakeml.org/xmlns/bed/1.2" xmlns:q="http://quakeml.org/xmlns/quakeml/1.2">
  <eventParameters publicID="smi:local/6f0ac136-f351-471f-a0f6-26b7db74ea64">
    <event publicID="smi:local/0820433a-5595-4b0a-8df9-39f361a6c33f">
      <preferredOriginID>smi:local/ead58998-8367-451e-95e1-d2ef9b1ec459</preferredOriginID>
      <comment>
        <text>CaMI.FRS microseismicity</text>
      </comment>
      <comment id="smi:local/d27823ab-5cbf-4a17-bcf5-d09145da812d">
        <text>eqcorrscan_template_2020_03_10t07_27_10</text>
      </comment>
      <creationInfo>
        <author>Genevieve Savard   obs:./obs_picked1/merged.obs   NLLoc:v7.00.00(27Oct2017)</author>
        <creationTime>2020-08-21T16:08:44.000000Z</creationTime>
      </creationInfo>
      <origin publicID="smi:local/ead58998-8367-451e-95e1-d2ef9b1ec459">
        <time>
          <value>2020-03-10T07:27:10.715167Z</value>
        </time>
        <latitude>
          <value>50.451851</value>
          <uncertainty>0.00015288969854432483</uncertainty>
        </latitude>
        <longitude>
          <value>-112.123335</value>
          <uncertainty>0.00016478924299526165</uncertainty>
        </longitude>
        <depth>
          <value>80.078</value>
          <uncertainty>10.774228510663768</uncertainty>
          <confidenceLevel>68.0</confidenceLevel>
        </depth>
        <depthType>from location</depthType>
        <quality>
          <associatedPhaseCount>14</associatedPhaseCount>
          <usedPhaseCount>14</usedPhaseCount>
          <associatedStationCount>-1</associatedStationCount>
          <usedStationCount>14</usedStationCount>
          <depthPhaseCount>-1</depthPhaseCount>
          <standardError>0.225812</standardError>
          <azimuthalGap>145.363</azimuthalGap>
          <secondaryAzimuthalGap>176.295</secondaryAzimuthalGap>
          <groundTruthLevel>-</groundTruthLevel>
          <minimumDistance>0.00033507463986283615</minimumDistance>
          <maximumDistance>0.004109522023974113</maximumDistance>
          <medianDistance>0.0022662454808349054</medianDistance>
        </quality>
        <comment>
          <text>Note: Depth/Latitude/Longitude errors are calculated from covariance matrix as 1D marginal (Lon/Lat errors as great circle degrees) while OriginUncertainty min/max horizontal errors are calculated from 2D error ellipsoid and are therefore seemingly higher compared to 1D errors. Error estimates can be reconstructed from the following original NonLinLoc error statistics line:
STATISTICS ExpectX -0.169794 Y 0.170718 Z 0.0728336  CovXX 0.000335759 XY 0.000207162 XZ -5.9679e-05 YY 0.000289019 YZ 1.27256e-05 ZZ 0.000116084 EllAz1  134.16 Dip1  42.2144 Len1  0.014446 Az2  324.394 Dip2  47.328 Len2  0.0235906 Len3  4.301210e-02</text>
        </comment>
        <creationInfo>
          <author>Genevieve Savard   obs:./obs_picked1/merged.obs   NLLoc:v7.00.00(27Oct2017)</author>
          <creationTime>2020-08-21T16:08:44.000000Z</creationTime>
        </creationInfo>
        <originUncertainty>
          <preferredDescription>uncertainty ellipse</preferredDescription>
          <minHorizontalUncertainty>15.4596</minHorizontalUncertainty>
          <maxHorizontalUncertainty>34.611999999999995</maxHorizontalUncertainty>
          <azimuthMaxHorizontalUncertainty>48.2182</azimuthMaxHorizontalUncertainty>
          <confidenceLevel>68.0</confidenceLevel>
        </originUncertainty>
        <arrival publicID="smi:local/f25e4f0a-f072-4821-ae29-379f9d09eb15">
          <pickID>smi:local/df920858-becf-40e5-8263-5f6cb309fbaa</pickID>
          <phase>S</phase>
          <azimuth>359.0</azimuth>
          <distance>0.0003354469590076865</distance>
          <takeoffAngle>
            <value>-1.0</value>
          </takeoffAngle>
          <timeResidual>-0.1118</timeResidual>
          <timeWeight>2.6412</timeWeight>
        </arrival>
        <arrival publicID="smi:local/ff17d8b4-fb4d-4573-8911-c858280d01d3">
          <pickID>smi:local/a7e9fa2b-02bb-4008-bb63-3fc1cd6fa27c</pickID>
          <phase>S</phase>
          <azimuth>359.0</azimuth>
          <distance>0.0009802605504514164</distance>
          <takeoffAngle>
            <value>-1.0</value>
          </takeoffAngle>
          <timeResidual>0.1359</timeResidual>
          <timeWeight>0.464</timeWeight>
        </arrival>
        <arrival publicID="smi:local/fd64e53f-e763-4b60-891c-943f784f093c">
          <pickID>smi:local/0bd5da85-c034-4be1-9e5b-b382aedd0e67</pickID>
          <phase>S</phase>
          <azimuth>359.0</azimuth>
          <distance>0.0017716635636598993</distance>
          <takeoffAngle>
            <value>-1.0</value>
          </takeoffAngle>
          <timeResidual>-0.1774</timeResidual>
          <timeWeight>1.3509</timeWeight>
        </arrival>
        <arrival publicID="smi:local/8bcb39ba-9ac6-4dfe-94b5-5066f4965b67">
          <pickID>smi:local/edebedc7-95b4-4c4c-be65-657d56cded59</pickID>
          <phase>S</phase>
          <azimuth>359.0</azimuth>
          <distance>0.0020234736133171436</distance>
          <takeoffAngle>
            <value>-1.0</value>
          </takeoffAngle>
          <timeResidual>0.8936</timeResidual>
          <timeWeight>0.7325</timeWeight>
        </arrival>
        <arrival publicID="smi:local/0c305085-ea4e-453f-8c05-c0e53f615ce3">
          <pickID>smi:local/3ff80b92-eea5-4331-8840-2b022524a350</pickID>
          <phase>S</phase>
          <azimuth>359.0</azimuth>
          <distance>0.00219614336165354</distance>
          <takeoffAngle>
            <value>-1.0</value>
          </takeoffAngle>
          <timeResidual>-0.0968</timeResidual>
          <timeWeight>0.487</timeWeight>
        </arrival>
        <arrival publicID="smi:local/d09595cb-defe-4c75-a9bf-c1bde7925e24">
          <pickID>smi:local/77608430-80d8-4cc1-9baf-a73805d08103</pickID>
          <phase>S</phase>
          <azimuth>359.0</azimuth>
          <distance>0.002222223688225183</distance>
          <takeoffAngle>
            <value>-1.0</value>
          </takeoffAngle>
          <timeResidual>0.1027</timeResidual>
          <timeWeight>0.7325</timeWeight>
        </arrival>
        <arrival publicID="smi:local/45718c98-74d6-4755-94cd-d6a69d8f0188">
          <pickID>smi:local/8ea888a9-8ee9-4c97-a925-c99f92c81b2d</pickID>
          <phase>S</phase>
          <azimuth>359.0</azimuth>
          <distance>0.0022429080851613143</distance>
          <takeoffAngle>
            <value>-1.0</value>
          </takeoffAngle>
          <timeResidual>0.1218</timeResidual>
          <timeWeight>0.9366</timeWeight>
        </arrival>
        <arrival publicID="smi:local/995b1e3c-ea9f-4b20-8914-aba314020098">
          <pickID>smi:local/218817ca-bf48-4fe8-92f7-14272f88ddd0</pickID>
          <phase>S</phase>
          <azimuth>359.0</azimuth>
          <distance>0.002289672808669088</distance>
          <takeoffAngle>
            <value>-1.0</value>
          </takeoffAngle>
          <timeResidual>-0.0961</timeResidual>
          <timeWeight>0.487</timeWeight>
        </arrival>
        <arrival publicID="smi:local/2f78f6c0-d013-44fd-9e48-3a83f00f9363">
          <pickID>smi:local/f4fe2fa8-05cc-417b-b96a-cbdb23ae2dc0</pickID>
          <phase>S</phase>
          <azimuth>359.0</azimuth>
          <distance>0.0024056852958326044</distance>
          <takeoffAngle>
            <value>-1.0</value>
          </takeoffAngle>
          <timeResidual>-0.072</timeResidual>
          <timeWeight>1.0806</timeWeight>
        </arrival>
        <arrival publicID="smi:local/911badc5-9f19-461f-ba6e-e3c303666844">
          <pickID>smi:local/47e26fe3-3ba7-4fc2-81ba-19c9124b2b51</pickID>
          <phase>S</phase>
          <azimuth>359.0</azimuth>
          <distance>0.0026547973806720928</distance>
          <takeoffAngle>
            <value>-1.0</value>
          </takeoffAngle>
          <timeResidual>-0.0434</timeResidual>
          <timeWeight>2.276</timeWeight>
        </arrival>
        <arrival publicID="smi:local/3045cae5-acc5-4cbc-be24-cbcbd0932036">
          <pickID>smi:local/e502696a-159a-4e60-b84e-7d121935ce14</pickID>
          <phase>S</phase>
          <azimuth>359.0</azimuth>
          <distance>0.0028211718777670573</distance>
          <takeoffAngle>
            <value>-1.0</value>
          </takeoffAngle>
          <timeResidual>-0.0567</timeResidual>
          <timeWeight>0.5981</timeWeight>
        </arrival>
        <arrival publicID="smi:local/b8caf06b-c5db-4d52-93cb-f388d9d53078">
          <pickID>smi:local/ce198e0a-a3e3-4599-85a0-23e8534f8130</pickID>
          <phase>S</phase>
          <azimuth>359.0</azimuth>
          <distance>0.003008230771798154</distance>
          <takeoffAngle>
            <value>-1.0</value>
          </takeoffAngle>
          <timeResidual>-0.0279</timeResidual>
          <timeWeight>0.6875</timeWeight>
        </arrival>
        <arrival publicID="smi:local/cda487b5-9d61-40e0-b54f-702fb947f3cd">
          <pickID>smi:local/c62abb10-cafa-48f2-bf5e-dadcdfd910e6</pickID>
          <phase>S</phase>
          <azimuth>359.0</azimuth>
          <distance>0.00398129674940222</distance>
          <takeoffAngle>
            <value>-1.0</value>
          </takeoffAngle>
          <timeResidual>-0.0081</timeResidual>
          <timeWeight>0.413</timeWeight>
        </arrival>
        <arrival publicID="smi:local/723ea493-8e50-411c-bf26-8077c3548fae">
          <pickID>smi:local/760478d3-cd74-412d-8090-31ea5cad6a3f</pickID>
          <phase>S</phase>
          <azimuth>359.0</azimuth>
          <distance>0.0041098997390485986</distance>
          <takeoffAngle>
            <value>-1.0</value>
          </takeoffAngle>
          <timeResidual>-0.0405</timeResidual>
          <timeWeight>1.1132</timeWeight>
        </arrival>
      </origin>
      <pick publicID="smi:local/77608430-80d8-4cc1-9baf-a73805d08103">
        <time>
          <value>2020-03-10T07:27:11.255400Z</value>
          <uncertainty>0.0378</uncertainty>
        </time>
        <waveformID networkCode="XX" stationCode="C0202" channelCode="DPN"></waveformID>
        <phaseHint>S</phaseHint>
      </pick>
      <pick publicID="smi:local/760478d3-cd74-412d-8090-31ea5cad6a3f">
        <time>
          <value>2020-03-10T07:27:11.279500Z</value>
          <uncertainty>0.0301</uncertainty>
        </time>
        <waveformID networkCode="XX" stationCode="F0604" channelCode="DPN"></waveformID>
        <phaseHint>S</phaseHint>
      </pick>
      <pick publicID="smi:local/3ff80b92-eea5-4331-8840-2b022524a350">
        <time>
          <value>2020-03-10T07:27:11.051700Z</value>
          <uncertainty>0.0469</uncertainty>
        </time>
        <waveformID networkCode="XX" stationCode="C0404" channelCode="DPN"></waveformID>
        <phaseHint>S</phaseHint>
      </pick>
      <pick publicID="smi:local/8ea888a9-8ee9-4c97-a925-c99f92c81b2d">
        <time>
          <value>2020-03-10T07:27:11.276500Z</value>
          <uncertainty>0.0331</uncertainty>
        </time>
        <waveformID networkCode="XX" stationCode="F0109" channelCode="DPE"></waveformID>
        <phaseHint>S</phaseHint>
      </pick>
      <pick publicID="smi:local/ce198e0a-a3e3-4599-85a0-23e8534f8130">
        <time>
          <value>2020-03-10T07:27:11.192300Z</value>
          <uncertainty>0.0391</uncertainty>
        </time>
        <waveformID networkCode="XX" stationCode="F0607" channelCode="DPE"></waveformID>
        <phaseHint>S</phaseHint>
      </pick>
      <pick publicID="smi:local/c62abb10-cafa-48f2-bf5e-dadcdfd910e6">
        <time>
          <value>2020-03-10T07:27:11.300500Z</value>
          <uncertainty>0.0511</uncertainty>
        </time>
        <waveformID networkCode="XX" stationCode="F0708" channelCode="DPZ"></waveformID>
        <phaseHint>S</phaseHint>
      </pick>
      <pick publicID="smi:local/edebedc7-95b4-4c4c-be65-657d56cded59">
        <time>
          <value>2020-03-10T07:27:12.015900Z</value>
          <uncertainty>0.0378</uncertainty>
        </time>
        <waveformID networkCode="XX" stationCode="C0407" channelCode="DPN"></waveformID>
        <phaseHint>S</phaseHint>
      </pick>
      <pick publicID="smi:local/0bd5da85-c034-4be1-9e5b-b382aedd0e67">
        <time>
          <value>2020-03-10T07:27:10.902200Z</value>
          <uncertainty>0.027</uncertainty>
        </time>
        <waveformID networkCode="XX" stationCode="C0209" channelCode="DPN"></waveformID>
        <phaseHint>S</phaseHint>
      </pick>
      <pick publicID="smi:local/47e26fe3-3ba7-4fc2-81ba-19c9124b2b51">
        <time>
          <value>2020-03-10T07:27:11.147300Z</value>
          <uncertainty>0.0198</uncertainty>
        </time>
        <waveformID networkCode="XX" stationCode="C0902" channelCode="DPN"></waveformID>
        <phaseHint>S</phaseHint>
      </pick>
      <pick publicID="smi:local/f4fe2fa8-05cc-417b-b96a-cbdb23ae2dc0">
        <time>
          <value>2020-03-10T07:27:11.096800Z</value>
          <uncertainty>0.0306</uncertainty>
        </time>
        <waveformID networkCode="XX" stationCode="C0704" channelCode="DPZ"></waveformID>
        <phaseHint>S</phaseHint>
      </pick>
      <pick publicID="smi:local/e502696a-159a-4e60-b84e-7d121935ce14">
        <time>
          <value>2020-03-10T07:27:11.147200Z</value>
          <uncertainty>0.0421</uncertainty>
        </time>
        <waveformID networkCode="XX" stationCode="F0304" channelCode="DPN"></waveformID>
        <phaseHint>S</phaseHint>
      </pick>
      <pick publicID="smi:local/df920858-becf-40e5-8263-5f6cb309fbaa">
        <time>
          <value>2020-03-10T07:27:10.762500Z</value>
          <uncertainty>0.018</uncertainty>
        </time>
        <waveformID networkCode="XX" stationCode="F0307" channelCode="DPE"></waveformID>
        <phaseHint>S</phaseHint>
      </pick>
      <pick publicID="smi:local/a7e9fa2b-02bb-4008-bb63-3fc1cd6fa27c">
        <time>
          <value>2020-03-10T07:27:11.087100Z</value>
          <uncertainty>0.0481</uncertainty>
        </time>
        <waveformID networkCode="XX" stationCode="F0208" channelCode="DPE"></waveformID>
        <phaseHint>S</phaseHint>
      </pick>
      <pick publicID="smi:local/218817ca-bf48-4fe8-92f7-14272f88ddd0">
        <time>
          <value>2020-03-10T07:27:11.062600Z</value>
          <uncertainty>0.0469</uncertainty>
        </time>
        <waveformID networkCode="XX" stationCode="C0909" channelCode="DPN"></waveformID>
        <phaseHint>S</phaseHint>
      </pick>
    </event>
  </eventParameters>
</q:quakeml>
