<?xml version='1.0' encoding='utf-8'?>
<q:quakeml xmlns="http://quakeml.org/xmlns/bed/1.2" xmlns:q="http://quakeml.org/xmlns/quakeml/1.2">
  <eventParameters publicID="smi:local/a9be98b2-a78d-41f9-a3af-22ec26faebb0">
    <event publicID="smi:local/3363d161-b67c-4bde-9e93-2595b7f02617">
      <preferredOriginID>smi:local/d456b878-c3d9-47b4-8598-4c49c52077f7</preferredOriginID>
      <comment>
        <text>CaMI.FRS microseismicity</text>
      </comment>
      <comment id="smi:local/c22ee44a-da85-4263-942b-862b83ecf811">
        <text>eqcorrscan_template_2020_03_10t06_09_51</text>
      </comment>
      <creationInfo>
        <author>Genevieve Savard   obs:./obs_picked1/merged.obs   NLLoc:v7.00.00(27Oct2017)</author>
        <creationTime>2020-08-21T16:08:37.000000Z</creationTime>
      </creationInfo>
      <origin publicID="smi:local/d456b878-c3d9-47b4-8598-4c49c52077f7">
        <time>
          <value>2020-03-10T06:09:51.844068Z</value>
        </time>
        <latitude>
          <value>50.449703</value>
          <uncertainty>0.0007185675303165017</uncertainty>
        </latitude>
        <longitude>
          <value>-112.121251</value>
          <uncertainty>0.0004672155343947477</uncertainty>
        </longitude>
        <depth>
          <value>0.391</value>
          <uncertainty>15.444707831487133</uncertainty>
          <confidenceLevel>68.0</confidenceLevel>
        </depth>
        <depthType>from location</depthType>
        <quality>
          <associatedPhaseCount>7</associatedPhaseCount>
          <usedPhaseCount>7</usedPhaseCount>
          <associatedStationCount>-1</associatedStationCount>
          <usedStationCount>7</usedStationCount>
          <depthPhaseCount>-1</depthPhaseCount>
          <standardError>0.312154</standardError>
          <azimuthalGap>303.575</azimuthalGap>
          <secondaryAzimuthalGap>321.965</secondaryAzimuthalGap>
          <groundTruthLevel>-</groundTruthLevel>
          <minimumDistance>0.000404736091457301</minimumDistance>
          <maximumDistance>0.0012341390398022739</maximumDistance>
          <medianDistance>0.000789786032961041</medianDistance>
        </quality>
        <comment>
          <text>Note: Depth/Latitude/Longitude errors are calculated from covariance matrix as 1D marginal (Lon/Lat errors as great circle degrees) while OriginUncertainty min/max horizontal errors are calculated from 2D error ellipsoid and are therefore seemingly higher compared to 1D errors. Error estimates can be reconstructed from the following original NonLinLoc error statistics line:
STATISTICS ExpectX -0.0755568 Y -0.121259 Z 0.00827729  CovXX 0.00269901 XY 0.00370611 XZ -0.000452711 YY 0.00638418 YZ -0.000767111 ZZ 0.000238539 EllAz1  356.329 Dip1  82.7019 Len1  0.0225624 Az2  301.329 Dip2  -4.20134 Len2  0.0377698 Len3  1.759832e-01</text>
        </comment>
        <creationInfo>
          <author>Genevieve Savard   obs:./obs_picked1/merged.obs   NLLoc:v7.00.00(27Oct2017)</author>
          <creationTime>2020-08-21T16:08:37.000000Z</creationTime>
        </creationInfo>
        <originUncertainty>
          <preferredDescription>uncertainty ellipse</preferredDescription>
          <minHorizontalUncertainty>30.4342</minHorizontalUncertainty>
          <maxHorizontalUncertainty>141.298</maxHorizontalUncertainty>
          <azimuthMaxHorizontalUncertainty>31.7823</azimuthMaxHorizontalUncertainty>
          <confidenceLevel>68.0</confidenceLevel>
        </originUncertainty>
        <arrival publicID="smi:local/179dd9f5-c854-4b9c-961e-e68ae324de10">
          <pickID>smi:local/7471ee13-b489-40b8-bcfe-b708a48d971c</pickID>
          <phase>S</phase>
          <azimuth>359.0</azimuth>
          <distance>0.0004046947226634287</distance>
          <takeoffAngle>
            <value>-1.0</value>
          </takeoffAngle>
          <timeResidual>0.0024</timeResidual>
          <timeWeight>1.9081</timeWeight>
        </arrival>
        <arrival publicID="smi:local/ef257004-bbf4-4860-a03a-bc40bb50da88">
          <pickID>smi:local/96696aaa-ab7a-44fb-8d53-fd598275093d</pickID>
          <phase>S</phase>
          <azimuth>359.0</azimuth>
          <distance>0.0006358203753845425</distance>
          <takeoffAngle>
            <value>-1.0</value>
          </takeoffAngle>
          <timeResidual>-0.2222</timeResidual>
          <timeWeight>1.6824</timeWeight>
        </arrival>
        <arrival publicID="smi:local/6d1b381d-05da-4e95-bea2-be7ad2a0ea86">
          <pickID>smi:local/fdda9e1a-237a-4426-892f-bda1fb85708b</pickID>
          <phase>S</phase>
          <azimuth>359.0</azimuth>
          <distance>0.0007698192946664333</distance>
          <takeoffAngle>
            <value>-1.0</value>
          </takeoffAngle>
          <timeResidual>-0.0239</timeResidual>
          <timeWeight>0.6424</timeWeight>
        </arrival>
        <arrival publicID="smi:local/b9e9d6f0-8148-4279-a60d-530205406c35">
          <pickID>smi:local/f1f01dcf-c68b-4949-b3a4-15a4021faf96</pickID>
          <phase>S</phase>
          <azimuth>359.0</azimuth>
          <distance>0.0007896043699966455</distance>
          <takeoffAngle>
            <value>-1.0</value>
          </takeoffAngle>
          <timeResidual>0.0053</timeResidual>
          <timeWeight>0.3116</timeWeight>
        </arrival>
        <arrival publicID="smi:local/3c6cddf2-bbf0-4577-82cf-66eabbd5f12d">
          <pickID>smi:local/5c11e9f4-269f-42b4-8eb3-418bca0bcb36</pickID>
          <phase>S</phase>
          <azimuth>359.0</azimuth>
          <distance>0.000881335173800356</distance>
          <takeoffAngle>
            <value>-1.0</value>
          </takeoffAngle>
          <timeResidual>0.7025</timeResidual>
          <timeWeight>1.0387</timeWeight>
        </arrival>
        <arrival publicID="smi:local/9549c04a-a6ad-4e7f-8e82-cd9dee52eb2f">
          <pickID>smi:local/744388de-d136-4df1-884d-e0135a02dc77</pickID>
          <phase>S</phase>
          <azimuth>359.0</azimuth>
          <distance>0.001031521881988784</distance>
          <takeoffAngle>
            <value>-1.0</value>
          </takeoffAngle>
          <timeResidual>-0.2522</timeResidual>
          <timeWeight>1.3274</timeWeight>
        </arrival>
        <arrival publicID="smi:local/2e18a0d9-acce-416c-8380-088d62379af0">
          <pickID>smi:local/ccf1be71-d6fa-434b-b253-a35c9dbd89fb</pickID>
          <phase>S</phase>
          <azimuth>359.0</azimuth>
          <distance>0.0012338692433204981</distance>
          <takeoffAngle>
            <value>-1.0</value>
          </takeoffAngle>
          <timeResidual>-0.1331</timeResidual>
          <timeWeight>0.0894</timeWeight>
        </arrival>
      </origin>
      <pick publicID="smi:local/f1f01dcf-c68b-4949-b3a4-15a4021faf96">
        <time>
          <value>2020-03-10T06:09:52.043800Z</value>
          <uncertainty>0.032</uncertainty>
        </time>
        <waveformID networkCode="XX" stationCode="C0902" channelCode="DPN"></waveformID>
        <phaseHint>S</phaseHint>
      </pick>
      <pick publicID="smi:local/ccf1be71-d6fa-434b-b253-a35c9dbd89fb">
        <time>
          <value>2020-03-10T06:09:51.991900Z</value>
          <uncertainty>0.0618</uncertainty>
        </time>
        <waveformID networkCode="XX" stationCode="C0909" channelCode="DPE"></waveformID>
        <phaseHint>S</phaseHint>
      </pick>
      <pick publicID="smi:local/744388de-d136-4df1-884d-e0135a02dc77">
        <time>
          <value>2020-03-10T06:09:51.836200Z</value>
          <uncertainty>0.0128</uncertainty>
        </time>
        <waveformID networkCode="XX" stationCode="C0209" channelCode="DPE"></waveformID>
        <phaseHint>S</phaseHint>
      </pick>
      <pick publicID="smi:local/fdda9e1a-237a-4426-892f-bda1fb85708b">
        <time>
          <value>2020-03-10T06:09:52.008500Z</value>
          <uncertainty>0.0211</uncertainty>
        </time>
        <waveformID networkCode="XX" stationCode="C0704" channelCode="DPZ"></waveformID>
        <phaseHint>S</phaseHint>
      </pick>
      <pick publicID="smi:local/5c11e9f4-269f-42b4-8eb3-418bca0bcb36">
        <time>
          <value>2020-03-10T06:09:52.763000Z</value>
          <uncertainty>0.0154</uncertainty>
        </time>
        <waveformID networkCode="XX" stationCode="C0407" channelCode="DPE"></waveformID>
        <phaseHint>S</phaseHint>
      </pick>
      <pick publicID="smi:local/7471ee13-b489-40b8-bcfe-b708a48d971c">
        <time>
          <value>2020-03-10T06:09:51.948200Z</value>
          <uncertainty>0.00914</uncertainty>
        </time>
        <waveformID networkCode="XX" stationCode="C0202" channelCode="DPZ"></waveformID>
        <phaseHint>S</phaseHint>
      </pick>
      <pick publicID="smi:local/96696aaa-ab7a-44fb-8d53-fd598275093d">
        <time>
          <value>2020-03-10T06:09:51.780100Z</value>
          <uncertainty>0.0104</uncertainty>
        </time>
        <waveformID networkCode="XX" stationCode="C0404" channelCode="DPZ"></waveformID>
        <phaseHint>S</phaseHint>
      </pick>
    </event>
  </eventParameters>
</q:quakeml>
