<?xml version='1.0' encoding='utf-8'?>
<q:quakeml xmlns="http://quakeml.org/xmlns/bed/1.2" xmlns:q="http://quakeml.org/xmlns/quakeml/1.2">
  <eventParameters publicID="smi:local/7dc2287d-2506-4c43-ac83-f0100442248a">
    <event publicID="smi:local/a4da6ae1-7c20-47dd-b8bd-535fb85f26f6">
      <preferredOriginID>smi:local/dbca1b58-5845-438c-9f09-c79204ff2194</preferredOriginID>
      <comment>
        <text>CaMI.FRS microseismicity</text>
      </comment>
      <comment id="smi:local/595b6a4a-b684-4827-b3f0-7863a1596776">
        <text>eqcorrscan_template_2020_02_18t12_15_30</text>
      </comment>
      <creationInfo>
        <author>Genevieve Savard   obs:./obs_picked5/merged.obs   NLLoc:v7.00.00(27Oct2017)</author>
        <creationTime>2020-09-18T19:52:37.000000Z</creationTime>
      </creationInfo>
      <origin publicID="smi:local/dbca1b58-5845-438c-9f09-c79204ff2194">
        <time>
          <value>2020-02-18T12:15:30.468738Z</value>
        </time>
        <latitude>
          <value>50.452578</value>
          <uncertainty>0.0039656411950698914</uncertainty>
        </latitude>
        <longitude>
          <value>-112.116736</value>
          <uncertainty>0.003949445348516941</uncertainty>
        </longitude>
        <depth>
          <value>6.25</value>
          <uncertainty>220.10770091025893</uncertainty>
          <confidenceLevel>68.0</confidenceLevel>
        </depth>
        <depthType>from location</depthType>
        <quality>
          <associatedPhaseCount>23</associatedPhaseCount>
          <usedPhaseCount>23</usedPhaseCount>
          <associatedStationCount>-1</associatedStationCount>
          <usedStationCount>23</usedStationCount>
          <depthPhaseCount>-1</depthPhaseCount>
          <standardError>0.00212635</standardError>
          <azimuthalGap>360.0</azimuthalGap>
          <secondaryAzimuthalGap>360.0</secondaryAzimuthalGap>
          <groundTruthLevel>-</groundTruthLevel>
          <minimumDistance>0.0034713993852784186</minimumDistance>
          <maximumDistance>0.0034713993852784186</maximumDistance>
          <medianDistance>0.0034713993852784186</medianDistance>
        </quality>
        <comment>
          <text>Note: Depth/Latitude/Longitude errors are calculated from covariance matrix as 1D marginal (Lon/Lat errors as great circle degrees) while OriginUncertainty min/max horizontal errors are calculated from 2D error ellipsoid and are therefore seemingly higher compared to 1D errors. Error estimates can be reconstructed from the following original NonLinLoc error statistics line:
STATISTICS ExpectX -0.0102698 Y -0.0058721 Z 0.237935  CovXX 0.19286 XY -0.000399792 XZ 0.00258706 YY 0.194445 YZ 0.000654 ZZ 0.0484474 EllAz1  75.8228 Dip1  -88.9411 Len1  0.413334 Az2  76.6386 Dip2  1.05881 Len2  0.825005 Len3  8.286894e-01</text>
        </comment>
        <creationInfo>
          <author>Genevieve Savard   obs:./obs_picked5/merged.obs   NLLoc:v7.00.00(27Oct2017)</author>
          <creationTime>2020-09-18T19:52:37.000000Z</creationTime>
        </creationInfo>
        <originUncertainty>
          <preferredDescription>uncertainty ellipse</preferredDescription>
          <minHorizontalUncertainty>665.852</minHorizontalUncertainty>
          <maxHorizontalUncertainty>668.9110000000001</maxHorizontalUncertainty>
          <azimuthMaxHorizontalUncertainty>166.616</azimuthMaxHorizontalUncertainty>
          <confidenceLevel>68.0</confidenceLevel>
        </originUncertainty>
        <arrival publicID="smi:local/1555bb3c-efec-4183-931d-0866263d11b3">
          <pickID>smi:local/b4099c52-18cb-4b8f-8aa5-297f430eb8f9</pickID>
          <phase>P</phase>
          <azimuth>359.0</azimuth>
          <distance>0.0034713813988463</distance>
          <takeoffAngle>
            <value>-1.0</value>
          </takeoffAngle>
          <timeResidual>-0.0051</timeResidual>
          <timeWeight>1.0</timeWeight>
        </arrival>
        <arrival publicID="smi:local/804a9bfe-6670-41de-9c28-53bab1bcc2d8">
          <pickID>smi:local/037f03fb-5b77-4271-8036-fe836877dc8d</pickID>
          <phase>P</phase>
          <azimuth>359.0</azimuth>
          <distance>0.0034713813988463</distance>
          <takeoffAngle>
            <value>-1.0</value>
          </takeoffAngle>
          <timeResidual>-0.0036</timeResidual>
          <timeWeight>1.0</timeWeight>
        </arrival>
        <arrival publicID="smi:local/91659789-f8ec-4fd3-a8da-b5d03a41176c">
          <pickID>smi:local/dcdfee32-e683-43af-83b8-b60c5cc5ce4d</pickID>
          <phase>P</phase>
          <azimuth>359.0</azimuth>
          <distance>0.0034713813988463</distance>
          <takeoffAngle>
            <value>-1.0</value>
          </takeoffAngle>
          <timeResidual>-0.0033</timeResidual>
          <timeWeight>1.0</timeWeight>
        </arrival>
        <arrival publicID="smi:local/a876d155-c60d-4ab5-bf11-2ad5f3fe1775">
          <pickID>smi:local/f3161757-2c22-458c-aed8-f17099ed1d30</pickID>
          <phase>P</phase>
          <azimuth>359.0</azimuth>
          <distance>0.0034713813988463</distance>
          <takeoffAngle>
            <value>-1.0</value>
          </takeoffAngle>
          <timeResidual>-0.0003</timeResidual>
          <timeWeight>1.0</timeWeight>
        </arrival>
        <arrival publicID="smi:local/6864a3dc-ca0e-4ba4-901e-01b058df5ddd">
          <pickID>smi:local/9a5d8511-a86b-4a1f-b251-0172196d8aa5</pickID>
          <phase>P</phase>
          <azimuth>359.0</azimuth>
          <distance>0.0034713813988463</distance>
          <takeoffAngle>
            <value>-1.0</value>
          </takeoffAngle>
          <timeResidual>-0.0012</timeResidual>
          <timeWeight>1.0</timeWeight>
        </arrival>
        <arrival publicID="smi:local/af3d0d6c-fde1-4591-8143-f4fa00cfcf0e">
          <pickID>smi:local/4e8fc9a4-e86a-481a-9bd2-63c4d17af47e</pickID>
          <phase>P</phase>
          <azimuth>359.0</azimuth>
          <distance>0.0034713813988463</distance>
          <takeoffAngle>
            <value>-1.0</value>
          </takeoffAngle>
          <timeResidual>0.0006</timeResidual>
          <timeWeight>1.0</timeWeight>
        </arrival>
        <arrival publicID="smi:local/379c0796-f638-40ac-9628-f7aa4c9cceb5">
          <pickID>smi:local/5838baab-5bec-4656-adba-86028f86e694</pickID>
          <phase>P</phase>
          <azimuth>359.0</azimuth>
          <distance>0.0034713813988463</distance>
          <takeoffAngle>
            <value>-1.0</value>
          </takeoffAngle>
          <timeResidual>0.002</timeResidual>
          <timeWeight>1.0</timeWeight>
        </arrival>
        <arrival publicID="smi:local/db9b424d-f9d3-4843-8f30-a4a78b570f4e">
          <pickID>smi:local/c6205cf0-f9cb-4eda-be98-14cad1cd4e84</pickID>
          <phase>P</phase>
          <azimuth>359.0</azimuth>
          <distance>0.0034713813988463</distance>
          <takeoffAngle>
            <value>-1.0</value>
          </takeoffAngle>
          <timeResidual>0.0034</timeResidual>
          <timeWeight>1.0</timeWeight>
        </arrival>
        <arrival publicID="smi:local/385f16b8-6089-4e23-8316-486f80d7c567">
          <pickID>smi:local/f2169ed5-d65f-437b-a4cc-ba97a0278885</pickID>
          <phase>P</phase>
          <azimuth>359.0</azimuth>
          <distance>0.0034713813988463</distance>
          <takeoffAngle>
            <value>-1.0</value>
          </takeoffAngle>
          <timeResidual>0.0035</timeResidual>
          <timeWeight>1.0</timeWeight>
        </arrival>
        <arrival publicID="smi:local/d5cde71c-5a18-4d98-a10a-f5a780ad54d4">
          <pickID>smi:local/b2f70cac-ce1a-44b7-be52-5c8f2e3e0285</pickID>
          <phase>P</phase>
          <azimuth>359.0</azimuth>
          <distance>0.0034713813988463</distance>
          <takeoffAngle>
            <value>-1.0</value>
          </takeoffAngle>
          <timeResidual>0.0028</timeResidual>
          <timeWeight>1.0</timeWeight>
        </arrival>
        <arrival publicID="smi:local/2a13e30d-994e-49be-9f21-8655ed433860">
          <pickID>smi:local/9a5a0b08-2875-47cd-b7ae-5d9b47c5d8dc</pickID>
          <phase>S</phase>
          <azimuth>359.0</azimuth>
          <distance>0.0034713813988463</distance>
          <takeoffAngle>
            <value>-1.0</value>
          </takeoffAngle>
          <timeResidual>-0.001</timeResidual>
          <timeWeight>1.0</timeWeight>
        </arrival>
        <arrival publicID="smi:local/5f7adf11-4186-4be6-8b7e-e0e166c82c11">
          <pickID>smi:local/10574f62-34d8-4e93-8355-400df9473645</pickID>
          <phase>S</phase>
          <azimuth>359.0</azimuth>
          <distance>0.0034713813988463</distance>
          <takeoffAngle>
            <value>-1.0</value>
          </takeoffAngle>
          <timeResidual>0.001</timeResidual>
          <timeWeight>1.0</timeWeight>
        </arrival>
        <arrival publicID="smi:local/0d5dfa60-9f84-495a-a955-cb536ffa8e7c">
          <pickID>smi:local/82b552d3-03c4-4b9b-8652-421b2c0e5b0a</pickID>
          <phase>S</phase>
          <azimuth>359.0</azimuth>
          <distance>0.0034713813988463</distance>
          <takeoffAngle>
            <value>-1.0</value>
          </takeoffAngle>
          <timeResidual>0.0003</timeResidual>
          <timeWeight>1.0</timeWeight>
        </arrival>
        <arrival publicID="smi:local/e97d1bc6-7735-4259-abe8-bd32592ca23e">
          <pickID>smi:local/99f5dcbc-ae8a-468d-8dde-827d605616f2</pickID>
          <phase>S</phase>
          <azimuth>359.0</azimuth>
          <distance>0.0034713813988463</distance>
          <takeoffAngle>
            <value>-1.0</value>
          </takeoffAngle>
          <timeResidual>0.0</timeResidual>
          <timeWeight>1.0</timeWeight>
        </arrival>
        <arrival publicID="smi:local/0969ab0c-2230-4579-8309-8831804377a6">
          <pickID>smi:local/85e5560e-50f2-4fc4-9aa2-794d58ad9838</pickID>
          <phase>S</phase>
          <azimuth>359.0</azimuth>
          <distance>0.0034713813988463</distance>
          <takeoffAngle>
            <value>-1.0</value>
          </takeoffAngle>
          <timeResidual>0.001</timeResidual>
          <timeWeight>1.0</timeWeight>
        </arrival>
        <arrival publicID="smi:local/ae8d3b42-2380-4ace-aa28-5e5eaed0c576">
          <pickID>smi:local/0c57626b-7db3-4dae-bb95-137407cc5c5b</pickID>
          <phase>S</phase>
          <azimuth>359.0</azimuth>
          <distance>0.0034713813988463</distance>
          <takeoffAngle>
            <value>-1.0</value>
          </takeoffAngle>
          <timeResidual>0.0008</timeResidual>
          <timeWeight>1.0</timeWeight>
        </arrival>
        <arrival publicID="smi:local/e325710e-490c-4af3-bcc0-875113ccf81e">
          <pickID>smi:local/a1c843a1-df84-4a6b-a129-f4ae16a0a82b</pickID>
          <phase>S</phase>
          <azimuth>359.0</azimuth>
          <distance>0.0034713813988463</distance>
          <takeoffAngle>
            <value>-1.0</value>
          </takeoffAngle>
          <timeResidual>0.0003</timeResidual>
          <timeWeight>1.0</timeWeight>
        </arrival>
        <arrival publicID="smi:local/4e7bf1d2-3169-40b8-aac4-bfd3377622c2">
          <pickID>smi:local/e48ecbd7-a362-43db-99c6-9e247cde090e</pickID>
          <phase>S</phase>
          <azimuth>359.0</azimuth>
          <distance>0.0034713813988463</distance>
          <takeoffAngle>
            <value>-1.0</value>
          </takeoffAngle>
          <timeResidual>-0.0023</timeResidual>
          <timeWeight>1.0</timeWeight>
        </arrival>
        <arrival publicID="smi:local/7f2a48ef-8297-4d0a-8235-84d47224d8f4">
          <pickID>smi:local/d1cf29fb-b934-4527-86b5-bfa2ebec22f4</pickID>
          <phase>S</phase>
          <azimuth>359.0</azimuth>
          <distance>0.0034713813988463</distance>
          <takeoffAngle>
            <value>-1.0</value>
          </takeoffAngle>
          <timeResidual>0.0015</timeResidual>
          <timeWeight>1.0</timeWeight>
        </arrival>
        <arrival publicID="smi:local/c3e7f303-7c2f-427e-9e04-3b28b0ed7fe9">
          <pickID>smi:local/06b8f5c4-1034-44e6-ab74-077589320b94</pickID>
          <phase>S</phase>
          <azimuth>359.0</azimuth>
          <distance>0.0034713813988463</distance>
          <takeoffAngle>
            <value>-1.0</value>
          </takeoffAngle>
          <timeResidual>0.0009</timeResidual>
          <timeWeight>1.0</timeWeight>
        </arrival>
        <arrival publicID="smi:local/257291c6-ad3c-40df-a69e-75a11e502624">
          <pickID>smi:local/b9f53e2e-8734-478e-ba24-fc1b2807837a</pickID>
          <phase>S</phase>
          <azimuth>359.0</azimuth>
          <distance>0.0034713813988463</distance>
          <takeoffAngle>
            <value>-1.0</value>
          </takeoffAngle>
          <timeResidual>0.0013</timeResidual>
          <timeWeight>1.0</timeWeight>
        </arrival>
        <arrival publicID="smi:local/d7142d2b-5bad-4f2a-aeef-c3e07833220b">
          <pickID>smi:local/0ab1bedd-b2e3-47af-865b-6143e35d7100</pickID>
          <phase>S</phase>
          <azimuth>359.0</azimuth>
          <distance>0.0034713813988463</distance>
          <takeoffAngle>
            <value>-1.0</value>
          </takeoffAngle>
          <timeResidual>-0.0013</timeResidual>
          <timeWeight>1.0</timeWeight>
        </arrival>
        <arrival publicID="smi:local/6015de0b-7a82-47d8-84a4-98d2b5f6ba70">
          <pickID>smi:local/fe367a2f-5952-486d-95a9-6a2d59e3cd9b</pickID>
          <phase>S</phase>
          <azimuth>359.0</azimuth>
          <distance>0.0034713813988463</distance>
          <takeoffAngle>
            <value>-1.0</value>
          </takeoffAngle>
          <timeResidual>-0.0012</timeResidual>
          <timeWeight>1.0</timeWeight>
        </arrival>
      </origin>
      <pick publicID="smi:local/037f03fb-5b77-4271-8036-fe836877dc8d">
        <time>
          <value>2020-02-18T12:15:30.667800Z</value>
          <uncertainty>0.05</uncertainty>
        </time>
        <waveformID networkCode="XX" stationCode="G2" channelCode="DPN"></waveformID>
        <phaseHint>P</phaseHint>
      </pick>
      <pick publicID="smi:local/10574f62-34d8-4e93-8355-400df9473645">
        <time>
          <value>2020-02-18T12:15:30.951800Z</value>
          <uncertainty>0.05</uncertainty>
        </time>
        <waveformID networkCode="XX" stationCode="G2" channelCode="DPZ"></waveformID>
        <phaseHint>S</phaseHint>
      </pick>
      <pick publicID="smi:local/4e8fc9a4-e86a-481a-9bd2-63c4d17af47e">
        <time>
          <value>2020-02-18T12:15:30.675300Z</value>
          <uncertainty>0.05</uncertainty>
        </time>
        <waveformID networkCode="XX" stationCode="G8" channelCode="DPN"></waveformID>
        <phaseHint>P</phaseHint>
      </pick>
      <pick publicID="smi:local/0c57626b-7db3-4dae-bb95-137407cc5c5b">
        <time>
          <value>2020-02-18T12:15:30.959100Z</value>
          <uncertainty>0.05</uncertainty>
        </time>
        <waveformID networkCode="XX" stationCode="G8" channelCode="DPZ"></waveformID>
        <phaseHint>S</phaseHint>
      </pick>
      <pick publicID="smi:local/b4099c52-18cb-4b8f-8aa5-297f430eb8f9">
        <time>
          <value>2020-02-18T12:15:30.665700Z</value>
          <uncertainty>0.05</uncertainty>
        </time>
        <waveformID networkCode="XX" stationCode="G1" channelCode="DPN"></waveformID>
        <phaseHint>P</phaseHint>
      </pick>
      <pick publicID="smi:local/9a5a0b08-2875-47cd-b7ae-5d9b47c5d8dc">
        <time>
          <value>2020-02-18T12:15:30.948600Z</value>
          <uncertainty>0.05</uncertainty>
        </time>
        <waveformID networkCode="XX" stationCode="G1" channelCode="DPZ"></waveformID>
        <phaseHint>S</phaseHint>
      </pick>
      <pick publicID="smi:local/b2f70cac-ce1a-44b7-be52-5c8f2e3e0285">
        <time>
          <value>2020-02-18T12:15:30.683900Z</value>
          <uncertainty>0.05</uncertainty>
        </time>
        <waveformID networkCode="XX" stationCode="G18" channelCode="DPN"></waveformID>
        <phaseHint>P</phaseHint>
      </pick>
      <pick publicID="smi:local/fe367a2f-5952-486d-95a9-6a2d59e3cd9b">
        <time>
          <value>2020-02-18T12:15:30.975200Z</value>
          <uncertainty>0.05</uncertainty>
        </time>
        <waveformID networkCode="XX" stationCode="G18" channelCode="DPZ"></waveformID>
        <phaseHint>S</phaseHint>
      </pick>
      <pick publicID="smi:local/9a5d8511-a86b-4a1f-b251-0172196d8aa5">
        <time>
          <value>2020-02-18T12:15:30.675100Z</value>
          <uncertainty>0.05</uncertainty>
        </time>
        <waveformID networkCode="XX" stationCode="G11" channelCode="DPN"></waveformID>
        <phaseHint>P</phaseHint>
      </pick>
      <pick publicID="smi:local/a1c843a1-df84-4a6b-a129-f4ae16a0a82b">
        <time>
          <value>2020-02-18T12:15:30.963600Z</value>
          <uncertainty>0.05</uncertainty>
        </time>
        <waveformID networkCode="XX" stationCode="G11" channelCode="DPZ"></waveformID>
        <phaseHint>S</phaseHint>
      </pick>
      <pick publicID="smi:local/82b552d3-03c4-4b9b-8652-421b2c0e5b0a">
        <time>
          <value>2020-02-18T12:15:30.953400Z</value>
          <uncertainty>0.05</uncertainty>
        </time>
        <waveformID networkCode="XX" stationCode="G4" channelCode="DPN"></waveformID>
        <phaseHint>S</phaseHint>
      </pick>
      <pick publicID="smi:local/5838baab-5bec-4656-adba-86028f86e694">
        <time>
          <value>2020-02-18T12:15:30.679400Z</value>
          <uncertainty>0.05</uncertainty>
        </time>
        <waveformID networkCode="XX" stationCode="G13" channelCode="DPZ"></waveformID>
        <phaseHint>P</phaseHint>
      </pick>
      <pick publicID="smi:local/06b8f5c4-1034-44e6-ab74-077589320b94">
        <time>
          <value>2020-02-18T12:15:30.967700Z</value>
          <uncertainty>0.05</uncertainty>
        </time>
        <waveformID networkCode="XX" stationCode="G13" channelCode="DPZ"></waveformID>
        <phaseHint>S</phaseHint>
      </pick>
      <pick publicID="smi:local/0ab1bedd-b2e3-47af-865b-6143e35d7100">
        <time>
          <value>2020-02-18T12:15:30.973000Z</value>
          <uncertainty>0.05</uncertainty>
        </time>
        <waveformID networkCode="XX" stationCode="G17" channelCode="DPZ"></waveformID>
        <phaseHint>S</phaseHint>
      </pick>
      <pick publicID="smi:local/c6205cf0-f9cb-4eda-be98-14cad1cd4e84">
        <time>
          <value>2020-02-18T12:15:30.681400Z</value>
          <uncertainty>0.05</uncertainty>
        </time>
        <waveformID networkCode="XX" stationCode="G14" channelCode="DPN"></waveformID>
        <phaseHint>P</phaseHint>
      </pick>
      <pick publicID="smi:local/e48ecbd7-a362-43db-99c6-9e247cde090e">
        <time>
          <value>2020-02-18T12:15:30.966200Z</value>
          <uncertainty>0.05</uncertainty>
        </time>
        <waveformID networkCode="XX" stationCode="G14" channelCode="DPZ"></waveformID>
        <phaseHint>S</phaseHint>
      </pick>
      <pick publicID="smi:local/d1cf29fb-b934-4527-86b5-bfa2ebec22f4">
        <time>
          <value>2020-02-18T12:15:30.966400Z</value>
          <uncertainty>0.05</uncertainty>
        </time>
        <waveformID networkCode="XX" stationCode="G12" channelCode="DPZ"></waveformID>
        <phaseHint>S</phaseHint>
      </pick>
      <pick publicID="smi:local/f2169ed5-d65f-437b-a4cc-ba97a0278885">
        <time>
          <value>2020-02-18T12:15:30.682200Z</value>
          <uncertainty>0.05</uncertainty>
        </time>
        <waveformID networkCode="XX" stationCode="G15" channelCode="DPN"></waveformID>
        <phaseHint>P</phaseHint>
      </pick>
      <pick publicID="smi:local/b9f53e2e-8734-478e-ba24-fc1b2807837a">
        <time>
          <value>2020-02-18T12:15:30.971600Z</value>
          <uncertainty>0.05</uncertainty>
        </time>
