<?xml version='1.0' encoding='utf-8'?>
<q:quakeml xmlns="http://quakeml.org/xmlns/bed/1.2" xmlns:q="http://quakeml.org/xmlns/quakeml/1.2">
  <eventParameters publicID="smi:local/a59d337a-65c5-4832-93ff-cfd97131fb08">
    <event publicID="smi:local/d4a7e5d2-7849-4853-a47a-b906ea63454e">
      <preferredOriginID>smi:local/5e2f2b37-e5e2-43c5-a1c2-aadb3e39d74c</preferredOriginID>
      <comment>
        <text>CaMI.FRS microseismicity</text>
      </comment>
      <comment id="smi:local/887d2ba1-6e63-46ef-8490-f318544e366f">
        <text>eqcorrscan_template_2020_02_18t08_42_11</text>
      </comment>
      <creationInfo>
        <author>Genevieve Savard   obs:./obs_picked5/merged.obs   NLLoc:v7.00.00(27Oct2017)</author>
        <creationTime>2020-09-18T19:52:05.000000Z</creationTime>
      </creationInfo>
      <origin publicID="smi:local/5e2f2b37-e5e2-43c5-a1c2-aadb3e39d74c">
        <time>
          <value>2020-02-18T08:42:11.964727Z</value>
        </time>
        <latitude>
          <value>50.454368</value>
          <uncertainty>3.9941929204321685e-05</uncertainty>
        </latitude>
        <longitude>
          <value>-112.127155</value>
          <uncertainty>6.180976618061452e-05</uncertainty>
        </longitude>
        <depth>
          <value>75.781</value>
          <uncertainty>4.670224833988188</uncertainty>
          <confidenceLevel>68.0</confidenceLevel>
        </depth>
        <depthType>from location</depthType>
        <quality>
          <associatedPhaseCount>33</associatedPhaseCount>
          <usedPhaseCount>33</usedPhaseCount>
          <associatedStationCount>-1</associatedStationCount>
          <usedStationCount>29</usedStationCount>
          <depthPhaseCount>-1</depthPhaseCount>
          <standardError>0.0821327</standardError>
          <azimuthalGap>226.329</azimuthalGap>
          <secondaryAzimuthalGap>226.329</secondaryAzimuthalGap>
          <groundTruthLevel>-</groundTruthLevel>
          <minimumDistance>4.287992396668685e-05</minimumDistance>
          <maximumDistance>0.006535648899909249</maximumDistance>
          <medianDistance>0.00569452239510952</medianDistance>
        </quality>
        <comment>
          <text>Note: Depth/Latitude/Longitude errors are calculated from covariance matrix as 1D marginal (Lon/Lat errors as great circle degrees) while OriginUncertainty min/max horizontal errors are calculated from 2D error ellipsoid and are therefore seemingly higher compared to 1D errors. Error estimates can be reconstructed from the following original NonLinLoc error statistics line:
STATISTICS ExpectX -0.452663 Y 0.439511 Z 0.0734588  CovXX 4.72372e-05 XY 5.47733e-07 XZ -1.25889e-05 YY 1.97255e-05 YZ 4.9549e-06 ZZ 2.1811e-05 EllAz1  334.007 Dip1  -48.9501 Len1  0.00680752 Az2  197.866 Dip2  -32.1247 Len2  0.00904396 Len3  1.361014e-02</text>
        </comment>
        <creationInfo>
          <author>Genevieve Savard   obs:./obs_picked5/merged.obs   NLLoc:v7.00.00(27Oct2017)</author>
          <creationTime>2020-09-18T19:52:05.000000Z</creationTime>
        </creationInfo>
        <originUncertainty>
          <preferredDescription>uncertainty ellipse</preferredDescription>
          <minHorizontalUncertainty>6.73376</minHorizontalUncertainty>
          <maxHorizontalUncertainty>10.4245</maxHorizontalUncertainty>
          <azimuthMaxHorizontalUncertainty>88.8599</azimuthMaxHorizontalUncertainty>
          <confidenceLevel>68.0</confidenceLevel>
        </originUncertainty>
        <arrival publicID="smi:local/61ef9e19-1eb1-45a1-bcf1-23c80323b0fa">
          <pickID>smi:local/15a361bd-b156-4aa7-9a45-f82e32d82b0b</pickID>
          <phase>P</phase>
          <azimuth>359.0</azimuth>
          <distance>4.316743708409906e-05</distance>
          <takeoffAngle>
            <value>-1.0</value>
          </takeoffAngle>
          <timeResidual>-0.2285</timeResidual>
          <timeWeight>1.5883</timeWeight>
        </arrival>
        <arrival publicID="smi:local/2ead8acd-f97c-4d29-b812-6942db812557">
          <pickID>smi:local/aa2d7132-4fce-4b17-bf36-ea12cb305d69</pickID>
          <phase>S</phase>
          <azimuth>359.0</azimuth>
          <distance>4.316743708409906e-05</distance>
          <takeoffAngle>
            <value>-1.0</value>
          </takeoffAngle>
          <timeResidual>-0.1527</timeResidual>
          <timeWeight>0.5898</timeWeight>
        </arrival>
        <arrival publicID="smi:local/69429893-3495-4ed5-9da5-91b135e74169">
          <pickID>smi:local/c1bc5bfd-72d8-46f0-9e8b-a79318e16fbb</pickID>
          <phase>P</phase>
          <azimuth>359.0</azimuth>
          <distance>0.005693605087071483</distance>
          <takeoffAngle>
            <value>-1.0</value>
          </takeoffAngle>
          <timeResidual>-0.1109</timeResidual>
          <timeWeight>0.6111</timeWeight>
        </arrival>
        <arrival publicID="smi:local/a372d9ff-bcb9-45c6-ae29-517e8242c9cd">
          <pickID>smi:local/0cbe25ea-f9e0-4fb3-98c1-be76ef374da2</pickID>
          <phase>S</phase>
          <azimuth>359.0</azimuth>
          <distance>0.005693605087071483</distance>
          <takeoffAngle>
            <value>-1.0</value>
          </takeoffAngle>
          <timeResidual>-0.2609</timeResidual>
          <timeWeight>0.086</timeWeight>
        </arrival>
        <arrival publicID="smi:local/c260f2c8-6423-4b1b-ade7-86fc17514c25">
          <pickID>smi:local/2765aedc-ff61-4c91-bcde-55a7e86a1486</pickID>
          <phase>P</phase>
          <azimuth>359.0</azimuth>
          <distance>0.005694504408677401</distance>
          <takeoffAngle>
            <value>-1.0</value>
          </takeoffAngle>
          <timeResidual>0.0585</timeResidual>
          <timeWeight>1.7476</timeWeight>
        </arrival>
        <arrival publicID="smi:local/29996930-8bc7-4736-90cd-8f3f0c4a56fc">
          <pickID>smi:local/035bd4b8-12a4-4614-9040-f11a1149d607</pickID>
          <phase>P</phase>
          <azimuth>359.0</azimuth>
          <distance>0.005694504408677401</distance>
          <takeoffAngle>
            <value>-1.0</value>
          </takeoffAngle>
          <timeResidual>0.0605</timeResidual>
          <timeWeight>1.8192</timeWeight>
        </arrival>
        <arrival publicID="smi:local/b308f2ac-4da6-417b-8239-14619bb497c1">
          <pickID>smi:local/bd871033-159c-4739-a877-b87c79d669e5</pickID>
          <phase>P</phase>
          <azimuth>359.0</azimuth>
          <distance>0.005694504408677401</distance>
          <takeoffAngle>
            <value>-1.0</value>
          </takeoffAngle>
          <timeResidual>0.0609</timeResidual>
          <timeWeight>0.6876</timeWeight>
        </arrival>
        <arrival publicID="smi:local/a42d3c03-aec4-4ebb-9725-1d6de3918a66">
          <pickID>smi:local/326e842d-9fa6-459f-990c-2451f7c7364e</pickID>
          <phase>P</phase>
          <azimuth>359.0</azimuth>
          <distance>0.005694504408677401</distance>
          <takeoffAngle>
            <value>-1.0</value>
          </takeoffAngle>
          <timeResidual>0.0615</timeResidual>
          <timeWeight>1.7245</timeWeight>
        </arrival>
        <arrival publicID="smi:local/638e0fc9-ba89-4f06-b381-2d9e58545f79">
          <pickID>smi:local/52466878-b3bf-441f-a61c-6e75f931b7b3</pickID>
          <phase>P</phase>
          <azimuth>359.0</azimuth>
          <distance>0.005694504408677401</distance>
          <takeoffAngle>
            <value>-1.0</value>
          </takeoffAngle>
          <timeResidual>0.0631</timeResidual>
          <timeWeight>1.3747</timeWeight>
        </arrival>
        <arrival publicID="smi:local/054437a8-a7b6-4fa3-8074-1f45824a7592">
          <pickID>smi:local/baced025-d0ec-4c08-9a83-867989451a65</pickID>
          <phase>P</phase>
          <azimuth>359.0</azimuth>
          <distance>0.005694504408677401</distance>
          <takeoffAngle>
            <value>-1.0</value>
          </takeoffAngle>
          <timeResidual>0.0666</timeResidual>
          <timeWeight>1.6215</timeWeight>
        </arrival>
        <arrival publicID="smi:local/7fd412ef-5afb-46c8-b0d1-bab1ba7a3efb">
          <pickID>smi:local/b3cd77e6-c599-46b1-b80d-48ebf1c35a7e</pickID>
          <phase>P</phase>
          <azimuth>359.0</azimuth>
          <distance>0.005694504408677401</distance>
          <takeoffAngle>
            <value>-1.0</value>
          </takeoffAngle>
          <timeResidual>0.0674</timeResidual>
          <timeWeight>1.652</timeWeight>
        </arrival>
        <arrival publicID="smi:local/d3177dbc-0dc4-4360-98bb-cabfd9604822">
          <pickID>smi:local/48b20716-cc5b-4a4d-be95-c71ffa3a75b8</pickID>
          <phase>P</phase>
          <azimuth>359.0</azimuth>
          <distance>0.005694504408677401</distance>
          <takeoffAngle>
            <value>-1.0</value>
          </takeoffAngle>
          <timeResidual>0.0711</timeResidual>
          <timeWeight>1.476</timeWeight>
        </arrival>
        <arrival publicID="smi:local/752f8000-63aa-454f-b445-80493dcc4bab">
          <pickID>smi:local/2dca1bc3-e4ea-4ae8-a16b-a30a8c1dac7a</pickID>
          <phase>P</phase>
          <azimuth>359.0</azimuth>
          <distance>0.005694504408677401</distance>
          <takeoffAngle>
            <value>-1.0</value>
          </takeoffAngle>
          <timeResidual>0.0726</timeResidual>
          <timeWeight>1.3142</timeWeight>
        </arrival>
        <arrival publicID="smi:local/865e826d-358d-4f5a-900b-f395d18fc6d9">
          <pickID>smi:local/b77347f0-e4f5-45c8-8af7-b31ff9c3a62d</pickID>
          <phase>P</phase>
          <azimuth>359.0</azimuth>
          <distance>0.005694504408677401</distance>
          <takeoffAngle>
            <value>-1.0</value>
          </takeoffAngle>
          <timeResidual>0.0758</timeResidual>
          <timeWeight>1.476</timeWeight>
        </arrival>
        <arrival publicID="smi:local/11926d0d-26a7-40d7-83cc-f9212f4bff52">
          <pickID>smi:local/667b8280-c960-4c3d-b646-9b0a71c9c8c0</pickID>
          <phase>P</phase>
          <azimuth>359.0</azimuth>
          <distance>0.005694504408677401</distance>
          <takeoffAngle>
            <value>-1.0</value>
          </takeoffAngle>
          <timeResidual>0.0807</timeResidual>
          <timeWeight>1.7375</timeWeight>
        </arrival>
        <arrival publicID="smi:local/1bb4812c-8dab-4bde-abdb-f6af9949e61f">
          <pickID>smi:local/fd847f3d-0bbe-4155-8148-e36640d60e4b</pickID>
          <phase>S</phase>
          <azimuth>359.0</azimuth>
          <distance>0.005694504408677401</distance>
          <takeoffAngle>
            <value>-1.0</value>
          </takeoffAngle>
          <timeResidual>-0.0526</timeResidual>
          <timeWeight>1.0524</timeWeight>
        </arrival>
        <arrival publicID="smi:local/25d53f27-5b14-400d-ad63-1d858a0f12a9">
          <pickID>smi:local/aa666c22-ed67-498f-bd65-b5ff4972ae87</pickID>
          <phase>S</phase>
          <azimuth>359.0</azimuth>
          <distance>0.005694504408677401</distance>
          <takeoffAngle>
            <value>-1.0</value>
          </takeoffAngle>
          <timeResidual>-0.0484</timeResidual>
          <timeWeight>1.4579</timeWeight>
        </arrival>
        <arrival publicID="smi:local/076c704d-4fc6-48a6-86f1-dcab1cd046e9">
          <pickID>smi:local/2e907ce4-f2ca-4d96-8b98-decc0607bf83</pickID>
          <phase>S</phase>
          <azimuth>359.0</azimuth>
          <distance>0.005694504408677401</distance>
          <takeoffAngle>
            <value>-1.0</value>
          </takeoffAngle>
          <timeResidual>-0.0403</timeResidual>
          <timeWeight>1.5496</timeWeight>
        </arrival>
        <arrival publicID="smi:local/c105f18f-bfde-4b53-8bb4-16283c0e8f3f">
          <pickID>smi:local/5a6bfbcf-3b9a-4e1e-9cb1-fcfdb8fdb7b2</pickID>
          <phase>S</phase>
          <azimuth>359.0</azimuth>
          <distance>0.005694504408677401</distance>
          <takeoffAngle>
            <value>-1.0</value>
          </takeoffAngle>
          <timeResidual>-0.041</timeResidual>
          <timeWeight>1.3814</timeWeight>
        </arrival>
        <arrival publicID="smi:local/e2fad4ec-1078-41e1-bf88-b0bab25fd6ef">
          <pickID>smi:local/486c14a3-9a63-45c6-a63d-db7b0f884f08</pickID>
          <phase>S</phase>
          <azimuth>359.0</azimuth>
          <distance>0.005694504408677401</distance>
          <takeoffAngle>
            <value>-1.0</value>
          </takeoffAngle>
          <timeResidual>-0.0388</timeResidual>
          <timeWeight>1.309</timeWeight>
        </arrival>
        <arrival publicID="smi:local/2cb48e92-19ba-4916-890c-69d04b2b8c89">
          <pickID>smi:local/a15ea31e-b69f-4749-a1be-c482bd21b6d9</pickID>
          <phase>S</phase>
          <azimuth>359.0</azimuth>
          <distance>0.005694504408677401</distance>
          <takeoffAngle>
            <value>-1.0</value>
          </takeoffAngle>
          <timeResidual>-0.0372</timeResidual>
          <timeWeight>1.0953</timeWeight>
        </arrival>
        <arrival publicID="smi:local/2f896507-3182-46c6-8d81-0c8248078b9d">
          <pickID>smi:local/2fd5bad7-8411-4cf3-837d-aa7b8dbccce6</pickID>
          <phase>S</phase>
          <azimuth>359.0</azimuth>
          <distance>0.005694504408677401</distance>
          <takeoffAngle>
            <value>-1.0</value>
          </takeoffAngle>
          <timeResidual>-0.0247</timeResidual>
          <timeWeight>1.7836</timeWeight>
        </arrival>
        <arrival publicID="smi:local/2fee7a83-9fe0-480c-9758-36867c80657b">
          <pickID>smi:local/05194059-ed3e-49f2-a82a-e239d7f390f6</pickID>
          <phase>S</phase>
          <azimuth>359.0</azimuth>
          <distance>0.005694504408677401</distance>
          <takeoffAngle>
            <value>-1.0</value>
          </takeoffAngle>
          <timeResidual>-0.0274</timeResidual>
          <timeWeight>1.3142</timeWeight>
        </arrival>
        <arrival publicID="smi:local/1a4a1c5b-8aee-4079-bb49-64c76000da17">
          <pickID>smi:local/f51cdaf6-008e-422a-9223-ebcfcb67aa0b</pickID>
          <phase>S</phase>
          <azimuth>359.0</azimuth>
          <distance>0.005694504408677401</distance>
          <takeoffAngle>
            <value>-1.0</value>
          </takeoffAngle>
          <timeResidual>-0.0174</timeResidual>
          <timeWeight>0.086</timeWeight>
        </arrival>
        <arrival publicID="smi:local/9262d13e-a933-4920-a8c4-c096327cf2ac">
          <pickID>smi:local/9d69cbd2-9be0-4558-9687-6cd3562cb4f4</pickID>
          <phase>S</phase>
          <azimuth>359.0</azimuth>
          <distance>0.005694504408677401</distance>
          <takeoffAngle>
            <value>-1.0</value>
          </takeoffAngle>
          <timeResidual>-0.0246</timeResidual>
          <timeWeight>0.086</timeWeight>
        </arrival>
        <arrival publicID="smi:local/4cdbc67a-cc95-4448-a52b-0fd9d1575108">
          <pickID>smi:local/1ae65f74-30a9-4e85-9c04-add24012843c</pickID>
          <phase>S</phase>
          <azimuth>359.0</azimuth>
          <distance>0.005694504408677401</distance>
          <takeoffAngle>
            <value>-1.0</value>
          </takeoffAngle>
          <timeResidual>-0.0159</timeResidual>
          <timeWeight>0.086</timeWeight>
        </arrival>
        <arrival publicID="smi:local/28fbc4b2-b247-4564-8770-1aa2fb034fcc">
          <pickID>smi:local/9b91fb04-c06a-4e2b-9185-08eb390dd35b</pickID>
          <phase>S</phase>
          <azimuth>359.0</azimuth>
          <distance>0.005694504408677401</distance>
          <takeoffAngle>
            <value>-1.0</value>
          </takeoffAngle>
          <timeResidual>-0.0243</timeResidual>
          <timeWeight>0.925</timeWeight>
        </arrival>
        <arrival publicID="smi:local/471905ee-b720-4560-90c7-465a5b8c6188">
          <pickID>smi:local/5a69fe86-8510-4dd9-8628-08b9c0a810fe</pickID>
          <phase>S</phase>
          <azimuth>359.0</azimuth>
          <distance>0.005694504408677401</distance>
          <takeoffAngle>
            <value>-1.0</value>
          </takeoffAngle>
          <timeResidual>-0.0206</timeResidual>
          <timeWeight>0.086</timeWeight>
        </arrival>
        <arrival publicID="smi:local/855ca115-a7e3-4666-ac6e-ec9c1517415a">
          <pickID>smi:local/e5db3737-0e1c-40e9-960a-e27f88dcc641</pickID>
          <phase>S</phase>
          <azimuth>359.0</azimuth>
          <distance>0.006017360865202226</distance>
          <takeoffAngle>
            <value>-1.0</value>
          </takeoffAngle>
          <timeResidual>-0.3283</timeResidual>
          <timeWeight>0.086</timeWeight>
        </arrival>
        <arrival publicID="smi:local/0a5cdc2e-b519-400d-81b6-a0e17d1367cf">
          <pickID>smi:local/182f17d6-34fe-4cb1-89ee-0ffdf956afd6</pickID>
          <phase>P</phase>
          <azimuth>359.0</azimuth>
          <distance>0.006509289783639772</distance>
          <takeoffAngle>
            <value>-1.0</value>
          </takeoffAngle>
          <timeResidual>-0.0809</timeResidual>
          <timeWeight>0.2899</timeWeight>
        </arrival>
        <arrival publicID="smi:local/88769eba-5a35-458d-b8fd-8b255717818e">
          <pickID>smi:local/fe2035f9-1126-4959-8227-39726af547c9</pickID>
          <phase>S</phase>
          <azimuth>359.0</azimuth>
          <distance>0.006509289783639772</distance>
          <takeoffAngle>
            <value>-1.0</value>
          </takeoffAngle>
          <timeResidual>-0.1104</timeResidual>
          <timeWeight>0.086</timeWeight>
        </arrival>
        <arrival publicID="smi:local/88e45bba-9c01-40ac-becb-ddbf5d665e55">
          <pickID>smi:local/dfd71cb9-107d-4102-b35a-5e73fec6af61</pickID>
          <phase>P</phase>
          <azimuth>359.0</azimuth>
          <distance>0.006535370110211415</distance>
          <takeoffAngle>
            <value>-1.0</value>
          </takeoffAngle>
          <timeResidual>-0.0707</timeResidual>
          <timeWeight>0.734</timeWeight>
        </arrival>
        <arrival publicID="smi:local/744bce70-cb5e-4712-8714-3d0a80d37b3e">
          <pickID>smi:local/ed4d83b1-4c03-4813-b317-1091ca51d9aa</pickID>
          <phase>S</phase>
          <azimuth>359.0</azimuth>
          <distance>0.006535370110211415</distance>
          <takeoffAngle>
            <value>-1.0</value>
          </takeoffAngle>
          <timeResidual>-0.1934</timeResidual>
          <timeWeight>0.086</timeWeight>
        </arrival>
      </origin>
      <pick publicID="smi:local/dfd71cb9-107d-4102-b35a-5e73fec6af61">
        <time>
          <value>2020-02-18T08:42:12.247300Z</value>
          <uncertainty>0.0143</uncertainty>
        </time>
        <waveformID networkCode="XX" stationCode="F0708" channelCode="DPZ"></waveformID>
        <phaseHint>P</phaseHint>
      </pick>
      <pick publicID="smi:local/ed4d83b1-4c03-4813-b317-1091ca51d9aa">
        <time>
          <value>2020-02-18T08:42:12.597900Z</value>
          <uncertainty>0.05</uncertainty>
        </time>
        <waveformID networkCode="XX" stationCode="F0708" channelCode="DPE"></waveformID>
        <phaseHint>S</phaseHint>
      </pick>
      <pick publicID="smi:local/15a361bd-b156-4aa7-9a45-f82e32d82b0b">
        <time>
          <value>2020-02-18T08:42:11.788000Z</value>
          <uncertainty>0.00638</uncertainty>
        </time>
        <waveformID networkCode="XX" stationCode="F0010" channelCode="DPZ"></waveformID>
        <phaseHint>P</phaseHint>
        <polarity>negative</polarity>
      </pick>
      <pick publicID="smi:local/aa2d7132-4fce-4b17-bf36-ea12cb305d69">
        <time>
          <value>2020-02-18T08:42:11.947700Z</value>
          <uncertainty>0.0167</uncertainty>
        </time>
        <waveformID networkCode="XX" stationCode="F0010" channelCode="DPN"></waveformID>
        <phaseHint>S</phaseHint>
      </pick>
      <pick publicID="smi:local/326e842d-9fa6-459f-990c-2451f7c7364e">
        <time>
